brand,sic,city,gu,dong,address,zip,lon,lat,col
스타벅스,I56220,서울특별시,용산구,이태원1동,서울특별시 용산구 이태원로 188,4406,126.9947813,37.53430294,1
스타벅스,I56220,서울특별시,서초구,잠원동,서울특별시 서초구 강남대로 581,6530,127.0197628,37.51366263,1
스타벅스,I56220,서울특별시,강남구,삼성1동,서울특별시 강남구 테헤란로103길 9,6173,127.0638782,37.51003785,1
스타벅스,I56220,서울특별시,관악구,서원동,서울특별시 관악구 신림로 330,8777,126.9302159,37.48384475,1
스타벅스,I56220,서울특별시,강동구,천호2동,서울특별시 강동구 천호대로157길 19,5329,127.1270214,37.53878758,1
스타벅스,I56220,서울특별시,강남구,논현1동,서울특별시 강남구 도산대로 108,6038,127.0206347,37.5161838,1
스타벅스,I56220,서울특별시,영등포구,문래동,서울특별시 영등포구 당산로 34,7297,126.8964787,37.51744978,1
스타벅스,I56220,서울특별시,마포구,대흥동,서울특별시 마포구 백범로 23,4108,126.9375433,37.55242638,1
스타벅스,I56220,서울특별시,강서구,화곡1동,서울특별시 강서구 강서로13길 3,7774,126.846036,37.53228534,1
스타벅스,I56220,서울특별시,종로구,종로1.2.3.4가동,서울특별시 종로구 청계천로 41,3188,126.9821598,37.56965992,1
스타벅스,I56220,서울특별시,강남구,삼성1동,서울특별시 강남구 영동대로 513,6164,127.0571003,37.5129394,1
스타벅스,I56220,서울특별시,영등포구,여의동,서울특별시 영등포구 은행로 11,7237,126.9202192,37.52790507,1
스타벅스,I56220,서울특별시,동작구,신대방2동,서울특별시 동작구 보라매로5길 43,7071,126.9233568,37.49142334,1
스타벅스,I56220,서울특별시,성북구,월곡2동,서울특별시 성북구 화랑로 76,2799,127.0404418,37.60181969,1
스타벅스,I56220,서울특별시,서초구,서초4동,서울특별시 서초구 강남대로 399,6615,127.0268289,37.49825898,1
스타벅스,I56220,서울특별시,강남구,대치1동,서울특별시 강남구 도곡로 408,6278,127.0552134,37.4966152,1
스타벅스,I56220,서울특별시,중구,소공동,서울특별시 중구 통일로 92,4517,126.9692029,37.5635826,1
스타벅스,I56220,서울특별시,서대문구,신촌동,서울특별시 서대문구 신촌로 121,3780,126.939278,37.55619932,1
스타벅스,I56220,서울특별시,서초구,서초1동,서울특별시 서초구 남부순환로339길 64,6722,127.0215728,37.48591615,1
스타벅스,I56220,서울특별시,서대문구,신촌동,서울특별시 서대문구 이화여대길 52,3760,126.9503015,37.56428106,1
스타벅스,I56220,서울특별시,강남구,삼성1동,서울특별시 강남구 학동로 506,6084,127.0514396,37.51868785,1
스타벅스,I56220,서울특별시,용산구,한남동,서울특별시 용산구 대사관로 67,4401,127.0056326,37.53341267,1
스타벅스,I56220,서울특별시,중구,소공동,서울특별시 중구 새문안로 22,4516,126.9686221,37.56711862,1
스타벅스,I56220,서울특별시,강남구,논현2동,서울특별시 강남구 선릉로 669,6099,127.0412398,37.51660516,1
스타벅스,I56220,서울특별시,강서구,등촌3동,서울특별시 강서구 공항대로 329,7591,126.8443343,37.5582365,1
스타벅스,I56220,서울특별시,강남구,역삼1동,서울특별시 강남구 역삼로 123,6243,127.0330005,37.49412876,1
스타벅스,I56220,서울특별시,성북구,안암동,서울특별시 성북구 인촌로 102-2,2856,127.0307477,37.5860984,1
스타벅스,I56220,서울특별시,강서구,가양3동,서울특별시 강서구 양천로 559,7532,126.8617991,37.55818091,1
스타벅스,I56220,서울특별시,광진구,구의2동,서울특별시 광진구 광나루로 519,4976,127.0871794,37.54529828,1
스타벅스,I56220,서울특별시,영등포구,문래동,서울특별시 영등포구 선유로 64,7295,126.8896814,37.5196567,1
스타벅스,I56220,서울특별시,송파구,잠실본동,서울특별시 송파구 백제고분로 69,5556,127.0790291,37.51052638,1
스타벅스,I56220,서울특별시,중구,신당동,서울특별시 중구 퇴계로 385,4569,127.0143311,37.56539165,1
스타벅스,I56220,서울특별시,강남구,대치1동,서울특별시 강남구 남부순환로 2936,6291,127.0619041,37.49334362,1
스타벅스,I56220,서울특별시,중랑구,묵1동,서울특별시 중랑구 동일로 932,2033,127.0775414,37.61382905,1
스타벅스,I56220,서울특별시,서초구,방배4동,서울특별시 서초구 방배로 184,6586,126.9924576,37.49001452,1
스타벅스,I56220,서울특별시,송파구,잠실6동,서울특별시 송파구 송파대로 562,5510,127.0995353,37.51532494,1
스타벅스,I56220,서울특별시,성북구,안암동,서울특별시 성북구 안암로 145,2841,127.0317018,37.58848499,1
스타벅스,I56220,서울특별시,중구,회현동,서울특별시 중구 소월로 10,4527,126.9753958,37.5585276,1
스타벅스,I56220,서울특별시,강남구,삼성2동,서울특별시 강남구 삼성로 605,6095,127.0527047,37.51347189,1
스타벅스,I56220,서울특별시,강남구,수서동,서울특별시 강남구 밤고개로1길 10,6349,127.1018421,37.48801336,1
스타벅스,I56220,서울특별시,중구,명동,서울특별시 중구 을지로 50,4534,126.9833126,37.56563319,1
스타벅스,I56220,서울특별시,강남구,논현2동,서울특별시 강남구 언주로 650,6098,127.0357413,37.51491147,1
스타벅스,I56220,서울특별시,종로구,가회동,서울특별시 종로구 북촌로4길 23,3056,126.9864535,37.57943711,1
스타벅스,I56220,서울특별시,강남구,역삼1동,서울특별시 강남구 테헤란로 134,6235,127.0337924,37.49937038,1
스타벅스,I56220,서울특별시,광진구,자양3동,서울특별시 광진구 능동로 50,5070,127.0691588,37.53566952,1
스타벅스,I56220,서울특별시,서초구,반포1동,서울특별시 서초구 강남대로 483,6541,127.023627,37.50531485,1
스타벅스,I56220,서울특별시,강북구,번1동,서울특별시 강북구 도봉로 342,1063,127.0261078,37.63802308,1
스타벅스,I56220,서울특별시,강남구,역삼1동,서울특별시 강남구 테헤란로 142,6236,127.0349412,37.49974019,1
스타벅스,I56220,서울특별시,서초구,반포4동,서울특별시 서초구 서래로 48,6577,126.9985423,37.49925701,1
스타벅스,I56220,서울특별시,동대문구,장안1동,서울특별시 동대문구 장한로 10,2644,127.0654766,37.56234757,1
스타벅스,I56220,서울특별시,서대문구,신촌동,서울특별시 서대문구 신촌로 129,3780,126.9403142,37.55655102,1
스타벅스,I56220,서울특별시,서초구,서초3동,서울특별시 서초구 남부순환로 2395,6711,127.0123471,37.48066733,1
스타벅스,I56220,서울특별시,종로구,혜화동,서울특별시 종로구 대명길 5,3078,127.0011396,37.58351787,1
스타벅스,I56220,서울특별시,종로구,이화동,서울특별시 종로구 동숭길 110,3085,127.003887,37.58296442,1
스타벅스,I56220,서울특별시,강남구,신사동,서울특별시 강남구 논현로175길 94,6028,127.0216293,37.52318421,1
스타벅스,I56220,서울특별시,영등포구,당산2동,서울특별시 영등포구 양평로 64,7222,126.899952,37.53513359,1
스타벅스,I56220,서울특별시,서초구,반포4동,서울특별시 서초구 사평대로 205,6545,127.0078261,37.50448036,1
스타벅스,I56220,서울특별시,서초구,반포3동,서울특별시 서초구 잠원로 69,6511,127.006958,37.51024881,1
스타벅스,I56220,서울특별시,강남구,청담동,서울특별시 강남구 도산대로 532,6071,127.0515717,37.52433852,1
스타벅스,I56220,서울특별시,강남구,개포4동,서울특별시 강남구 논현로 88,6307,127.0451163,37.47781003,1
스타벅스,I56220,서울특별시,강서구,등촌3동,서울특별시 강서구 강서로 388,7583,126.8392902,37.5601783,1
스타벅스,I56220,서울특별시,용산구,이태원1동,서울특별시 용산구 이태원로 138-1,4390,126.9892412,37.53399435,1
스타벅스,I56220,서울특별시,광진구,군자동,서울특별시 광진구 천호대로 548,4997,127.0790129,37.5569305,1
스타벅스,I56220,서울특별시,영등포구,여의동,서울특별시 영등포구 국회대로74길 12,7238,126.9210478,37.53007514,1
스타벅스,I56220,서울특별시,강남구,논현2동,서울특별시 강남구 논현로 704,6052,127.0307455,37.51460026,1
스타벅스,I56220,서울특별시,노원구,중계1동,서울특별시 노원구 중계로 217,1743,127.0759774,37.65049809,1
스타벅스,I56220,서울특별시,동작구,사당1동,서울특별시 동작구 동작대로 21,7015,126.9813515,37.4784759,1
스타벅스,I56220,서울특별시,강남구,대치2동,서울특별시 강남구 삼성로86길 7,6178,127.0579257,37.50576457,1
스타벅스,I56220,서울특별시,성북구,안암동,서울특별시 성북구 인촌로24길 51,2856,127.029689,37.58391819,1
스타벅스,I56220,서울특별시,금천구,가산동,서울특별시 금천구 벚꽃로 266,8511,126.8850681,37.47843551,1
스타벅스,I56220,서울특별시,노원구,상계6.7동,서울특별시 노원구 동일로 1413,1689,127.0600017,37.65475991,1
스타벅스,I56220,서울특별시,중구,명동,서울특별시 중구 을지로 19,4523,126.9799417,37.56629791,1
스타벅스,I56220,서울특별시,종로구,이화동,서울특별시 종로구 동숭길 133,3086,127.0027155,37.58336,1
스타벅스,I56220,서울특별시,강남구,역삼1동,서울특별시 강남구 논현로 508,6141,127.0372774,37.50188574,1
스타벅스,I56220,서울특별시,서초구,잠원동,서울특별시 서초구 강남대로 557,6531,127.0206276,37.51153431,1
스타벅스,I56220,서울특별시,중구,소공동,서울특별시 중구 서소문로 130,4514,126.9755101,37.56340323,1
스타벅스,I56220,서울특별시,동대문구,회기동,서울특별시 동대문구 이문로 37,2452,127.0560164,37.59084445,1
스타벅스,I56220,서울특별시,성동구,왕십리도선동,서울특별시 성동구 왕십리로 326,4709,127.0338801,37.56274199,1
스타벅스,I56220,서울특별시,용산구,이촌1동,서울특별시 용산구 이촌로 198,4427,126.9690527,37.52107002,1
스타벅스,I56220,서울특별시,영등포구,여의동,서울특별시 영등포구 국제금융로6길 7,7330,126.9290886,37.52239936,1
스타벅스,I56220,서울특별시,강남구,역삼2동,서울특별시 강남구 테헤란로 334,6212,127.0485159,37.5039411,1
스타벅스,I56220,서울특별시,서초구,서초1동,서울특별시 서초구 서초중앙로 118,6634,127.014217,37.49238766,1
스타벅스,I56220,서울특별시,서초구,반포4동,서울특별시 서초구 서초중앙로 225,6593,127.0115392,37.50165515,1
스타벅스,I56220,서울특별시,영등포구,영등포동,서울특별시 영등포구 영중로 15,7305,126.9039142,37.51721267,1
스타벅스,I56220,서울특별시,종로구,종로1.2.3.4가동,서울특별시 종로구 돈화문로 13,3192,126.9916457,37.56968726,1
스타벅스,I56220,서울특별시,종로구,종로1.2.3.4가동,서울특별시 종로구 종로12길 21,3190,126.9859827,37.5690711,1
스타벅스,I56220,서울특별시,강남구,신사동,서울특별시 강남구 논현로 841,6031,127.0278969,37.52404691,1
스타벅스,I56220,서울특별시,강동구,천호2동,서울특별시 강동구 천호대로 1015-14,5328,127.1251976,37.5389633,1
스타벅스,I56220,서울특별시,서초구,양재1동,서울특별시 서초구 강남대로 202,6743,127.0368501,37.48232032,1
스타벅스,I56220,서울특별시,중구,소공동,서울특별시 중구 서소문로 120,4514,126.9746449,37.56293619,1
스타벅스,I56220,서울특별시,용산구,남영동,서울특별시 용산구 한강대로 372,4323,126.9729093,37.55166709,1
스타벅스,I56220,서울특별시,서초구,서초4동,서울특별시 서초구 서초대로77길 27,6614,127.0254816,37.50011306,1
스타벅스,I56220,서울특별시,서대문구,신촌동,서울특별시 서대문구 연세로 35,3788,126.9366956,37.55871702,1
스타벅스,I56220,서울특별시,영등포구,여의동,서울특별시 영등포구 의사당대로 147,7332,126.9278277,37.51881077,1
스타벅스,I56220,서울특별시,성동구,성수2가1동,서울특별시 성동구 뚝섬로 377,4781,127.053479,37.53992399,1
스타벅스,I56220,서울특별시,서초구,방배1동,서울특별시 서초구 방배로 84,6665,126.9976309,37.48198508,1
스타벅스,I56220,서울특별시,종로구,종로1.2.3.4가동,서울특별시 종로구 종로1길 42,3152,126.9789664,37.57389426,1
스타벅스,I56220,서울특별시,강동구,성내2동,서울특별시 강동구 천호대로 1012,5378,127.1241328,37.5380904,1
스타벅스,I56220,서울특별시,송파구,잠실3동,서울특별시 송파구 올림픽로 212,5553,127.0944673,37.51066377,1
스타벅스,I56220,서울특별시,중구,명동,서울특별시 중구 을지로 65,4539,126.9851123,37.56647763,1
스타벅스,I56220,서울특별시,서대문구,충현동,서울특별시 서대문구 충정로 53,3736,126.9646165,37.5637407,1
스타벅스,I56220,서울특별시,광진구,자양3동,서울특별시 광진구 아차산로 262,5065,127.0729442,37.53699681,1
스타벅스,I56220,서울특별시,광진구,구의1동,서울특별시 광진구 아차산로 373,5044,127.0840104,37.53700208,1
스타벅스,I56220,서울특별시,은평구,응암1동,서울특별시 은평구 은평로 170,3462,126.9266481,37.6010829,1
스타벅스,I56220,서울특별시,관악구,보라매동,서울특별시 관악구 보라매로3길 23,8708,126.9255222,37.49103758,1
스타벅스,I56220,서울특별시,강남구,역삼1동,서울특별시 강남구 강남대로78길 14,6242,127.0305366,37.49489249,1
스타벅스,I56220,서울특별시,강남구,역삼1동,서울특별시 강남구 테헤란로 223,6142,127.0406526,37.50239076,1
스타벅스,I56220,서울특별시,성북구,종암동,서울특별시 성북구 종암로28길 40,2797,127.0342762,37.60130987,1
스타벅스,I56220,서울특별시,송파구,가락본동,서울특별시 송파구 송파대로30길 13,5711,127.1187684,37.49488077,1
스타벅스,I56220,서울특별시,중구,필동,서울특별시 중구 퇴계로 197,4557,126.9939076,37.56142598,1
스타벅스,I56220,서울특별시,마포구,상암동,서울특별시 마포구 성암로 267,3925,126.8909658,37.5811105,1
스타벅스,I56220,서울특별시,강남구,역삼1동,서울특별시 강남구 강남대로 456,6123,127.0255555,37.5031322,1
스타벅스,I56220,서울특별시,성북구,길음2동,서울특별시 성북구 동소문로 315,2730,127.0287256,37.60839154,1
스타벅스,I56220,서울특별시,강남구,역삼1동,서울특별시 강남구 테헤란로 211,6141,127.0392228,37.50187455,1
스타벅스,I56220,서울특별시,서초구,서초1동,서울특별시 서초구 서초중앙로 26,6720,127.0169304,37.4846702,1
스타벅스,I56220,서울특별시,은평구,응암1동,서울특별시 은평구 은평로 111,3461,126.9204912,37.60081951,1
스타벅스,I56220,서울특별시,영등포구,영등포동,서울특별시 영등포구 영등포로 254,7303,126.909583,37.51867077,1
스타벅스,I56220,서울특별시,도봉구,창1동,서울특별시 도봉구 도봉로 480,1454,127.0348687,37.64834884,1
스타벅스,I56220,서울특별시,마포구,서교동,서울특별시 마포구 월드컵로 74,4004,126.9107064,37.55576797,1
스타벅스,I56220,서울특별시,중구,소공동,서울특별시 중구 세종대로 72,4526,126.9767791,37.56248617,1
스타벅스,I56220,서울특별시,마포구,서교동,서울특별시 마포구 양화로 78,4043,126.9169043,37.55137386,1
스타벅스,I56220,서울특별시,강남구,역삼1동,서울특별시 강남구 테헤란로 305,6152,127.0437621,37.50333505,1
스타벅스,I56220,서울특별시,서초구,양재1동,서울특별시 서초구 논현로 139,6740,127.0425756,37.48198841,1
스타벅스,I56220,서울특별시,강남구,압구정동,서울특별시 강남구 압구정로42길 32,6017,127.0347168,37.52683303,1
스타벅스,I56220,서울특별시,용산구,이태원1동,서울특별시 용산구 이태원로 140-1,4390,126.9894227,37.53395986,1
스타벅스,I56220,서울특별시,중구,회현동,서울특별시 중구 세종대로 17,4512,126.9732441,37.55861704,1
스타벅스,I56220,서울특별시,구로구,오류1동,서울특별시 구로구 경인로 216,8271,126.8448498,37.49620515,1
스타벅스,I56220,서울특별시,중구,소공동,서울특별시 중구 세종대로9길 41,4513,126.9729802,37.5613449,1
스타벅스,I56220,서울특별시,중랑구,면목7동,서울특별시 중랑구 면목로 310,2249,127.0879606,37.57962529,1
스타벅스,I56220,서울특별시,중구,명동,서울특별시 중구 무교로 19,4520,126.9789728,37.56762308,1
스타벅스,I56220,서울특별시,서초구,반포3동,서울특별시 서초구 잠원로 51,6511,127.0074239,37.50923454,1
스타벅스,I56220,서울특별시,구로구,구로5동,서울특별시 구로구 새말로 97,8288,126.8902076,37.50703804,1
스타벅스,I56220,서울특별시,서초구,반포4동,서울특별시 서초구 신반포로 176,6546,127.0023932,37.50393001,1
스타벅스,I56220,서울특별시,중구,명동,서울특별시 중구 명동8나길 19,4536,126.9838724,37.56108774,1
스타벅스,I56220,서울특별시,영등포구,여의동,서울특별시 영등포구 국회대로62길 25,7236,126.9176966,37.52631416,1
스타벅스,I56220,서울특별시,강남구,삼성1동,서울특별시 강남구 테헤란로87길 22,6164,127.0594268,37.50962404,1
스타벅스,I56220,서울특별시,구로구,구로3동,서울특별시 구로구 디지털로32길 72,8393,126.8988373,37.48317801,1
스타벅스,I56220,서울특별시,광진구,광장동,서울특별시 광진구 아차산로 607,4968,127.1060879,37.54730812,1
스타벅스,I56220,서울특별시,강동구,길동,서울특별시 강동구 양재대로 1487,5342,127.1400238,37.53871178,1
스타벅스,I56220,서울특별시,강남구,대치2동,서울특별시 강남구 테헤란로104길 9,6174,127.065231,37.50858885,1
스타벅스,I56220,서울특별시,영등포구,여의동,서울특별시 영등포구 의사당대로 127,7331,126.9261637,37.52046259,1
스타벅스,I56220,서울특별시,광진구,화양동,서울특별시 광진구 능동로 107,5017,127.0707145,37.54069162,1
스타벅스,I56220,서울특별시,중구,소공동,서울특별시 중구 칠패로 27,4511,126.9720218,37.56025531,1
스타벅스,I56220,서울특별시,서초구,서초4동,서울특별시 서초구 서초중앙로 164,6605,127.013362,37.49635417,1
스타벅스,I56220,서울특별시,영등포구,여의동,서울특별시 영등포구 국제금융로8길 26,7331,126.9278776,37.5208566,1
스타벅스,I56220,서울특별시,영등포구,여의동,서울특별시 영등포구 국제금융로 56,7330,126.9297009,37.52230579,1
스타벅스,I56220,서울특별시,종로구,평창동,서울특별시 종로구 평창문화로 51,3008,126.9667633,37.60579292,1
스타벅스,I56220,서울특별시,중구,명동,서울특별시 중구 명동9가길 14,4534,126.9837157,37.56512306,1
스타벅스,I56220,서울특별시,용산구,서빙고동,서울특별시 용산구 장문로 12,4393,126.9917868,37.52897024,1
스타벅스,I56220,서울특별시,영등포구,당산2동,서울특별시 영등포구 당산로 231,7222,126.901874,37.53446668,1
스타벅스,I56220,서울특별시,강남구,논현1동,서울특별시 강남구 도산대로 134,6039,127.0233685,37.51734176,1
스타벅스,I56220,서울특별시,강남구,역삼1동,서울특별시 강남구 논현로 401,6247,127.0388807,37.49591579,1
스타벅스,I56220,서울특별시,종로구,이화동,서울특별시 종로구 대학로 116,3086,127.002321,37.58152755,1
스타벅스,I56220,서울특별시,서초구,잠원동,서울특별시 서초구 나루터로4길 61,6523,127.013448,37.50958236,1
스타벅스,I56220,서울특별시,노원구,공릉2동,서울특별시 노원구 화랑로 621,1797,127.088969,37.62877599,1
스타벅스,I56220,서울특별시,강남구,도곡2동,서울특별시 강남구 언주로30길 57,6293,127.0541634,37.48929922,1
스타벅스,I56220,서울특별시,종로구,종로1.2.3.4가동,서울특별시 종로구 청계천로 59,3189,126.9841734,37.5689294,1
스타벅스,I56220,서울특별시,구로구,구로3동,서울특별시 구로구 디지털로31길 61,8375,126.8915267,37.48590289,1
스타벅스,I56220,서울특별시,서초구,서초4동,서울특별시 서초구 서초대로 411,6615,127.0259036,37.49809817,1
스타벅스,I56220,서울특별시,강남구,역삼1동,서울특별시 강남구 테헤란로2길 27,6241,127.0296792,37.49648032,1
스타벅스,I56220,서울특별시,성북구,안암동,서울특별시 성북구 인촌로 73,2841,127.0263415,37.58709834,1
스타벅스,I56220,서울특별시,중구,명동,서울특별시 중구 명동8길 27,4536,126.9851546,37.56252242,1
스타벅스,I56220,서울특별시,강남구,대치4동,서울특별시 강남구 테헤란로64길 18,6192,127.0511761,37.50376427,1
스타벅스,I56220,서울특별시,영등포구,영등포동,서울특별시 영등포구 영중로 15,7305,126.9039142,37.51721267,1
스타벅스,I56220,서울특별시,종로구,가회동,서울특별시 종로구 북촌로 5-1,3060,126.9856325,37.57736668,1
스타벅스,I56220,서울특별시,강남구,대치1동,서울특별시 강남구 남부순환로 2909,6280,127.0573953,37.4921724,1
스타벅스,I56220,서울특별시,종로구,종로1.2.3.4가동,서울특별시 종로구 종로 47,3160,126.9824231,37.57111286,1
스타벅스,I56220,서울특별시,종로구,사직동,서울특별시 종로구 자하문로4길 6,3044,126.9726157,37.57717301,1
스타벅스,I56220,서울특별시,강남구,역삼2동,서울특별시 강남구 역삼로 310,6217,127.0484061,37.49922769,1
스타벅스,I56220,서울특별시,광진구,광장동,서울특별시 광진구 아차산로 563,4983,127.102912,37.54413034,1
스타벅스,I56220,서울특별시,중구,명동,서울특별시 중구 남대문로10길 6,4539,126.9832279,37.56686688,1
스타벅스,I56220,서울특별시,마포구,서교동,서울특별시 마포구 양화로 165,3995,126.9235995,37.55720174,1
스타벅스,I56220,서울특별시,양천구,목1동,서울특별시 양천구 목동서로 213,7995,126.8705959,37.52800858,1
스타벅스,I56220,서울특별시,종로구,종로1.2.3.4가동,서울특별시 종로구 삼일대로 394,3191,126.9880113,37.56973726,1
스타벅스,I56220,서울특별시,강남구,역삼1동,서울특별시 강남구 테헤란로 203,6141,127.0377338,37.50157409,1
스타벅스,I56220,서울특별시,금천구,가산동,서울특별시 금천구 디지털로9길 32,8512,126.8872665,37.4796276,1
스타벅스,I56220,서울특별시,중구,명동,서울특별시 중구 명동8가길 3-1,4536,126.9852338,37.56169414,1
스타벅스,I56220,서울특별시,광진구,화양동,서울특별시 광진구 능동로 120-1,5030,127.0720432,37.54122468,1
스타벅스,I56220,서울특별시,종로구,종로1.2.3.4가동,서울특별시 종로구 율곡로2길 7,3143,126.9812267,37.57500405,1
스타벅스,I56220,서울특별시,강남구,삼성1동,서울특별시 강남구 삼성로 518,6168,127.056219,37.50836401,1
스타벅스,I56220,서울특별시,강남구,역삼1동,서울특별시 강남구 강남대로 308,6253,127.0318013,37.49065888,1
스타벅스,I56220,서울특별시,강남구,일원본동,서울특별시 강남구 일원로 81,6351,127.0895788,37.49033434,1
스타벅스,I56220,서울특별시,영등포구,여의동,서울특별시 영등포구 국제금융로 10,7326,126.9248631,37.52517222,1
스타벅스,I56220,서울특별시,강남구,삼성2동,서울특별시 강남구 테헤란로 443,6158,127.0555809,37.50694425,1
스타벅스,I56220,서울특별시,강남구,논현2동,서울특별시 강남구 논현로 752,6047,127.0286278,37.5191512,1
스타벅스,I56220,서울특별시,마포구,서교동,서울특별시 마포구 와우산로 83,4041,126.9232454,37.55191842,1
스타벅스,I56220,서울특별시,서대문구,신촌동,서울특별시 서대문구 이화여대길 34,3767,126.945924,37.55843936,1
스타벅스,I56220,서울특별시,양천구,신월3동,서울특별시 양천구 남부순환로 430,7915,126.8321965,37.52951826,1
스타벅스,I56220,서울특별시,마포구,서강동,서울특별시 마포구 독막로 88,4075,126.9232071,37.54750297,1
스타벅스,I56220,서울특별시,영등포구,여의동,서울특별시 영등포구 국제금융로 86,7333,126.9317785,37.52019814,1
스타벅스,I56220,서울특별시,광진구,자양1동,서울특별시 광진구 아차산로 355,5026,127.0825464,37.53736014,1
스타벅스,I56220,서울특별시,강남구,삼성1동,서울특별시 강남구 영동대로96길 8,6173,127.063193,37.51056404,1
스타벅스,I56220,서울특별시,강남구,삼성1동,서울특별시 강남구 영동대로 513,6164,127.0591391,37.51182033,1
스타벅스,I56220,서울특별시,강남구,대치4동,서울특별시 강남구 선릉로64길 18,6206,127.0537151,37.49794579,1
스타벅스,I56220,서울특별시,중구,소공동,서울특별시 중구 남대문로7길 19,4532,126.9807573,37.56376402,1
스타벅스,I56220,서울특별시,종로구,이화동,서울특별시 종로구 대학로 122,3086,127.002233,37.58218456,1
스타벅스,I56220,서울특별시,강남구,역삼1동,서울특별시 강남구 강남대로 408,6134,127.0275177,37.49921076,1
스타벅스,I56220,서울특별시,강남구,삼성1동,서울특별시 강남구 삼성로 646,6084,127.051147,37.51767632,1
스타벅스,I56220,서울특별시,양천구,목1동,서울특별시 양천구 오목로 350,8007,126.8762541,37.52414303,1
스타벅스,I56220,서울특별시,영등포구,양평2동,서울특별시 영등포구 선유동2로 57,7212,126.8968599,37.53381625,1
스타벅스,I56220,서울특별시,영등포구,양평2동,서울특별시 영등포구 양평로 115,7208,126.8945908,37.53730008,1
스타벅스,I56220,서울특별시,중구,명동,서울특별시 중구 세종대로 124,4520,126.9778549,37.56741517,1
스타벅스,I56220,서울특별시,중랑구,상봉2동,서울특별시 중랑구 상봉로 131,2150,127.0925055,37.59787046,1
스타벅스,I56220,서울특별시,송파구,가락2동,서울특별시 송파구 동남로 141,5827,127.126233,37.49189964,1
스타벅스,I56220,서울특별시,중구,명동,서울특별시 중구 남대문로 84,4534,126.9828281,37.56463787,1
스타벅스,I56220,서울특별시,서초구,방배4동,서울특별시 서초구 방배로 211,6562,126.9905093,37.49194417,1
스타벅스,I56220,서울특별시,용산구,용산2가동,서울특별시 용산구 남산공원길 105,4340,126.9878557,37.55111136,1
스타벅스,I56220,서울특별시,영등포구,여의동,서울특별시 영등포구 의사당대로 83,7325,126.9234298,37.52335708,1
스타벅스,I56220,서울특별시,강북구,삼각산동,서울특별시 강북구 삼양로 161,1195,127.0211081,37.61838418,1
스타벅스,I56220,서울특별시,영등포구,여의동,서울특별시 영등포구 의사당대로 8,7236,126.9168822,37.5278655,1
스타벅스,I56220,서울특별시,양천구,목1동,서울특별시 양천구 오목로 279,7993,126.8683761,37.52591494,1
스타벅스,I56220,서울특별시,중구,신당동,서울특별시 중구 다산로 258,4570,127.0164407,37.56594086,1
스타벅스,I56220,서울특별시,강동구,천호2동,서울특별시 강동구 천호대로 1017,5328,127.1251325,37.53871953,1
스타벅스,I56220,서울특별시,중구,명동,서울특별시 중구 명동길 60,4537,126.9857377,37.56376186,1
스타벅스,I56220,서울특별시,중구,명동,서울특별시 중구 퇴계로 100,4631,126.9829111,37.56019644,1
스타벅스,I56220,서울특별시,강남구,논현2동,서울특별시 강남구 논현로 648,6106,127.032255,37.5115851,1
스타벅스,I56220,서울특별시,중구,명동,서울특별시 중구 명동7길 8,4534,126.9845324,37.56416598,1
스타벅스,I56220,서울특별시,영등포구,여의동,서울특별시 영등포구 여의대방로65길 24,7333,126.9292751,37.52043677,1
스타벅스,I56220,서울특별시,동작구,흑석동,서울특별시 동작구 흑석로 75-1,6911,126.9581289,37.50693583,1
스타벅스,I56220,서울특별시,서초구,잠원동,서울특별시 서초구 신반포로 257,6523,127.0119225,37.50861449,1
스타벅스,I56220,서울특별시,중구,회현동,서울특별시 중구 통일로 10,4527,126.9736159,37.5570885,1
스타벅스,I56220,서울특별시,송파구,방이1동,서울특별시 송파구 오금로 241,5645,127.1205658,37.50650884,1
스타벅스,I56220,서울특별시,중구,광희동,서울특별시 중구 장충단로 229,4561,127.0071916,37.56516063,1
스타벅스,I56220,서울특별시,서초구,반포1동,서울특별시 서초구 강남대로85길 5,6536,127.0225824,37.50736061,1
스타벅스,I56220,서울특별시,동대문구,답십리1동,서울특별시 동대문구 천호대로 263,2603,127.0511027,37.56849519,1
스타벅스,I56220,서울특별시,서대문구,연희동,서울특별시 서대문구 연희로 97,3708,126.9305022,37.56679745,1
스타벅스,I56220,서울특별시,서초구,방배본동,서울특별시 서초구 방배중앙로 162,6557,126.9865526,37.49352318,1
스타벅스,I56220,서울특별시,영등포구,영등포동,서울특별시 영등포구 영중로 119,7228,126.9050191,37.52675594,1
스타벅스,I56220,서울특별시,마포구,대흥동,서울특별시 마포구 백범로 89,4111,126.9415521,37.54825452,1
스타벅스,I56220,서울특별시,용산구,남영동,서울특별시 용산구 한강대로 275,4321,126.9722381,37.54285805,1
스타벅스,I56220,서울특별시,강서구,화곡4동,서울특별시 강서구 등촌로 57,7741,126.8631698,37.53500146,1
스타벅스,I56220,서울특별시,마포구,염리동,서울특별시 마포구 독막로 311,4156,126.9474628,37.54399137,1
스타벅스,I56220,서울특별시,양천구,신정6동,서울특별시 양천구 목동서로 299,8013,126.868819,37.520558,1
스타벅스,I56220,서울특별시,영등포구,여의동,서울특별시 영등포구 여의공원로 101,7241,126.9248723,37.52926304,1
스타벅스,I56220,서울특별시,중구,장충동,서울특별시 중구 장충단로 166,4606,127.0061331,37.55963733,1
스타벅스,I56220,서울특별시,강남구,청담동,서울특별시 강남구 도산대로57길 24,6016,127.0418193,37.52525095,1
스타벅스,I56220,서울특별시,용산구,한강로동,서울특별시 용산구 서빙고로 67,4385,126.9703921,37.52485709,1
스타벅스,I56220,서울특별시,서초구,반포4동,서울특별시 서초구 신반포로 194,6545,127.0068163,37.50642716,1
스타벅스,I56220,서울특별시,성동구,성수2가3동,서울특별시 성동구 성수이로 94,4783,127.0569453,37.54322254,1
스타벅스,I56220,서울특별시,강서구,등촌3동,서울특별시 강서구 양천로 476,7575,126.8532583,37.56158526,1
스타벅스,I56220,서울특별시,서대문구,홍제1동,서울특별시 서대문구 통일로 451,3636,126.9438335,37.5886595,1
스타벅스,I56220,서울특별시,은평구,갈현1동,서울특별시 은평구 통일로 869,3330,126.9197896,37.62035644,1
스타벅스,I56220,서울특별시,은평구,갈현1동,서울특별시 은평구 통일로 867,3330,126.9198822,37.62022213,1
스타벅스,I56220,서울특별시,중구,명동,서울특별시 중구 을지로 51,4539,126.9836633,37.56648318,1
스타벅스,I56220,서울특별시,영등포구,여의동,서울특별시 영등포구 국회대로 786,7238,126.9195743,37.5302599,1
스타벅스,I56220,서울특별시,강남구,청담동,서울특별시 강남구 학동로 419,6069,127.045958,37.5183013,1
스타벅스,I56220,서울특별시,금천구,독산3동,서울특별시 금천구 시흥대로 426,8545,126.8986457,37.47157973,1
스타벅스,I56220,서울특별시,중구,회현동,서울특별시 중구 퇴계로 18,4637,126.9751399,37.5565521,1
스타벅스,I56220,서울특별시,중구,명동,서울특별시 중구 남대문로 109,4522,126.9822303,37.56697542,1
스타벅스,I56220,서울특별시,성북구,월곡1동,서울특별시 성북구 동소문로 314,2733,127.029302,37.60761238,1
스타벅스,I56220,서울특별시,서초구,잠원동,서울특별시 서초구 강남대로 595,6526,127.019521,37.51485002,1
스타벅스,I56220,서울특별시,송파구,잠실6동,서울특별시 송파구 송파대로 570,5510,127.098885,37.51577952,1
스타벅스,I56220,서울특별시,금천구,시흥1동,서울특별시 금천구 시흥대로 164,8631,126.9032169,37.4488707,1
스타벅스,I56220,서울특별시,강서구,가양1동,서울특별시 강서구 마곡중앙6로 16,7801,126.828987,37.56039191,1
스타벅스,I56220,서울특별시,양천구,신정4동,서울특별시 양천구 목동로 203,7938,126.8637936,37.52669989,1
스타벅스,I56220,서울특별시,광진구,구의3동,서울특별시 광진구 광나루로 608,5034,127.0952529,37.5411525,1
스타벅스,I56220,서울특별시,용산구,이촌1동,서울특별시 용산구 이촌로 276,4426,126.977265,37.5186365,1
스타벅스,I56220,서울특별시,용산구,한강로동,서울특별시 용산구 한강대로 95,4378,126.9664013,37.5287598,1
스타벅스,I56220,서울특별시,마포구,서교동,서울특별시 마포구 양화로 178,4051,126.9251911,37.55749556,1
스타벅스,I56220,서울특별시,서대문구,신촌동,서울특별시 서대문구 신촌로 73,3789,126.9345003,37.55630046,1
스타벅스,I56220,서울특별시,성동구,성수1가2동,서울특별시 성동구 아차산로 42,4779,127.0490964,37.54643942,1
스타벅스,I56220,서울특별시,관악구,조원동,서울특별시 관악구 남부순환로 1419,8766,126.9084012,37.48096909,1
스타벅스,I56220,서울특별시,마포구,아현동,서울특별시 마포구 마포대로 173-14,4130,126.9535888,37.55099285,1
스타벅스,I56220,서울특별시,은평구,불광2동,서울특별시 은평구 통일로 842,3350,126.9220454,37.61868313,1
스타벅스,I56220,서울특별시,강서구,방화1동,서울특별시 강서구 방화대로 375,7517,126.816371,37.57443928,1
스타벅스,I56220,서울특별시,서초구,서초2동,서울특별시 서초구 강남대로 343,6626,127.0292201,37.49351207,1
스타벅스,I56220,서울특별시,은평구,진관동,서울특별시 은평구 진관3로 21,3301,126.9191031,37.63960511,1
스타벅스,I56220,서울특별시,금천구,가산동,서울특별시 금천구 가산디지털1로 128,8507,126.8836842,37.47722405,1
스타벅스,I56220,서울특별시,송파구,오금동,서울특별시 송파구 마천로7길 14,5656,127.1281717,37.50898908,1
스타벅스,I56220,서울특별시,서초구,양재2동,서울특별시 서초구 언남10길 10,6781,127.0441064,37.47365699,1
스타벅스,I56220,서울특별시,용산구,한강로동,서울특별시 용산구 서빙고로 69,4385,126.9723312,37.52370262,1
스타벅스,I56220,서울특별시,서초구,서초4동,서울특별시 서초구 강남대로 465,6611,127.0240884,37.50375083,1
스타벅스,I56220,서울특별시,서초구,방배1동,서울특별시 서초구 방배로 114,6665,126.9960731,37.48433262,1
스타벅스,I56220,서울특별시,송파구,가락2동,서울특별시 송파구 오금로 420,5769,127.1362616,37.4969833,1
스타벅스,I56220,서울특별시,용산구,한강로동,서울특별시 용산구 한강대로 69,4378,126.9652201,37.52745195,1
스타벅스,I56220,서울특별시,강서구,가양1동,서울특별시 강서구 마곡동로 62,7803,126.8338743,37.5605394,1
스타벅스,I56220,서울특별시,송파구,문정1동,서울특별시 송파구 송파대로 180,5806,127.1230757,37.48628966,1
스타벅스,I56220,서울특별시,강남구,도곡1동,서울특별시 강남구 남부순환로 2621,6267,127.036609,37.48524679,1
스타벅스,I56220,서울특별시,서초구,서초2동,서울특별시 서초구 남부순환로 2557,6734,127.03005,37.48442722,1
스타벅스,I56220,서울특별시,용산구,한남동,서울특별시 용산구 이태원로 252,4400,127.0011028,37.53710478,1
스타벅스,I56220,서울특별시,영등포구,여의동,서울특별시 영등포구 국제금융로6길 38,7328,126.9259809,37.52137999,1
스타벅스,I56220,서울특별시,마포구,서교동,서울특별시 마포구 양화로 125,4032,126.9202961,37.55473877,1
스타벅스,I56220,서울특별시,강남구,삼성2동,서울특별시 강남구 봉은사로 446,6153,127.048501,37.51135667,1
스타벅스,I56220,서울특별시,종로구,교남동,서울특별시 종로구 송월길 155,3165,126.9613715,37.57163234,1
스타벅스,I56220,서울특별시,금천구,가산동,서울특별시 금천구 가산디지털1로 171,8503,126.8803985,37.48148195,1
스타벅스,I56220,서울특별시,강남구,압구정동,서울특별시 강남구 언주로 861,6023,127.0330918,37.5273874,1
스타벅스,I56220,서울특별시,송파구,문정2동,서울특별시 송파구 송파대로 201,5854,127.1205807,37.48788401,1
스타벅스,I56220,서울특별시,종로구,종로1.2.3.4가동,서울특별시 종로구 종로 6,3187,126.9780823,37.56983193,1
스타벅스,I56220,서울특별시,관악구,낙성대동,서울특별시 관악구 관악로 158,8788,126.9527917,37.47929847,1
스타벅스,I56220,서울특별시,서대문구,북가좌2동,서울특별시 서대문구 증가로29길 20-14,3678,126.9118591,37.58234114,1
스타벅스,I56220,서울특별시,강남구,대치1동,서울특별시 강남구 남부순환로 2947,6280,127.0626465,37.49456594,1
스타벅스,I56220,서울특별시,양천구,목3동,서울특별시 양천구 공항대로 566,7947,126.8680505,37.54895134,1
스타벅스,I56220,서울특별시,동작구,사당1동,서울특별시 동작구 사당로 300,7013,126.9809089,37.48442805,1
스타벅스,I56220,서울특별시,종로구,삼청동,서울특별시 종로구 북촌로5가길 27,3053,126.9816593,37.5806483,1
스타벅스,I56220,서울특별시,중구,약수동,서울특별시 중구 동호로7길 31,4596,127.0108813,37.55235171,1
스타벅스,I56220,서울특별시,강남구,대치2동,서울특별시 강남구 테헤란로 518,6180,127.0605609,37.50757866,1
스타벅스,I56220,서울특별시,금천구,가산동,서울특별시 금천구 가산디지털2로 53,8588,126.881125,37.4729469,1
스타벅스,I56220,서울특별시,금천구,가산동,서울특별시 금천구 디지털로 188,8513,126.8876625,37.47731564,1
스타벅스,I56220,서울특별시,송파구,문정2동,서울특별시 송파구 충민로 10,5840,127.1193706,37.47826065,1
스타벅스,I56220,서울특별시,송파구,가락본동,서울특별시 송파구 중대로 121,5718,127.1215333,37.49440578,1
스타벅스,I56220,서울특별시,금천구,가산동,서울특별시 금천구 벚꽃로 298,8510,126.883859,37.48143359,1
스타벅스,I56220,서울특별시,금천구,가산동,서울특별시 금천구 가산디지털1로 168,8507,126.882626,37.47995323,1
스타벅스,I56220,서울특별시,서초구,서초2동,서울특별시 서초구 서초대로78길 24,6621,127.027735,37.49553624,1
스타벅스,I56220,서울특별시,서초구,서초4동,서울특별시 서초구 서초대로77길 62,6611,127.0238869,37.50272196,1
스타벅스,I56220,서울특별시,강남구,역삼1동,서울특별시 강남구 봉은사로2길 39,6123,127.0266434,37.50209594,1
스타벅스,I56220,서울특별시,강남구,역삼1동,서울특별시 강남구 강남대로 328,6252,127.0306939,37.4923528,1
스타벅스,I56220,서울특별시,강남구,역삼1동,서울특별시 강남구 강남대로 390,6232,127.0285648,37.49783175,1
스타벅스,I56220,서울특별시,강동구,천호3동,서울특별시 강동구 천호대로 1089,5339,127.1330784,37.53656154,1
스타벅스,I56220,서울특별시,광진구,구의3동,서울특별시 광진구 구의강변로 64,5116,127.0925786,37.53586081,1
스타벅스,I56220,서울특별시,강북구,수유3동,서울특별시 강북구 도봉로 365,1054,127.027328,37.64003344,1
스타벅스,I56220,서울특별시,광진구,자양3동,서울특별시 광진구 능동로 90,5065,127.070902,37.53835036,1
스타벅스,I56220,서울특별시,종로구,사직동,서울특별시 종로구 자하문로4길 6,3044,126.9726157,37.57717301,1
스타벅스,I56220,서울특별시,강남구,역삼1동,서울특별시 강남구 봉은사로 304,6143,127.0403528,37.50902009,1
스타벅스,I56220,서울특별시,동대문구,회기동,서울특별시 동대문구 회기로 141,2454,127.0520102,37.59156021,1
스타벅스,I56220,서울특별시,성북구,안암동,서울특별시 성북구 인촌로 105,2842,127.0309577,37.58648758,1
스타벅스,I56220,서울특별시,마포구,아현동,서울특별시 마포구 마포대로 130,4212,126.9529688,37.54595954,1
스타벅스,I56220,서울특별시,노원구,공릉1동,서울특별시 노원구 동일로 1081,1852,127.0722546,37.62636612,1
스타벅스,I56220,서울특별시,노원구,월계1동,서울특별시 노원구 석계로 104,1886,127.0607054,37.62317518,1
스타벅스,I56220,서울특별시,광진구,광장동,서울특별시 광진구 아차산로 537-17,4983,127.0996444,37.54295213,1
스타벅스,I56220,서울특별시,종로구,종로1.2.3.4가동,서울특별시 종로구 종로3길 17,3155,126.9788929,37.57098327,1
스타벅스,I56220,서울특별시,종로구,사직동,서울특별시 종로구 세종대로 167,3183,126.9762855,37.57125803,1
스타벅스,I56220,서울특별시,서초구,서초4동,서울특별시 서초구 서초중앙로 138,6606,127.0139553,37.49423264,1
스타벅스,I56220,서울특별시,구로구,구로3동,서울특별시 구로구 디지털로33길 11,8380,126.8954986,37.48569681,1
스타벅스,I56220,서울특별시,구로구,구로3동,서울특별시 구로구 디지털로32길 30,8390,126.8965051,37.48338151,1
스타벅스,I56220,서울특별시,구로구,구로3동,서울특별시 구로구 디지털로 285,8381,126.8944876,37.48447995,1
스타벅스,I56220,서울특별시,구로구,구로3동,서울특별시 구로구 디지털로26길 5,8389,126.8934671,37.48160507,1
스타벅스,I56220,서울특별시,은평구,대조동,서울특별시 은평구 연서로 146,3394,126.9176933,37.61181349,1
스타벅스,I56220,서울특별시,은평구,진관동,서울특별시 은평구 진관2로 12,3311,126.9185232,37.63427473,1
스타벅스,I56220,서울특별시,금천구,독산1동,서울특별시 금천구 두산로 70,8584,126.8956093,37.46895637,1
스타벅스,I56220,서울특별시,강동구,길동,서울특별시 강동구 양재대로 1441,5355,127.1383955,37.5346812,1
스타벅스,I56220,서울특별시,관악구,인헌동,서울특별시 관악구 남부순환로 1948,8793,126.9650001,37.4761983,1
스타벅스,I56220,서울특별시,서초구,서초3동,서울특별시 서초구 효령로 274,6716,127.0141978,37.48438612,1
스타벅스,I56220,서울특별시,중구,명동,서울특별시 중구 퇴계로 100,4631,126.9829111,37.56019644,1
스타벅스,I56220,서울특별시,노원구,상계10동,서울특별시 노원구 노원로 569,1687,127.0570787,37.66096272,1
스타벅스,I56220,서울특별시,노원구,상계6.7동,서울특별시 노원구 노해로 502,1752,127.0638259,37.65436683,1
스타벅스,I56220,서울특별시,강남구,논현2동,서울특별시 강남구 논현로 648,6106,127.032255,37.5115851,1
스타벅스,I56220,서울특별시,강남구,대치2동,서울특별시 강남구 삼성로 402,6185,127.0588155,37.50335683,1
스타벅스,I56220,서울특별시,강남구,대치4동,서울특별시 강남구 도곡로 457,6209,127.0601595,37.49899741,1
스타벅스,I56220,서울특별시,강남구,대치2동,서울특별시 강남구 도곡로 511,6191,127.0622213,37.49962651,1
스타벅스,I56220,서울특별시,서대문구,신촌동,서울특별시 서대문구 신촌로 1,3785,126.9273453,37.55881265,1
스타벅스,I56220,서울특별시,마포구,서교동,서울특별시 마포구 월드컵북로 22,3992,126.9199943,37.55683543,1
스타벅스,I56220,서울특별시,종로구,숭인2동,서울특별시 종로구 종로 344,3114,127.0160686,37.57271361,1
스타벅스,I56220,서울특별시,강동구,성내3동,서울특별시 강동구 양재대로 1303,5408,127.1339281,37.52276357,1
스타벅스,I56220,서울특별시,강서구,가양1동,서울특별시 강서구 마곡중앙로 161-17,7788,126.825947,37.56802948,1
스타벅스,I56220,서울특별시,마포구,도화동,서울특별시 마포구 마포대로 68,4168,126.9491392,37.54145635,1
스타벅스,I56220,서울특별시,마포구,공덕동,서울특별시 마포구 백범로 212,4196,126.9533465,37.54242179,1
스타벅스,I56220,서울특별시,마포구,용강동,서울특별시 마포구 마포대로 45,4167,126.9463581,37.54046745,1
스타벅스,I56220,서울특별시,마포구,아현동,서울특별시 마포구 마포대로 201,4130,126.9555066,37.55224426,1
스타벅스,I56220,서울특별시,중구,명동,서울특별시 중구 명동10길 41,4537,126.9858515,37.56205085,1
스타벅스,I56220,서울특별시,중구,명동,서울특별시 중구 명동9가길 14,4534,126.9837157,37.56512306,1
스타벅스,I56220,서울특별시,중구,명동,서울특별시 중구 명동7길 8,4534,126.9845324,37.56416598,1
스타벅스,I56220,서울특별시,중구,명동,서울특별시 중구 퇴계로 101,4535,126.9830833,37.56085569,1
스타벅스,I56220,서울특별시,중구,명동,서울특별시 중구 퇴계로 101,4535,126.9830833,37.56085569,1
스타벅스,I56220,서울특별시,중구,명동,서울특별시 중구 남대문로 68-1,4535,126.9822587,37.56322733,1
스타벅스,I56220,서울특별시,중구,명동,서울특별시 중구 명동길 60,4537,126.9857377,37.56376186,1
스타벅스,I56220,서울특별시,강동구,명일2동,서울특별시 강동구 동남로75길 5,5269,127.1559874,37.55400074,1
스타벅스,I56220,서울특별시,서대문구,남가좌2동,서울특별시 서대문구 거북골로 53,3665,126.9223224,37.57828336,1
스타벅스,I56220,서울특별시,양천구,목5동,서울특별시 양천구 목동동로 411,7984,126.882198,37.5367329,1
스타벅스,I56220,서울특별시,양천구,목5동,서울특별시 양천구 목동서로 67,7983,126.8785371,37.53638282,1
스타벅스,I56220,서울특별시,송파구,문정2동,서울특별시 송파구 송파대로 167,5855,127.1207441,37.4845513,1
스타벅스,I56220,서울특별시,송파구,문정2동,서울특별시 송파구 송파대로 111,5837,127.1248723,37.47961708,1
스타벅스,I56220,서울특별시,강북구,송중동,서울특별시 강북구 도봉로 32,1220,127.0306855,37.61184062,1
스타벅스,I56220,서울특별시,강북구,미아동,서울특별시 강북구 도봉로 196,1157,127.0265575,37.62613312,1
스타벅스,I56220,서울특별시,서초구,방배본동,서울특별시 서초구 방배중앙로 204,6552,126.9856769,37.49723701,1
스타벅스,I56220,서울특별시,서초구,방배본동,서울특별시 서초구 방배중앙로 204,6552,126.9856769,37.49723701,1
스타벅스,I56220,서울특별시,송파구,오금동,서울특별시 송파구 마천로 53,5657,127.1266385,37.50854524,1
스타벅스,I56220,서울특별시,강서구,방화1동,서울특별시 강서구 방화대로 375,7517,126.816371,37.57443928,1
스타벅스,I56220,서울특별시,강남구,도곡1동,서울특별시 강남구 강남대로 282,6258,127.032473,37.48855591,1
스타벅스,I56220,서울특별시,서초구,방배2동,서울특별시 서초구 방배천로 5-4,6693,126.9821471,37.47733842,1
스타벅스,I56220,서울특별시,관악구,남현동,서울특별시 관악구 남부순환로 2082-25,8806,126.981,37.47604903,1
스타벅스,I56220,서울특별시,성북구,삼선동,서울특별시 성북구 동소문로 10,2860,127.0073203,37.58872396,1
스타벅스,I56220,서울특별시,강남구,대치2동,서울특별시 강남구 영동대로86길 12,6174,127.0651728,37.50781348,1
스타벅스,I56220,서울특별시,강남구,삼성1동,서울특별시 강남구 테헤란로87길 33,6167,127.0579087,37.50981919,1
스타벅스,I56220,서울특별시,종로구,삼청동,서울특별시 종로구 삼청로 111-1,3049,126.9817648,37.58537065,1
스타벅스,I56220,서울특별시,중랑구,상봉1동,서울특별시 중랑구 망우로 307,2098,127.0864584,37.59693178,1
스타벅스,I56220,서울특별시,마포구,상암동,서울특별시 마포구 월드컵북로 375,3908,126.8908284,37.57739695,1
스타벅스,I56220,서울특별시,마포구,상암동,서울특별시 마포구 상암산로 34,3909,126.8892257,37.57630064,1
스타벅스,I56220,서울특별시,강동구,강일동,서울특별시 강동구 상일로10길 36,5288,127.174087,37.55071373,1
스타벅스,I56220,서울특별시,종로구,사직동,서울특별시 종로구 새문안로 92,3186,126.9748689,37.56972298,1
스타벅스,I56220,서울특별시,마포구,서강동,서울특별시 마포구 서강로 69,4065,126.9316785,37.54941805,1
스타벅스,I56220,서울특별시,마포구,서교동,서울특별시 마포구 양화로 105,4033,126.9185611,37.55340737,1
스타벅스,I56220,서울특별시,중구,소공동,서울특별시 중구 서소문로 99,4516,126.9721669,37.5628786,1
스타벅스,I56220,서울특별시,중구,소공동,서울특별시 중구 서소문로 99,4516,126.9721669,37.5628786,1
스타벅스,I56220,서울특별시,서초구,서초1동,서울특별시 서초구 서초중앙로 64,6640,127.0151529,37.48743065,1
스타벅스,I56220,서울특별시,관악구,중앙동,서울특별시 관악구 남부순환로 1817,8758,126.9522051,37.481627,1
스타벅스,I56220,서울특별시,관악구,청룡동,서울특별시 관악구 남부순환로 1812,8787,126.9513192,37.48110554,1
스타벅스,I56220,서울특별시,중구,명동,서울특별시 중구 소공로 70,4535,126.9821565,37.56158656,1
스타벅스,I56220,서울특별시,서초구,서초2동,서울특별시 서초구 서초대로74길 29,6621,127.0274035,37.49493882,1
스타벅스,I56220,서울특별시,송파구,삼전동,서울특별시 송파구 석촌호수로 176,5602,127.0966117,37.50636412,1
스타벅스,I56220,서울특별시,송파구,석촌동,서울특별시 송파구 백제고분로 358,5685,127.1060134,37.50424607,1
스타벅스,I56220,서울특별시,송파구,송파1동,서울특별시 송파구 석촌호수로 262,5624,127.1052164,37.50943014,1
스타벅스,I56220,서울특별시,강남구,역삼1동,서울특별시 강남구 선릉로93길 22,6148,127.046716,37.50495379,1
스타벅스,I56220,서울특별시,강남구,삼성2동,서울특별시 강남구 봉은사로 407,6097,127.0445494,37.51077512,1
스타벅스,I56220,서울특별시,성북구,동선동,서울특별시 성북구 보문로34길 62,2849,127.0188421,37.59082962,1
스타벅스,I56220,서울특별시,종로구,종로1.2.3.4가동,서울특별시 종로구 삼일대로19길 20,3190,126.9864276,37.56965159,1
스타벅스,I56220,서울특별시,중구,소공동,서울특별시 중구 세종대로18길 32,4531,126.9789243,37.56371214,1
스타벅스,I56220,서울특별시,송파구,방이2동,서울특별시 송파구 오금로 87,5542,127.1074057,37.51460076,1
스타벅스,I56220,서울특별시,송파구,방이1동,서울특별시 송파구 오금로 241,5645,127.1205089,37.50654446,1
스타벅스,I56220,서울특별시,송파구,송파1동,서울특별시 송파구 송파대로 386,5668,127.1103348,37.50226933,1
스타벅스,I56220,서울특별시,송파구,위례동,서울특별시 송파구 위례광장로 230,5849,127.1437439,37.47854792,1
스타벅스,I56220,서울특별시,용산구,남영동,서울특별시 용산구 한강대로 291,4321,126.9719251,37.54422491,1
스타벅스,I56220,서울특별시,용산구,청파동,서울특별시 용산구 청파로47가길 7-11,4313,126.9673037,37.544545,1
스타벅스,I56220,서울특별시,동작구,상도1동,서울특별시 동작구 상도로 354,7040,126.9527047,37.4968682,1
스타벅스,I56220,서울특별시,동작구,상도1동,서울특별시 동작구 사당로 4,7027,126.9548399,37.49540038,1
스타벅스,I56220,서울특별시,동작구,상도3동,서울특별시 동작구 상도로 102,7041,126.931762,37.49993346,1
스타벅스,I56220,서울특별시,구로구,신도림동,서울특별시 구로구 경인로 610,8213,126.8839424,37.50546526,1
스타벅스,I56220,서울특별시,관악구,신림동,서울특별시 관악구 남부순환로 1619,8754,126.9304873,37.48463112,1
스타벅스,I56220,서울특별시,관악구,신림동,서울특별시 관악구 신림로 355-1,8760,126.9291549,37.48608776,1
스타벅스,I56220,서울특별시,강남구,신사동,서울특별시 강남구 압구정로12길 32,6028,127.022506,37.52188494,1
스타벅스,I56220,서울특별시,동대문구,용신동,서울특별시 동대문구 왕산로 19,2580,127.0255032,37.5767024,1
스타벅스,I56220,서울특별시,중구,회현동,서울특별시 중구 퇴계로 77,4530,126.9807585,37.56034908,1
스타벅스,I56220,서울특별시,중구,회현동,서울특별시 중구 소공로 63,4530,126.9809659,37.56090951,1
스타벅스,I56220,서울특별시,강남구,압구정동,서울특별시 강남구 언주로174길 29,6017,127.03642,37.52810841,1
스타벅스,I56220,서울특별시,송파구,잠실본동,서울특별시 송파구 올림픽로 96,5557,127.0812008,37.51145336,1
스타벅스,I56220,서울특별시,서대문구,신촌동,서울특별시 서대문구 명물길 24,3777,126.9381235,37.55779279,1
스타벅스,I56220,서울특별시,마포구,서교동,서울특별시 마포구 신촌로16길 10,4057,126.9346636,37.55516663,1
스타벅스,I56220,서울특별시,서대문구,신촌동,서울특별시 서대문구 연세로 10-1,3779,126.937101,37.55647708,1
스타벅스,I56220,서울특별시,강남구,청담동,서울특별시 강남구 선릉로 836,6014,127.0405131,37.52653786,1
스타벅스,I56220,서울특별시,강남구,청담동,서울특별시 강남구 선릉로 836,6014,127.0405131,37.52653786,1
스타벅스,I56220,서울특별시,강남구,압구정동,서울특별시 강남구 압구정로30길 17,6022,127.0295417,37.52632207,1
스타벅스,I56220,서울특별시,중구,다산동,서울특별시 중구 다산로 129,4607,127.0107162,37.55542289,1
스타벅스,I56220,서울특별시,강서구,가양1동,서울특별시 강서구 강서로 471,7791,126.8405586,37.56743505,1
스타벅스,I56220,서울특별시,강서구,가양1동,서울특별시 강서구 강서로 463,7791,126.840442,37.56692032,1
스타벅스,I56220,서울특별시,강서구,가양1동,서울특별시 강서구 강서로 463,7791,126.840442,37.56692032,1
스타벅스,I56220,서울특별시,성동구,사근동,서울특별시 성동구 왕십리로 241,4765,127.0400086,37.55707033,1
스타벅스,I56220,서울특별시,영등포구,여의동,서울특별시 영등포구 국제금융로2길 28,7325,126.924483,37.52406949,1
스타벅스,I56220,서울특별시,강남구,역삼1동,서울특별시 강남구 도곡로 183,6257,127.0393917,37.49222561,1
스타벅스,I56220,서울특별시,강남구,역삼1동,서울특별시 강남구 도곡로 183,6257,127.0393917,37.49222561,1
스타벅스,I56220,서울특별시,강남구,역삼1동,서울특별시 강남구 테헤란로 145,6132,127.0351776,37.50070625,1
스타벅스,I56220,서울특별시,동작구,상도3동,서울특별시 동작구 상도로 102,7041,126.931762,37.49993346,1
스타벅스,I56220,서울특별시,서대문구,신촌동,서울특별시 서대문구 성산로 565,3721,126.9463211,37.56640809,1
스타벅스,I56220,서울특별시,서대문구,신촌동,서울특별시 서대문구 연세로 50,3722,126.9429168,37.56380069,1
스타벅스,I56220,서울특별시,은평구,대조동,서울특별시 은평구 연서로 216,3385,126.9201098,37.61780045,1
스타벅스,I56220,서울특별시,은평구,대조동,서울특별시 은평구 연서로 216,3385,126.9201098,37.61780045,1
스타벅스,I56220,서울특별시,서대문구,연희동,서울특별시 서대문구 연희로 144,3723,126.9338837,37.57018891,1
스타벅스,I56220,서울특별시,강서구,염창동,서울특별시 강서구 공항대로 627,7558,126.8745264,37.54727425,1
스타벅스,I56220,서울특별시,영등포구,신길3동,서울특별시 영등포구 신길로 137,7396,126.9100596,37.50456481,1
스타벅스,I56220,서울특별시,서초구,서초3동,서울특별시 서초구 남부순환로323길 1,6719,127.0134831,37.48112734,1
스타벅스,I56220,서울특별시,양천구,목1동,서울특별시 양천구 오목로 354,8007,126.8767663,37.52394066,1
스타벅스,I56220,서울특별시,송파구,방이1동,서울특별시 송파구 위례성대로 102,5637,127.122997,37.51332992,1
스타벅스,I56220,서울특별시,강동구,성내1동,서울특별시 강동구 강동대로 171,5402,127.1259321,37.52547091,1
스타벅스,I56220,서울특별시,송파구,방이2동,서울특별시 송파구 위례성대로 38,5627,127.1163168,37.51578507,1
스타벅스,I56220,서울특별시,동대문구,이문1동,서울특별시 동대문구 휘경로 12-1,2441,127.061379,37.59572582,1
스타벅스,I56220,서울특별시,동대문구,이문1동,서울특별시 동대문구 이문로 93,2451,127.0592092,37.59537516,1
스타벅스,I56220,서울특별시,용산구,한강로동,서울특별시 용산구 한강대로21나길 7,4377,126.9632226,37.52790298,1
스타벅스,I56220,서울특별시,노원구,월계3동,서울특별시 노원구 마들로3길 15,1906,127.0619664,37.62650103,1
스타벅스,I56220,서울특별시,마포구,성산2동,서울특별시 마포구 월드컵로 240,3932,126.8972574,37.56827565,1
스타벅스,I56220,서울특별시,중구,명동,서울특별시 중구 을지로5길 16,4539,126.9848909,37.56694427,1
스타벅스,I56220,서울특별시,중구,명동,서울특별시 중구 남대문로10길 9,4540,126.9832121,37.56720013,1
스타벅스,I56220,서울특별시,서초구,방배4동,서울특별시 서초구 서초대로 3-4,6568,126.9830474,37.48598728,1
스타벅스,I56220,서울특별시,서초구,방배4동,서울특별시 서초구 동작대로 112,6568,126.9826899,37.4864978,1
스타벅스,I56220,서울특별시,용산구,한남동,서울특별시 용산구 이태원로 213,4349,126.9975778,37.53501151,1
스타벅스,I56220,서울특별시,송파구,잠실6동,서울특별시 송파구 올림픽로35길 141,5510,127.098885,37.51577952,1
스타벅스,I56220,서울특별시,송파구,잠실6동,서울특별시 송파구 올림픽로35가길 9,5510,127.1034466,37.51743613,1
스타벅스,I56220,서울특별시,중구,소공동,서울특별시 중구 남대문로7길 19,4532,126.9807573,37.56376402,1
스타벅스,I56220,서울특별시,종로구,종로1.2.3.4가동,서울특별시 종로구 종로 64,3189,126.9845218,37.56995057,1
스타벅스,I56220,서울특별시,종로구,종로1.2.3.4가동,서울특별시 종로구 삼일대로 403-1,3164,126.987331,37.57065049,1
스타벅스,I56220,서울특별시,종로구,종로1.2.3.4가동,서울특별시 종로구 종로 113-1,3139,126.9902072,37.57058502,1
스타벅스,I56220,서울특별시,종로구,종로1.2.3.4가동,서울특별시 종로구 삼일대로20길 13,3191,126.9886564,37.56974278,1
스타벅스,I56220,서울특별시,종로구,종로1.2.3.4가동,서울특별시 종로구 종로5길 30,3158,126.9806835,37.57166551,1
스타벅스,I56220,서울특별시,종로구,평창동,서울특별시 종로구 평창문화로 51,3008,126.9667633,37.60579292,1
스타벅스,I56220,서울특별시,성북구,종암동,서울특별시 성북구 종암로 122,2797,127.0339835,37.60118133,1
스타벅스,I56220,서울특별시,노원구,상계6.7동,서울특별시 노원구 동일로 1339,1767,127.0621587,37.64815447,1
스타벅스,I56220,서울특별시,중구,을지로동,서울특별시 중구 수표로 34,4555,126.9903364,37.56436893,1
스타벅스,I56220,서울특별시,중랑구,신내1동,서울특별시 중랑구 신내로 72,2069,127.0956531,37.60540032,1
스타벅스,I56220,서울특별시,중랑구,상봉2동,서울특별시 중랑구 망우로30길 3,2120,127.0747289,37.59307404,1
스타벅스,I56220,서울특별시,강남구,논현2동,서울특별시 강남구 봉은사로 213,6109,127.0353547,37.50804228,1
스타벅스,I56220,서울특별시,강남구,논현2동,서울특별시 강남구 봉은사로 213,6109,127.0353547,37.50804228,1
스타벅스,I56220,서울특별시,강동구,천호3동,서울특별시 강동구 천호대로 1037,5335,127.1273154,37.53783463,1
스타벅스,I56220,서울특별시,서초구,내곡동,서울특별시 서초구 청계산로 203,6802,127.0562524,37.4472724,1
스타벅스,I56220,서울특별시,강남구,청담동,서울특별시 강남구 도산대로 458,6062,127.0468501,37.52375987,1
스타벅스,I56220,서울특별시,강남구,청담동,서울특별시 강남구 영동대로 720,6075,127.056441,37.52217895,1
스타벅스,I56220,서울특별시,동대문구,전농1동,서울특별시 동대문구 왕산로40길 2,2559,127.044812,37.57976158,1
스타벅스,I56220,서울특별시,서대문구,충현동,서울특별시 서대문구 서소문로 21,3742,126.9640699,37.55988846,1
스타벅스,I56220,서울특별시,서대문구,충현동,서울특별시 서대문구 서소문로 21,3742,126.9640699,37.55988846,1
스타벅스,I56220,서울특별시,강남구,논현2동,서울특별시 강남구 도산대로 328,6055,127.0379529,37.52239022,1
스타벅스,I56220,서울특별시,금천구,가산동,서울특별시 금천구 디지털로9길 32,8512,126.8872665,37.4796276,1
스타벅스,I56220,서울특별시,금천구,가산동,서울특별시 금천구 가산디지털1로 128,8507,126.8836842,37.47722405,1
스타벅스,I56220,서울특별시,서초구,잠원동,서울특별시 서초구 강남대로 595,6526,127.019521,37.51485002,1
스타벅스,I56220,서울특별시,마포구,염리동,서울특별시 마포구 독막로 311,4156,126.9474628,37.54399137,1
스타벅스,I56220,서울특별시,구로구,신도림동,서울특별시 구로구 경인로 662,8209,126.8884846,37.50805804,1
스타벅스,I56220,서울특별시,구로구,신도림동,서울특별시 구로구 경인로 662,8209,126.8884846,37.50805804,1
스타벅스,I56220,서울특별시,영등포구,여의동,서울특별시 영등포구 국제금융로 10,7326,126.9248631,37.52517222,1
스타벅스,I56220,서울특별시,영등포구,여의동,서울특별시 영등포구 여의대방로65길 24,7333,126.9292751,37.52043677,1
스타벅스,I56220,서울특별시,마포구,서교동,서울특별시 마포구 양화로 165,3995,126.9235995,37.55720174,1
스타벅스,I56220,서울특별시,강남구,삼성1동,서울특별시 강남구 영동대로 616,6081,127.0601934,37.51524372,1
스타벅스,I56220,서울특별시,강동구,천호2동,서울특별시 강동구 천호대로157길 19,5329,127.1270214,37.53878758,1
스타벅스,I56220,서울특별시,강남구,삼성1동,서울특별시 강남구 테헤란로 505,6168,127.0574281,37.50756271,1
스타벅스,I56220,서울특별시,강남구,대치2동,서울특별시 강남구 영동대로 215,6283,127.0685071,37.49799127,1
스타벅스,I56220,서울특별시,용산구,한남동,서울특별시 용산구 독서당로 94,4420,127.0109208,37.53479964,1
스타벅스,I56220,서울특별시,성북구,성북동,서울특별시 성북구 성북로 11,2880,127.0049043,37.58904601,1
스타벅스,I56220,서울특별시,마포구,서교동,서울특별시 마포구 양화로 45,4036,126.9139374,37.55149077,1
스타벅스,I56220,서울특별시,마포구,합정동,서울특별시 마포구 월드컵로1길 14,4024,126.9120459,37.5500407,1
스타벅스,I56220,서울특별시,마포구,서교동,서울특별시 마포구 와우산로 101,4054,126.9248661,37.5533298,1
스타벅스,I56220,서울특별시,마포구,서강동,서울특별시 마포구 와우산로 64,4067,126.9232587,37.55020656,1
스타벅스,I56220,서울특별시,강서구,화곡4동,서울특별시 강서구 등촌로 57,7741,126.8631123,37.53506398,1
스타벅스,I56220,서울특별시,강서구,화곡1동,서울특별시 강서구 화곡로 142,7715,126.837569,37.54055489,1
스타벅스,I56220,서울특별시,성동구,왕십리도선동,서울특별시 성동구 왕십리로 410,4701,127.0240621,37.56654474,1
스타벅스,I56220,서울특별시,중구,황학동,서울특별시 중구 청계천로 400,4572,127.0214482,37.57080306,1
스타벅스,I56220,서울특별시,중구,회현동,서울특별시 중구 퇴계로 72,4632,126.9805829,37.55911313,1
이디아커피,I56220,서울특별시,마포구,상암동,서울특별시 마포구 월드컵북로 375,3908,126.8908284,37.57739695,0
이디아커피,I56220,서울특별시,강서구,화곡1동,서울특별시 강서구 가로공원로76길 61,7767,126.8382526,37.53441656,0
이디아커피,I56220,서울특별시,성북구,종암동,서울특별시 성북구 종암로 105,2804,127.0339369,37.59952304,0
이디아커피,I56220,서울특별시,강서구,화곡6동,서울특별시 강서구 화곡로 292,7663,126.8487572,37.55030557,0
이디아커피,I56220,서울특별시,서초구,방배본동,서울특별시 서초구 동광로 1,6560,126.9830125,37.49105991,0
이디아커피,I56220,서울특별시,강서구,등촌3동,서울특별시 강서구 강서로54길 11,7591,126.8393361,37.55940386,0
이디아커피,I56220,서울특별시,강남구,삼성1동,서울특별시 강남구 테헤란로87길 37,6166,127.0577002,37.51020498,0
이디아커피,I56220,서울특별시,마포구,서교동,서울특별시 마포구 월드컵로 82-1,3996,126.910211,37.55636709,0
이디아커피,I56220,서울특별시,구로구,신도림동,서울특별시 구로구 구로중앙로 228,8205,126.8765916,37.50616146,0
이디아커피,I56220,서울특별시,종로구,숭인2동,서울특별시 종로구 종로 354,3114,127.0167767,37.57309795,0
이디아커피,I56220,서울특별시,강서구,방화1동,서울특별시 강서구 방화대로34길 90,7595,126.8213972,37.57085843,0
이디아커피,I56220,서울특별시,서대문구,신촌동,서울특별시 서대문구 신촌로 87-20,3789,126.9364442,37.5564982,0
이디아커피,I56220,서울특별시,중구,소공동,서울특별시 중구 서소문로11길 8,4515,126.9730785,37.56325596,0
이디아커피,I56220,서울특별시,종로구,가회동,서울특별시 종로구 창덕궁1길 41,3058,126.9868409,37.57925122,0
이디아커피,I56220,서울특별시,강남구,역삼1동,서울특별시 강남구 논현로63길 16,6257,127.0390991,37.49299814,0
이디아커피,I56220,서울특별시,강서구,화곡3동,서울특별시 강서구 화곡로 133,7712,126.8364785,37.54082347,0
이디아커피,I56220,서울특별시,서대문구,신촌동,서울특별시 서대문구 신촌역로 30,3765,126.9423733,37.55981322,0
이디아커피,I56220,서울특별시,강동구,성내1동,서울특별시 강동구 성내로6길 20,5398,127.1223269,37.52901236,0
이디아커피,I56220,서울특별시,강남구,일원1동,서울특별시 강남구 양재대로27길 20,6343,127.0816058,37.49039878,0
이디아커피,I56220,서울특별시,강남구,삼성1동,서울특별시 강남구 테헤란로107길 11,6173,127.0650384,37.51042548,0
이디아커피,I56220,서울특별시,성동구,사근동,서울특별시 성동구 사근동길 4,4762,127.0415675,37.55995734,0
이디아커피,I56220,서울특별시,성북구,석관동,서울특별시 성북구 화랑로40길 61,2781,127.0649241,37.61376579,0
이디아커피,I56220,서울특별시,강동구,천호1동,서울특별시 강동구 구천면로 304,5310,127.1347941,37.54672001,0
이디아커피,I56220,서울특별시,마포구,도화동,서울특별시 마포구 도화길 10,4173,126.9473972,37.53980094,0
이디아커피,I56220,서울특별시,광진구,자양2동,서울특별시 광진구 자양로 46,5112,127.0859363,37.53217834,0
이디아커피,I56220,서울특별시,강남구,대치4동,서울특별시 강남구 삼성로85길 38,6194,127.0541861,37.50453628,0
이디아커피,I56220,서울특별시,광진구,군자동,서울특별시 광진구 능동로 261,4998,127.077131,37.55350984,0
이디아커피,I56220,서울특별시,강북구,송중동,서울특별시 강북구 도봉로10길 28,1219,127.03101,37.61388864,0
이디아커피,I56220,서울특별시,마포구,합정동,서울특별시 마포구 양화로1길 21,4026,126.9104342,37.54958433,0
이디아커피,I56220,서울특별시,강남구,논현2동,서울특별시 강남구 선릉로 661,6099,127.0415697,37.51558063,0
이디아커피,I56220,서울특별시,용산구,한남동,서울특별시 용산구 한남대로 72,4419,127.0070365,37.53505538,0
이디아커피,I56220,서울특별시,구로구,구로3동,서울특별시 구로구 디지털로33길 11,8380,126.8954986,37.48569681,0
이디아커피,I56220,서울특별시,구로구,구로3동,서울특별시 구로구 디지털로26길 5,8389,126.8934671,37.48160507,0
이디아커피,I56220,서울특별시,강북구,우이동,서울특별시 강북구 삼양로171길 21,1002,127.0120224,37.66209866,0
이디아커피,I56220,서울특별시,영등포구,당산2동,서울특별시 영등포구 당산로 222,7214,126.9021984,37.53318121,0
이디아커피,I56220,서울특별시,노원구,상계8동,서울특별시 노원구 동일로 1541,1620,127.0570306,37.66565671,0
이디아커피,I56220,서울특별시,노원구,상계8동,서울특별시 노원구 동일로227길 25,1619,127.0562209,37.66693871,0
이디아커피,I56220,서울특별시,은평구,대조동,서울특별시 은평구 통일로 723-1,3397,126.9299716,37.61019548,0
이디아커피,I56220,서울특별시,영등포구,신길3동,서울특별시 영등포구 신길로 163,7387,126.9107869,37.50666194,0
이디아커피,I56220,서울특별시,강남구,대치2동,서울특별시 강남구 테헤란로88길 10,6179,127.0594504,37.50683997,0
이디아커피,I56220,서울특별시,서대문구,천연동,서울특별시 서대문구 통일로 141,3735,126.9652177,37.56691763,0
이디아커피,I56220,서울특별시,성동구,성수2가3동,서울특별시 성동구 아차산로15길 19,4798,127.0620525,37.54474094,0
이디아커피,I56220,서울특별시,강남구,신사동,서울특별시 강남구 압구정로2길 62,6035,127.0214285,37.51776722,0
이디아커피,I56220,서울특별시,중구,소공동,서울특별시 중구 세종대로11길 26,4513,126.974563,37.56230475,0
이디아커피,I56220,서울특별시,노원구,상계10동,서울특별시 노원구 노원로 530,1676,127.0602369,37.66127625,0
이디아커피,I56220,서울특별시,강남구,역삼1동,서울특별시 강남구 테헤란로25길 17,6131,127.0352202,37.50178786,0
이디아커피,I56220,서울특별시,강남구,역삼1동,서울특별시 강남구 테헤란로4길 46,6241,127.0300538,37.49550124,0
이디아커피,I56220,서울특별시,중구,을지로동,서울특별시 중구 수표로 45,4551,126.9895764,37.56532655,0
이디아커피,I56220,서울특별시,송파구,잠실3동,서울특별시 송파구 송파대로 567,5503,127.0930348,37.51313068,0
이디아커피,I56220,서울특별시,중구,필동,서울특별시 중구 퇴계로27길 31,4554,126.9912325,37.56255649,0
이디아커피,I56220,서울특별시,성북구,정릉1동,서울특별시 성북구 북악산로 851,2818,127.0185842,37.60012621,0
이디아커피,I56220,서울특별시,종로구,종로1.2.3.4가동,서울특별시 종로구 종로 75,3164,126.9857606,37.57042075,0
이디아커피,I56220,서울특별시,영등포구,신길1동,서울특별시 영등포구 영등포로 353,7318,126.9180619,37.51511754,0
이디아커피,I56220,서울특별시,구로구,구로3동,서울특별시 구로구 디지털로32길 43,8379,126.8978698,37.48438541,0
이디아커피,I56220,서울특별시,노원구,중계1동,서울특별시 노원구 노원로22길 34,1746,127.0727538,37.64636407,0
이디아커피,I56220,서울특별시,성동구,금호2.3가동,서울특별시 성동구 장터길 17-1,4724,127.0177912,37.54842677,0
이디아커피,I56220,서울특별시,종로구,창신1동,서울특별시 종로구 종로 316-1,3121,127.012908,37.57202045,0
이디아커피,I56220,서울특별시,강남구,대치2동,서울특별시 강남구 테헤란로104길 8,6174,127.0647899,37.50858536,0
이디아커피,I56220,서울특별시,종로구,부암동,서울특별시 종로구 홍지문2길 6,3015,126.9563056,37.60123177,0
이디아커피,I56220,서울특별시,동대문구,이문1동,서울특별시 동대문구 휘경로 12,2441,127.0612529,37.59584196,0
이디아커피,I56220,서울특별시,중구,소공동,서울특별시 중구 남대문로1길 57-1,4526,126.9775557,37.56363722,0
이디아커피,I56220,서울특별시,금천구,가산동,서울특별시 금천구 가산디지털1로 196,8502,126.8812697,37.4829589,0
이디아커피,I56220,서울특별시,동작구,대방동,서울특별시 동작구 여의대방로 194,6945,126.9222451,37.50425313,0
이디아커피,I56220,서울특별시,도봉구,쌍문2동,서울특별시 도봉구 도봉로 519,1440,127.0363068,37.65193769,0
이디아커피,I56220,서울특별시,중구,필동,서울특별시 중구 퇴계로27길 31,4554,126.9912325,37.56255649,0
이디아커피,I56220,서울특별시,송파구,잠실본동,서울특별시 송파구 백제고분로7길 58,5559,127.0852147,37.51066456,0
이디아커피,I56220,서울특별시,노원구,월계1동,서울특별시 노원구 광운로 29,1891,127.0584078,37.62031859,0
이디아커피,I56220,서울특별시,중구,명동,서울특별시 중구 명동10길 20,4536,126.9852735,37.56293792,0
이디아커피,I56220,서울특별시,중구,황학동,서울특별시 중구 청계천로 400,4572,127.0214482,37.57080306,0
이디아커피,I56220,서울특별시,은평구,불광1동,서울특별시 은평구 불광로 128,3362,126.9332899,37.61814559,0
이디아커피,I56220,서울특별시,성동구,성수1가2동,서울특별시 성동구 상원4길 4,4790,127.0488018,37.54735611,0
이디아커피,I56220,서울특별시,성북구,월곡2동,서울특별시 성북구 화랑로13길 28,2748,127.0422635,37.60459168,0
이디아커피,I56220,서울특별시,서초구,양재2동,서울특별시 서초구 동산로 60,6784,127.0453977,37.4716851,0
이디아커피,I56220,서울특별시,은평구,녹번동,서울특별시 은평구 진흥로 156,3375,126.9269573,37.60872646,0
이디아커피,I56220,서울특별시,광진구,화양동,서울특별시 광진구 광나루로 380,5009,127.0718622,37.54761171,0
이디아커피,I56220,서울특별시,중구,신당동,서울특별시 중구 다산로35길 11,4611,127.0148311,37.56353066,0
이디아커피,I56220,서울특별시,강북구,송천동,서울특별시 강북구 솔샘로 257,1178,127.0214895,37.61953166,0
이디아커피,I56220,서울특별시,구로구,구로1동,서울특별시 구로구 구일로 110,8324,126.871997,37.49506187,0
이디아커피,I56220,서울특별시,강동구,명일1동,서울특별시 강동구 상암로 210,5296,127.1457761,37.54629537,0
이디아커피,I56220,서울특별시,송파구,오금동,서울특별시 송파구 오금로 407,5741,127.1365706,37.4986345,0
이디아커피,I56220,서울특별시,광진구,구의1동,서울특별시 광진구 자양로 136,5039,127.083388,37.5397815,0
이디아커피,I56220,서울특별시,강서구,화곡3동,서울특별시 강서구 강서로45길 5,7705,126.8358036,37.54784488,0
이디아커피,I56220,서울특별시,성동구,옥수동,서울특별시 성동구 한림말5길 9,4735,127.0166987,37.54200222,0
이디아커피,I56220,서울특별시,동작구,상도2동,서울특별시 동작구 상도로 193,6925,126.9401911,37.50528051,0
이디아커피,I56220,서울특별시,도봉구,창2동,서울특별시 도봉구 덕릉로 235,1471,127.0380951,37.63893235,0
이디아커피,I56220,서울특별시,강남구,일원2동,서울특별시 강남구 개포로109길 34,6336,127.0776351,37.49419735,0
이디아커피,I56220,서울특별시,동대문구,전농2동,서울특별시 동대문구 사가정로 132,2532,127.0595009,37.57759087,0
이디아커피,I56220,서울특별시,강남구,논현2동,서울특별시 강남구 언주로148길 14,6057,127.036143,37.52061841,0
이디아커피,I56220,서울특별시,강남구,역삼1동,서울특별시 강남구 테헤란로25길 17,6131,127.0352202,37.50178786,0
이디아커피,I56220,서울특별시,도봉구,도봉1동,서울특별시 도봉구 도봉로181길 18,1303,127.0448807,37.68415621,0
이디아커피,I56220,서울특별시,금천구,시흥2동,서울특별시 금천구 금하로 750,8645,126.9136456,37.44906614,0
이디아커피,I56220,서울특별시,영등포구,여의동,서울특별시 영등포구 63로 40,7345,126.9391975,37.51954417,0
이디아커피,I56220,서울특별시,강서구,방화1동,서울특별시 강서구 양천로 72,7604,126.8116931,37.57316688,0
이디아커피,I56220,서울특별시,양천구,신정4동,서울특별시 양천구 오목로 155,7943,126.8546338,37.5249535,0
이디아커피,I56220,서울특별시,강서구,등촌2동,서울특별시 강서구 등촌로 217,7667,126.8632941,37.54917596,0
이디아커피,I56220,서울특별시,강동구,성내3동,서울특별시 강동구 양재대로 1377,5376,127.1362415,37.52916,0
이디아커피,I56220,서울특별시,노원구,중계본동,서울특별시 노원구 중계로 201,1734,127.0777684,37.65045804,0
이디아커피,I56220,서울특별시,강서구,염창동,서울특별시 강서구 양천로 684,7555,126.8719405,37.55065549,0
이디아커피,I56220,서울특별시,강서구,가양1동,서울특별시 강서구 양천로55길 55,7528,126.8481011,37.56646369,0
이디아커피,I56220,서울특별시,영등포구,영등포동,서울특별시 영등포구 영등포로35길 19,7251,126.9042195,37.52186488,0
이디아커피,I56220,서울특별시,송파구,방이2동,서울특별시 송파구 백제고분로 509,5545,127.1151626,37.51581248,0
이디아커피,I56220,서울특별시,강남구,역삼1동,서울특별시 강남구 테헤란로43길 18,6151,127.0440422,37.50442759,0
이디아커피,I56220,서울특별시,영등포구,문래동,서울특별시 영등포구 문래로 164,7297,126.9000598,37.51778053,0
이디아커피,I56220,서울특별시,동대문구,답십리1동,서울특별시 동대문구 답십리로 154,2599,127.0571298,37.57259819,0
이디아커피,I56220,서울특별시,노원구,중계4동,서울특별시 노원구 덕릉로 698,1715,127.0756351,37.65983013,0
이디아커피,I56220,서울특별시,동작구,상도1동,서울특별시 동작구 상도로 277,6968,126.948324,37.50280324,0
이디아커피,I56220,서울특별시,광진구,군자동,서울특별시 광진구 능동로 261,4998,127.077131,37.55350984,0
이디아커피,I56220,서울특별시,마포구,서교동,서울특별시 마포구 서강로 135,4058,126.9354087,37.55450658,0
이디아커피,I56220,서울특별시,성동구,사근동,서울특별시 성동구 사근동길 4,4762,127.0415675,37.55995734,0
이디아커피,I56220,서울특별시,서초구,잠원동,서울특별시 서초구 신반포로 333,6531,127.0201379,37.51092655,0
이디아커피,I56220,서울특별시,서초구,반포4동,서울특별시 서초구 신반포로 194,6545,127.0068163,37.50642716,0
이디아커피,I56220,서울특별시,구로구,고척2동,서울특별시 구로구 고척로 149,8246,126.8501269,37.50311356,0
이디아커피,I56220,서울특별시,서초구,서초3동,서울특별시 서초구 반포대로 32,6716,127.0121072,37.48343156,0
이디아커피,I56220,서울특별시,마포구,서교동,서울특별시 마포구 홍익로3길 36,4039,126.9215007,37.55283056,0
이디아커피,I56220,서울특별시,구로구,구로3동,서울특별시 구로구 디지털로26길 5,8389,126.8934671,37.48160507,0
이디아커피,I56220,서울특별시,노원구,상계6.7동,서울특별시 노원구 동일로 1354,1756,127.0622205,37.64955157,0
이디아커피,I56220,서울특별시,마포구,서교동,서울특별시 마포구 동교로27길 8,3993,126.9230222,37.55877329,0
이디아커피,I56220,서울특별시,송파구,오륜동,서울특별시 송파구 양재대로 1222,5648,127.1310458,37.51572315,0
이디아커피,I56220,서울특별시,강서구,방화2동,서울특별시 강서구 양천로 28,7601,126.8068967,37.57224451,0
이디아커피,I56220,서울특별시,성동구,왕십리도선동,서울특별시 성동구 고산자로 269,4709,127.0357582,37.56368542,0
이디아커피,I56220,서울특별시,성북구,안암동,서울특별시 성북구 인촌로24길 45,2856,127.0295604,37.5842325,0
이디아커피,I56220,서울특별시,양천구,신월6동,서울특별시 양천구 신월로 172,8064,126.8426427,37.51830407,0
이디아커피,I56220,서울특별시,관악구,신사동,서울특별시 관악구 난곡로 368,8702,126.9137319,37.48684801,0
이디아커피,I56220,서울특별시,노원구,중계2.3동,서울특별시 노원구 동일로203가길 29,1779,127.0642452,37.63991755,0
이디아커피,I56220,서울특별시,관악구,보라매동,서울특별시 관악구 은천로 23,8719,126.9379137,37.4864011,0
이디아커피,I56220,서울특별시,중구,회현동,서울특별시 중구 세종대로1길 11,4512,126.9725368,37.5581964,0
이디아커피,I56220,서울특별시,강서구,염창동,서울특별시 강서구 공항대로 629,7558,126.8748438,37.54723222,0
이디아커피,I56220,서울특별시,노원구,공릉2동,서울특별시 노원구 공릉로 208,1814,127.0777595,37.62826542,0
이디아커피,I56220,서울특별시,강서구,화곡4동,서울특별시 강서구 등촌로 15,7786,126.863475,37.53129212,0
이디아커피,I56220,서울특별시,용산구,한남동,서울특별시 용산구 대사관로 72,4402,127.0059311,37.53309081,0
이디아커피,I56220,서울특별시,구로구,신도림동,서울특별시 구로구 구로중앙로 228,8205,126.8765916,37.50616146,0
이디아커피,I56220,서울특별시,중구,다산동,서울특별시 중구 다산로 181-2,4608,127.013228,37.55977794,0
이디아커피,I56220,서울특별시,용산구,원효로1동,서울특별시 용산구 원효로 257,4314,126.9691013,37.54056007,0
이디아커피,I56220,서울특별시,송파구,거여1동,서울특별시 송파구 마천로 264,5735,127.1461335,37.49807326,0
이디아커피,I56220,서울특별시,중랑구,망우3동,서울특별시 중랑구 봉우재로 240,2173,127.0993538,37.59530088,0
이디아커피,I56220,서울특별시,영등포구,영등포동,서울특별시 영등포구 경인로 838-1,7306,126.9061154,37.51598062,0
이디아커피,I56220,서울특별시,송파구,잠실본동,서울특별시 송파구 백제고분로 172,5577,127.0858415,37.50471342,0
이디아커피,I56220,서울특별시,강남구,역삼1동,서울특별시 강남구 강남대로66길 14,6253,127.0318328,37.49172239,0
이디아커피,I56220,서울특별시,구로구,개봉3동,서울특별시 구로구 개봉로3길 26,8352,126.8548716,37.48643631,0
이디아커피,I56220,서울특별시,서대문구,홍제1동,서울특별시 서대문구 통일로 431,3646,126.9453111,37.58745632,0
이디아커피,I56220,서울특별시,동대문구,청량리동,서울특별시 동대문구 왕산로 225,2490,127.0471267,37.5820329,0
이디아커피,I56220,서울특별시,관악구,행운동,서울특별시 관악구 남부순환로 1915,8742,126.9621841,37.47789461,0
이디아커피,I56220,서울특별시,노원구,상계6.7동,서울특별시 노원구 노해로 494,1751,127.0630874,37.65451414,0
이디아커피,I56220,서울특별시,노원구,상계6.7동,서울특별시 노원구 동일로217가길 17,1762,127.0593513,37.65331307,0
이디아커피,I56220,서울특별시,양천구,신정7동,서울특별시 양천구 목동동로 63,8093,126.8622923,37.51530531,0
이디아커피,I56220,서울특별시,성동구,성수2가1동,서울특별시 성동구 성덕정길 106,4776,127.0550869,37.53715262,0
이디아커피,I56220,서울특별시,광진구,능동,서울특별시 광진구 능동로 290,4985,127.0789616,37.55557853,0
이디아커피,I56220,서울특별시,서초구,서초2동,서울특별시 서초구 남부순환로 2561,6734,127.0305599,37.4843413,0
이디아커피,I56220,서울특별시,강동구,길동,서울특별시 강동구 양재대로 1471,5353,127.1392473,37.53735454,0
이디아커피,I56220,서울특별시,중구,중림동,서울특별시 중구 중림로 10,4502,126.9645165,37.55869399,0
이디아커피,I56220,서울특별시,서대문구,홍은2동,서울특별시 서대문구 가좌로 140,3655,126.9241453,37.58456219,0
이디아커피,I56220,서울특별시,동작구,상도1동,서울특별시 동작구 흑석로 20,6969,126.9530121,37.50481818,0
이디아커피,I56220,서울특별시,서대문구,신촌동,서울특별시 서대문구 신촌로 5,3785,126.9276982,37.55867168,0
이디아커피,I56220,서울특별시,강남구,대치4동,서울특별시 강남구 선릉로86길 6-6,6198,127.0504086,37.50273991,0
이디아커피,I56220,서울특별시,영등포구,양평2동,서울특별시 영등포구 양평로 126,7205,126.8938987,37.53819464,0
이디아커피,I56220,서울특별시,양천구,목3동,서울특별시 양천구 공항대로 566,7947,126.8680623,37.54892442,0
이디아커피,I56220,서울특별시,종로구,이화동,서울특별시 종로구 대학로 45,3127,127.0018734,37.57519845,0
이디아커피,I56220,서울특별시,관악구,보라매동,서울특별시 관악구 봉천로 245,8711,126.9290189,37.48927625,0
이디아커피,I56220,서울특별시,은평구,진관동,서울특별시 은평구 진관3로 70,3302,126.9229605,37.64239753,0
이디아커피,I56220,서울특별시,강남구,개포4동,서울특별시 강남구 개포로 218,6307,127.0466001,37.4784888,0
이디아커피,I56220,서울특별시,송파구,문정2동,서울특별시 송파구 충민로 66,5838,127.124941,37.47760822,0
이디아커피,I56220,서울특별시,성북구,정릉3동,서울특별시 성북구 정릉로9라길 8,2708,127.0003737,37.61115524,0
이디아커피,I56220,서울특별시,강남구,논현2동,서울특별시 강남구 언주로130길 18,6098,127.0370636,37.51500335,0
이디아커피,I56220,서울특별시,성북구,정릉4동,서울특별시 성북구 보국문로 66,2711,127.0095373,37.61025939,0
이디아커피,I56220,서울특별시,용산구,한강로동,서울특별시 용산구 한강대로21나길 7,4377,126.9632226,37.52790298,0
이디아커피,I56220,서울특별시,강남구,역삼2동,서울특별시 강남구 테헤란로 212,6220,127.0395812,37.50126475,0
이디아커피,I56220,서울특별시,종로구,사직동,서울특별시 종로구 필운대로1길 39-3,3027,126.9671171,37.57773773,0
이디아커피,I56220,서울특별시,중랑구,면목본동,서울특별시 중랑구 상봉로 81,2157,127.0930378,37.59319813,0
이디아커피,I56220,서울특별시,영등포구,대림3동,서울특별시 영등포구 도림로31길 2,7415,126.895907,37.49252155,0
이디아커피,I56220,서울특별시,동대문구,휘경1동,서울특별시 동대문구 회기로 194-1,2446,127.0574786,37.58982895,0
이디아커피,I56220,서울특별시,서초구,서초4동,서울특별시 서초구 서초대로77길 55,6611,127.0244504,37.50200577,0
이디아커피,I56220,서울특별시,은평구,대조동,서울특별시 은평구 서오릉로 100,3392,126.9208838,37.60892337,0
이디아커피,I56220,서울특별시,서대문구,북가좌2동,서울특별시 서대문구 증가로 257,3678,126.9115148,37.58343723,0
이디아커피,I56220,서울특별시,성북구,길음1동,서울특별시 성북구 동소문로 248,2735,127.0248069,37.60317825,0
이디아커피,I56220,서울특별시,동작구,신대방2동,서울특별시 동작구 보라매로5가길 16,7071,126.924082,37.49132182,0
이디아커피,I56220,서울특별시,동작구,사당2동,서울특별시 동작구 동작대로 119,7008,126.9818544,37.48723848,0
이디아커피,I56220,서울특별시,영등포구,당산1동,서울특별시 영등포구 당산로 110,7259,126.8965561,37.52448764,0
이디아커피,I56220,서울특별시,강남구,역삼1동,서울특별시 강남구 논현로94길 19,6140,127.0377866,37.50274589,0
이디아커피,I56220,서울특별시,강남구,삼성1동,서울특별시 강남구 테헤란로87길 37,6166,127.0577002,37.51020498,0
이디아커피,I56220,서울특별시,강남구,역삼1동,서울특별시 강남구 테헤란로7길 22,6130,127.0307215,37.50071482,0
이디아커피,I56220,서울특별시,양천구,신월7동,서울특별시 양천구 지양로 79,8037,126.8329747,37.52241678,0
이디아커피,I56220,서울특별시,관악구,난향동,서울특별시 관악구 난곡로 60,8861,126.9193755,37.4608594,0
이디아커피,I56220,서울특별시,강동구,명일2동,서울특별시 강동구 동남로75길 19,5269,127.1551598,37.55412097,0
이디아커피,I56220,서울특별시,은평구,대조동,서울특별시 은평구 연서로 148,3394,126.9176002,37.61198383,0
이디아커피,I56220,서울특별시,광진구,중곡2동,서울특별시 광진구 능동로 330,4928,127.08072,37.55893513,0
이디아커피,I56220,서울특별시,강서구,등촌3동,서울특별시 강서구 공항대로41길 34,7587,126.8456992,37.55926802,0
이디아커피,I56220,서울특별시,중랑구,면목본동,서울특별시 중랑구 면목로 417,2146,127.0871299,37.58924205,0
이디아커피,I56220,서울특별시,노원구,공릉2동,서울특별시 노원구 공릉로 146,1819,127.0795116,37.62307109,0
이디아커피,I56220,서울특별시,노원구,월계2동,서울특별시 노원구 월계로45길 37,1883,127.0503484,37.62697575,0
이디아커피,I56220,서울특별시,구로구,고척1동,서울특별시 구로구 경인로47길 14,8222,126.8670335,37.50023141,0
이디아커피,I56220,서울특별시,성동구,마장동,서울특별시 성동구 마장로 293-1,4756,127.0421587,37.56593607,0
이디아커피,I56220,서울특별시,마포구,서교동,서울특별시 마포구 월드컵북로 7,4031,126.9206459,37.55559795,0
이디아커피,I56220,서울특별시,양천구,목4동,서울특별시 양천구 목동중앙로 85,7961,126.8714222,37.53699082,0
이디아커피,I56220,서울특별시,금천구,가산동,서울특별시 금천구 가산디지털2로 123,8505,126.8786985,37.47871763,0
이디아커피,I56220,서울특별시,강남구,개포2동,서울특별시 강남구 개포로82길 11,6329,127.0674257,37.48854865,0
이디아커피,I56220,서울특별시,강남구,신사동,서울특별시 강남구 논현로167길 16,6030,127.0268805,37.5247774,0
이디아커피,I56220,서울특별시,성북구,정릉3동,서울특별시 성북구 정릉로9라길 8,2708,127.0003737,37.61115524,0
이디아커피,I56220,서울특별시,동대문구,장안1동,서울특별시 동대문구 답십리로 264,2624,127.0695414,37.57225515,0
이디아커피,I56220,서울특별시,관악구,남현동,서울특별시 관악구 과천대로 951,8807,126.9812559,37.47551962,0
이디아커피,I56220,서울특별시,양천구,목1동,서울특별시 양천구 오목로 319,8000,126.87305,37.5250676,0
이디아커피,I56220,서울특별시,강남구,대치2동,서울특별시 강남구 테헤란로88길 10,6179,127.0594504,37.50683997,0
이디아커피,I56220,서울특별시,강남구,도곡2동,서울특별시 강남구 논현로 142,6301,127.0430112,37.48240642,0
이디아커피,I56220,서울특별시,성북구,길음2동,서울특별시 성북구 종암로 167,2734,127.0309775,37.60504918,0
이디아커피,I56220,서울특별시,강서구,화곡1동,서울특별시 강서구 곰달래로 52,7775,126.8385708,37.52995055,0
이디아커피,I56220,서울특별시,양천구,신월5동,서울특별시 양천구 가로공원로 113,7905,126.8285738,37.53617707,0
이디아커피,I56220,서울특별시,은평구,응암3동,서울특별시 은평구 응암로 211,3457,126.9171131,37.59089522,0
이디아커피,I56220,서울특별시,종로구,종로1.2.3.4가동,서울특별시 종로구 청계천로 17,3188,126.9794806,37.56939351,0
이디아커피,I56220,서울특별시,영등포구,여의동,서울특별시 영등포구 국제금융로8길 2,7330,126.9300333,37.52200245,0
이디아커피,I56220,서울특별시,성북구,정릉1동,서울특별시 성북구 정릉로 307,2719,127.0177273,37.60328173,0
이디아커피,I56220,서울특별시,성동구,왕십리2동,서울특별시 성동구 무학봉15길 27,4710,127.030155,37.5637026,0
이디아커피,I56220,서울특별시,영등포구,여의동,서울특별시 영등포구 국회대로 780,7237,126.9192525,37.52982446,0
이디아커피,I56220,서울특별시,동대문구,장안2동,서울특별시 동대문구 사가정로25길 42,2514,127.0709537,37.58067304,0
이디아커피,I56220,서울특별시,서초구,방배1동,서울특별시 서초구 서초대로 108,6664,126.9941867,37.48756037,0
이디아커피,I56220,서울특별시,구로구,구로3동,서울특별시 구로구 디지털로31길 81,8375,126.8912265,37.48632357,0
이디아커피,I56220,서울특별시,관악구,신원동,서울특별시 관악구 신원로 16,8775,126.9279198,37.48073334,0
이디아커피,I56220,서울특별시,구로구,오류2동,서울특별시 구로구 오류로8길 65,8341,126.8437739,37.49264452,0
이디아커피,I56220,서울특별시,은평구,응암1동,서울특별시 은평구 은평로 111,3461,126.9204912,37.60081951,0
이디아커피,I56220,서울특별시,강동구,천호3동,서울특별시 강동구 천호대로 1065,5336,127.1302679,37.53692832,0
이디아커피,I56220,서울특별시,광진구,군자동,서울특별시 광진구 군자로 109,5001,127.0719781,37.55286575,0
이디아커피,I56220,서울특별시,관악구,신림동,서울특별시 관악구 남부순환로 1617,8754,126.9302622,37.484557,0
이디아커피,I56220,서울특별시,송파구,방이1동,서울특별시 송파구 위례성대로18길 32,5639,127.1247038,37.50955813,0
이디아커피,I56220,서울특별시,강동구,성내2동,서울특별시 강동구 천호대로 1006,5378,127.123727,37.53796124,0
이디아커피,I56220,서울특별시,성북구,종암동,서울특별시 성북구 종암로 1,2841,127.0362711,37.59063983,0
이디아커피,I56220,서울특별시,강서구,공항동,서울특별시 강서구 공항대로 24,7623,126.8099371,37.56115651,0
이디아커피,I56220,서울특별시,구로구,고척1동,서울특별시 구로구 중앙로8길 11,8223,126.863278,37.50252002,0
이디아커피,I56220,서울특별시,동작구,상도4동,서울특별시 동작구 양녕로 183,7048,126.9431592,37.49772028,0
이디아커피,I56220,서울특별시,노원구,월계1동,서울특별시 노원구 화랑로 341,1895,127.0656299,37.61529414,0
이디아커피,I56220,서울특별시,노원구,중계2.3동,서울특별시 노원구 동일로204가길 34,1783,127.0681553,37.64074141,0
이디아커피,I56220,서울특별시,관악구,은천동,서울특별시 관악구 은천로 101,8715,126.9465996,37.48708257,0
이디아커피,I56220,서울특별시,강남구,역삼1동,서울특별시 강남구 테헤란로 125,6133,127.0316633,37.49959623,0
이디아커피,I56220,서울특별시,노원구,공릉2동,서울특별시 노원구 화랑로 510,1804,127.0837308,37.61988721,0
이디아커피,I56220,서울특별시,영등포구,영등포동,서울특별시 영등포구 영중로 37,7301,126.9046957,37.51947252,0
이디아커피,I56220,서울특별시,용산구,이촌1동,서울특별시 용산구 이촌로77길 19,4423,126.9748763,37.5204269,0
이디아커피,I56220,서울특별시,용산구,남영동,서울특별시 용산구 후암로 93,4324,126.9751046,37.55334408,0
이디아커피,I56220,서울특별시,강남구,대치4동,서울특별시 강남구 선릉로86길 15,6192,127.0508173,37.5035181,0
이디아커피,I56220,서울특별시,강동구,천호1동,서울특별시 강동구 양재대로 1543,5315,127.1418473,37.54350064,0
이디아커피,I56220,서울특별시,강남구,역삼1동,서울특별시 강남구 선릉로 519,6149,127.0479938,37.50586515,0
이디아커피,I56220,서울특별시,광진구,구의3동,서울특별시 광진구 아차산로 481,5034,127.0949383,37.54096087,0
이디아커피,I56220,서울특별시,강동구,천호3동,서울특별시 강동구 구천면로 238,5334,127.1308579,37.54167222,0
이디아커피,I56220,서울특별시,마포구,망원2동,서울특별시 마포구 월드컵로 147,3963,126.9054607,37.56078328,0
이디아커피,I56220,서울특별시,서대문구,신촌동,서울특별시 서대문구 연세로12길 10,3776,126.9375087,37.55885048,0
이디아커피,I56220,서울특별시,양천구,신정3동,서울특별시 양천구 신정이펜2로 14,8049,126.8324168,37.51248183,0
이디아커피,I56220,서울특별시,도봉구,도봉1동,서울특별시 도봉구 도봉로 823,1307,127.0447454,37.67791098,0
이디아커피,I56220,서울특별시,서초구,서초3동,서울특별시 서초구 서초중앙로 89,6650,127.0140594,37.48975526,0
이디아커피,I56220,서울특별시,영등포구,영등포동,서울특별시 영등포구 영등포로 272,7303,126.9113752,37.51833589,0
이디아커피,I56220,서울특별시,서초구,서초3동,서울특별시 서초구 효령로40길 4,6708,127.0057618,37.48273859,0
이디아커피,I56220,서울특별시,성북구,월곡1동,서울특별시 성북구 오패산로16길 37,2741,127.0382182,37.60915408,0
이디아커피,I56220,서울특별시,관악구,청룡동,서울특별시 관악구 남부순환로216길 2,8786,126.9489751,37.48136403,0
이디아커피,I56220,서울특별시,종로구,종로1.2.3.4가동,서울특별시 종로구 수표로 109-1,3140,126.9891827,37.57100875,0
이디아커피,I56220,서울특별시,성북구,월곡2동,서울특별시 성북구 화랑로 157,2773,127.0483128,37.60625347,0
이디아커피,I56220,서울특별시,강남구,청담동,서울특별시 강남구 학동로87길 7,6074,127.0519834,37.51952119,0
이디아커피,I56220,서울특별시,은평구,대조동,서울특별시 은평구 통일로 825,3385,126.9226806,37.61704906,0
이디아커피,I56220,서울특별시,은평구,수색동,서울특별시 은평구 수색로 250,3502,126.8963319,37.58189964,0
이디아커피,I56220,서울특별시,노원구,중계본동,서울특별시 노원구 중계로14바길 2,1722,127.0825579,37.64987367,0
이디아커피,I56220,서울특별시,은평구,불광2동,서울특별시 은평구 연서로 275,3342,126.9248335,37.62093411,0
이디아커피,I56220,서울특별시,강서구,등촌3동,서울특별시 강서구 강서로 462,7573,126.8413864,37.56660522,0
이디아커피,I56220,서울특별시,마포구,서강동,서울특별시 마포구 창전로 45,4086,126.9318821,37.54625724,0
이디아커피,I56220,서울특별시,성동구,용답동,서울특별시 성동구 천호대로 426,4808,127.0662535,37.56085797,0
이디아커피,I56220,서울특별시,동대문구,장안2동,서울특별시 동대문구 답십리로63길 131,2525,127.0693165,37.57849763,0
이디아커피,I56220,서울특별시,중구,필동,서울특별시 중구 퇴계로 188,4627,126.9925348,37.56082859,0
이디아커피,I56220,서울특별시,은평구,진관동,서울특별시 은평구 진관2로 29-21,3306,126.9193872,37.63563419,0
이디아커피,I56220,서울특별시,중랑구,상봉2동,서울특별시 중랑구 망우로 198,2120,127.0748505,37.59331828,0
이디아커피,I56220,서울특별시,금천구,가산동,서울특별시 금천구 디지털로9길 32,8512,126.8872665,37.4796276,0
이디아커피,I56220,서울특별시,중랑구,중화2동,서울특별시 중랑구 동일로 815,2017,127.078874,37.60312607,0
이디아커피,I56220,서울특별시,동대문구,용신동,서울특별시 동대문구 무학로 104,2588,127.030877,37.57350288,0
이디아커피,I56220,서울특별시,동대문구,답십리1동,서울특별시 동대문구 천호대로 265,2603,127.0513542,37.56829898,0
이디아커피,I56220,서울특별시,양천구,목1동,서울특별시 양천구 목동서로 159-1,7997,126.8749711,37.52822154,0
이디아커피,I56220,서울특별시,중구,명동,서울특별시 중구 다동길 46,4522,126.981709,37.56785395,0
이디아커피,I56220,서울특별시,강서구,방화2동,서울특별시 강서구 방화동로 37,7620,126.8106702,37.56417333,0
이디아커피,I56220,서울특별시,동대문구,장안2동,서울특별시 동대문구 답십리로 309,2524,127.0747134,37.5723769,0
이디아커피,I56220,서울특별시,송파구,방이1동,서울특별시 송파구 양재대로 1089,5647,127.1224624,37.50584715,0
이디아커피,I56220,서울특별시,중구,명동,서울특별시 중구 을지로 79,4541,126.9865498,37.56648097,0
이디아커피,I56220,서울특별시,강남구,역삼1동,서울특별시 강남구 선릉로 577,6143,127.0435765,37.50990224,0
이디아커피,I56220,서울특별시,은평구,대조동,서울특별시 은평구 통일로 723-1,3397,126.9299716,37.61019548,0
이디아커피,I56220,서울특별시,서대문구,남가좌2동,서울특별시 서대문구 거북골로 33,3665,126.9240491,37.57945244,0
이디아커피,I56220,서울특별시,송파구,삼전동,서울특별시 송파구 백제고분로 263,5603,127.0957841,37.50277157,0
이디아커피,I56220,서울특별시,강북구,미아동,서울특별시 강북구 도봉로 207,1125,127.025458,37.62705212,0
이디아커피,I56220,서울특별시,송파구,가락본동,서울특별시 송파구 오금로 306,5701,127.1261052,37.50287363,0
이디아커피,I56220,서울특별시,광진구,화양동,서울특별시 광진구 광나루로 416,5021,127.0755658,37.54645138,0
이디아커피,I56220,서울특별시,성북구,동선동,서울특별시 성북구 동소문로 119,2829,127.0178859,37.59380411,0
이디아커피,I56220,서울특별시,서초구,반포본동,서울특별시 서초구 신반포로 50,6548,126.990128,37.50178041,0
이디아커피,I56220,서울특별시,동작구,신대방2동,서울특별시 동작구 여의대방로 90,7063,126.9166412,37.49680427,0
이디아커피,I56220,서울특별시,동대문구,장안2동,서울특별시 동대문구 한천로46길 42,2516,127.0706831,37.58149987,0
이디아커피,I56220,서울특별시,중랑구,면목본동,서울특별시 중랑구 면목로 370,2205,127.0885297,37.58494587,0
이디아커피,I56220,서울특별시,종로구,가회동,서울특별시 종로구 북촌로 1,3060,126.9857843,37.57702559,0
이디아커피,I56220,서울특별시,영등포구,여의동,서울특별시 영등포구 국제금융로8길 27-9,7332,126.9289127,37.5196676,0
이디아커피,I56220,서울특별시,동작구,대방동,서울특별시 동작구 노량진로 22,6938,126.9281387,37.51288472,0
이디아커피,I56220,서울특별시,강북구,수유3동,서울특별시 강북구 도봉로 381,1054,127.0285376,37.64111564,0
이디아커피,I56220,서울특별시,강서구,화곡6동,서울특별시 강서구 화곡로 292,7663,126.8487572,37.55030557,0
이디아커피,I56220,서울특별시,강북구,송천동,서울특별시 강북구 삼양로 118,1208,127.0223834,37.61442118,0
이디아커피,I56220,서울특별시,강남구,삼성1동,서울특별시 강남구 영동대로106길 9,6170,127.0618328,37.51349969,0
이디아커피,I56220,서울특별시,양천구,목3동,서울특별시 양천구 등촌로 180,7951,126.8627253,37.54564743,0
이디아커피,I56220,서울특별시,은평구,역촌동,서울특별시 은평구 갈현로 82,3419,126.9106647,37.60525239,0
이디아커피,I56220,서울특별시,강남구,논현2동,서울특별시 강남구 언주로 711,6050,127.0334059,37.51707293,0
이디아커피,I56220,서울특별시,중랑구,상봉1동,서울특별시 중랑구 망우로 353,2087,127.0916054,37.59832307,0
이디아커피,I56220,서울특별시,강서구,방화3동,서울특별시 강서구 금낭화로 146,7511,126.813289,37.57818364,0
이디아커피,I56220,서울특별시,용산구,이태원1동,서울특별시 용산구 이태원로15길 1,4351,126.9901721,37.53460602,0
이디아커피,I56220,서울특별시,마포구,합정동,서울특별시 마포구 양화로6길 90,4048,126.9190661,37.54822201,0
이디아커피,I56220,서울특별시,관악구,신사동,서울특별시 관악구 난곡로 366,8702,126.9137802,37.48664121,0
이디아커피,I56220,서울특별시,서대문구,신촌동,서울특별시 서대문구 신촌로 87-20,3789,126.9364442,37.5564982,0
이디아커피,I56220,서울특별시,서초구,반포4동,서울특별시 서초구 신반포로 188,6545,127.0048767,37.50343736,0
이디아커피,I56220,서울특별시,동대문구,장안1동,서울특별시 동대문구 장한로 43,2629,127.0666874,37.56509633,0
이디아커피,I56220,서울특별시,노원구,하계1동,서울특별시 노원구 공릉로59길 28,1829,127.0696529,37.63422972,0
이디아커피,I56220,서울특별시,강서구,방화2동,서울특별시 강서구 하늘길 77,7505,126.8023643,37.56190888,0
이디아커피,I56220,서울특별시,송파구,잠실6동,서울특별시 송파구 올림픽로35길 94,5504,127.1039541,37.51851224,0
이디아커피,I56220,서울특별시,구로구,오류2동,서울특별시 구로구 연동로 312,8359,126.8243442,37.48772229,0
이디아커피,I56220,서울특별시,관악구,인헌동,서울특별시 관악구 인헌길 17,8795,126.9670103,37.47472014,0
이디아커피,I56220,서울특별시,강북구,우이동,서울특별시 강북구 삼양로 501,1026,127.0142166,37.64788073,0
이디아커피,I56220,서울특별시,강서구,우장산동,서울특별시 강서구 공항대로 280,7646,126.8384183,37.55801626,0
이디아커피,I56220,서울특별시,종로구,종로1.2.3.4가동,서울특별시 종로구 김상옥로 1,3128,126.9978773,37.57349767,0
이디아커피,I56220,서울특별시,양천구,신정6동,서울특별시 양천구 목동서로 287,8011,126.8690649,37.52150644,0
이디아커피,I56220,서울특별시,중구,광희동,서울특별시 중구 마른내로 109-1,4547,127.0001131,37.56460532,0
이디아커피,I56220,서울특별시,강남구,역삼2동,서울특별시 강남구 언주로81길 8,6222,127.0428615,37.50034526,0
이디아커피,I56220,서울특별시,동대문구,용신동,서울특별시 동대문구 왕산로 68,2584,127.0308821,37.57747653,0
이디아커피,I56220,서울특별시,성동구,마장동,서울특별시 성동구 고산자로 339-1,4704,127.0373301,37.56996051,0
이디아커피,I56220,서울특별시,노원구,상계6.7동,서울특별시 노원구 동일로 1393,1762,127.0605347,37.65293505,0
이디아커피,I56220,서울특별시,양천구,신정7동,서울특별시 양천구 목동남로 46,8101,126.8647106,37.50874198,0
이디아커피,I56220,서울특별시,강남구,대치1동,서울특별시 강남구 남부순환로 2937,6280,127.0616008,37.49408008,0
이디아커피,I56220,서울특별시,노원구,중계1동,서울특별시 노원구 덕릉로73길 18,1707,127.0724103,37.65210998,0
이디아커피,I56220,서울특별시,광진구,광장동,서울특별시 광진구 아차산로 624,4969,127.1075149,37.5481659,0
이디아커피,I56220,서울특별시,송파구,잠실본동,서울특별시 송파구 올림픽로 76,5556,127.0791635,37.51155464,0
이디아커피,I56220,서울특별시,서초구,반포4동,서울특별시 서초구 신반포로 200,6545,127.0050321,37.50621391,0
이디아커피,I56220,서울특별시,강북구,우이동,서울특별시 강북구 419로 85,1015,127.0055893,37.64475382,0
이디아커피,I56220,서울특별시,영등포구,여의동,서울특별시 영등포구 여의나루로 113,7336,126.9307562,37.52604568,0
이디아커피,I56220,서울특별시,노원구,하계1동,서울특별시 노원구 노원로 257,1791,127.0727391,37.64025493,0
이디아커피,I56220,서울특별시,중랑구,망우본동,서울특별시 중랑구 망우로 460,2177,127.1031237,37.60009611,0
이디아커피,I56220,서울특별시,강남구,청담동,서울특별시 강남구 학동로 508,6084,127.0520222,37.51913405,0
이디아커피,I56220,서울특별시,송파구,위례동,서울특별시 송파구 위례광장로 136,5852,127.1422226,37.47711321,0
이디아커피,I56220,서울특별시,용산구,한남동,서울특별시 용산구 이태원로 287,4347,127.0017279,37.54029076,0
이디아커피,I56220,서울특별시,노원구,상계2동,서울특별시 노원구 상계로 64,1695,127.0622554,37.655787,0
이디아커피,I56220,서울특별시,노원구,상계8동,서울특별시 노원구 동일로 1541,1620,127.0570306,37.66565671,0
이디아커피,I56220,서울특별시,영등포구,신길3동,서울특별시 영등포구 신길로 163,7387,126.9107869,37.50666194,0
이디아커피,I56220,서울특별시,종로구,숭인2동,서울특별시 종로구 종로 354,3114,127.0167767,37.57309795,0
이디아커피,I56220,서울특별시,서대문구,연희동,서울특별시 서대문구 연희로10길 86,3726,126.9336705,37.56369951,0
이디아커피,I56220,서울특별시,구로구,구로3동,서울특별시 구로구 디지털로33길 11,8380,126.8954986,37.48569681,0
이디아커피,I56220,서울특별시,강북구,송천동,서울특별시 강북구 도봉로 41-1,1211,127.0297455,37.6127069,0
이디아커피,I56220,서울특별시,마포구,서교동,서울특별시 마포구 와우산로29길 70,4052,126.926577,37.55635484,0
이디아커피,I56220,서울특별시,서초구,방배본동,서울특별시 서초구 방배로 234,6584,126.9899033,37.49411954,0
이디아커피,I56220,서울특별시,양천구,목5동,서울특별시 양천구 목동동로 379,7983,126.878696,37.53560043,0
이디아커피,I56220,서울특별시,중구,소공동,서울특별시 중구 세종대로11길 26,4513,126.974563,37.56230475,0
이디아커피,I56220,서울특별시,마포구,서교동,서울특별시 마포구 양화로 124,4038,126.920846,37.55428427,0
이디아커피,I56220,서울특별시,노원구,중계2.3동,서울특별시 노원구 동일로 1308-1,1760,127.0642282,37.64488212,0
이디아커피,I56220,서울특별시,금천구,시흥4동,서울특별시 금천구 독산로50길 162,8564,126.9124224,37.4617327,0
이디아커피,I56220,서울특별시,구로구,구로2동,서울특별시 구로구 경인로 482,8278,126.8727176,37.49827647,0
이디아커피,I56220,서울특별시,중구,명동,서울특별시 중구 명동8가길 37,4537,126.9870984,37.56191739,0
이디아커피,I56220,서울특별시,중구,필동,서울특별시 중구 퇴계로 218-5,4624,126.9962626,37.56137394,0
이디아커피,I56220,서울특별시,도봉구,창1동,서울특별시 도봉구 도봉로114길 22,1455,127.0356293,37.64736392,0
이디아커피,I56220,서울특별시,강서구,화곡1동,서울특별시 강서구 가로공원로76길 63,7767,126.8383334,37.53431824,0
이디아커피,I56220,서울특별시,마포구,서교동,서울특별시 마포구 월드컵로 82-1,3996,126.910211,37.55636709,0
이디아커피,I56220,서울특별시,중랑구,묵1동,서울특별시 중랑구 동일로 901,2006,127.077751,37.61061397,0
이디아커피,I56220,서울특별시,동작구,사당2동,서울특별시 동작구 사당로 285,7008,126.9791647,37.48463826,0
이디아커피,I56220,서울특별시,광진구,구의3동,서울특별시 광진구 구의로 4,5045,127.089267,37.53834025,0
이디아커피,I56220,서울특별시,마포구,서강동,서울특별시 마포구 와우산로 148,4059,126.9296533,37.55413017,0
이디아커피,I56220,서울특별시,송파구,문정2동,서울특별시 송파구 정의로 70,5836,127.1154688,37.48602571,0
이디아커피,I56220,서울특별시,노원구,상계2동,서울특별시 노원구 노원로 452,1696,127.0668982,37.65699516,0
이디아커피,I56220,서울특별시,송파구,문정2동,서울특별시 송파구 법원로 114,5854,127.1209979,37.48604895,0
이디아커피,I56220,서울특별시,강서구,방화2동,서울특별시 강서구 하늘길 38,7505,126.8029375,37.57135746,0
이디아커피,I56220,서울특별시,강서구,화곡4동,서울특별시 강서구 등촌로5길 80,7738,126.8589338,37.53305941,0
이디아커피,I56220,서울특별시,송파구,문정2동,서울특별시 송파구 송파대로 167,5855,127.1207441,37.4845513,0
이디아커피,I56220,서울특별시,용산구,한강로동,서울특별시 용산구 한강대로 138,4382,126.9704375,37.53143513,0
이디아커피,I56220,서울특별시,강서구,우장산동,서울특별시 강서구 우현로 15,7695,126.8436114,37.54715573,0
이디아커피,I56220,서울특별시,성북구,월곡1동,서울특별시 성북구 오패산로3길 99,2736,127.0338002,37.60746909,0
이디아커피,I56220,서울특별시,양천구,목3동,서울특별시 양천구 목동중앙본로7길 46,7955,126.8661118,37.53947186,0
이디아커피,I56220,서울특별시,서초구,내곡동,서울특별시 서초구 청계산로 189,6802,127.055336,37.44824723,0
이디아커피,I56220,서울특별시,용산구,효창동,서울특별시 용산구 효창원로66길 2,4317,126.9621762,37.54055347,0
이디아커피,I56220,서울특별시,동대문구,이문2동,서울특별시 동대문구 신이문로 19,2409,127.0642304,37.60313701,0
이디아커피,I56220,서울특별시,강서구,화곡본동,서울특별시 강서구 까치산로 79,7679,126.8474012,37.54576014,0
이디아커피,I56220,서울특별시,강남구,역삼2동,서울특별시 강남구 논현로72길 13,6227,127.0405329,37.4958301,0
이디아커피,I56220,서울특별시,관악구,보라매동,서울특별시 관악구 보라매로 62,8709,126.9277955,37.49338294,0
이디아커피,I56220,서울특별시,송파구,문정2동,서울특별시 송파구 송파대로 111,5837,127.1248723,37.47961708,0
이디아커피,I56220,서울특별시,송파구,가락본동,서울특별시 송파구 송이로 87,5706,127.120775,37.49831976,0
이디아커피,I56220,서울특별시,강서구,가양1동,서울특별시 강서구 마곡동로 61,7802,126.8331376,37.5606042,0
이디아커피,I56220,서울특별시,노원구,중계2.3동,서울특별시 노원구 덕릉로 517,1760,127.0664262,37.64671963,0
이디아커피,I56220,서울특별시,강서구,가양1동,서울특별시 강서구 마곡중앙6로 16,7801,126.828987,37.56039191,0
이디아커피,I56220,서울특별시,강남구,세곡동,서울특별시 강남구 헌릉로569길 9,6376,127.1007621,37.46678511,0
이디아커피,I56220,서울특별시,송파구,오금동,서울특별시 송파구 위례성대로22길 18,5653,127.1303356,37.50868065,0
이디아커피,I56220,서울특별시,성동구,응봉동,서울특별시 성동구 독서당로 377,4720,127.0311293,37.55052828,0
이디아커피,I56220,서울특별시,강남구,논현1동,서울특별시 강남구 도산대로 118,6038,127.0218065,37.51654492,0
이디아커피,I56220,서울특별시,은평구,갈현1동,서울특별시 은평구 통일로 855-4,3330,126.9203379,37.6192622,0
이디아커피,I56220,서울특별시,서초구,반포1동,서울특별시 서초구 강남대로79길 10,6541,127.0231974,37.50529327,0
이디아커피,I56220,서울특별시,강서구,방화2동,서울특별시 강서구 방화동로 95,7607,126.8125955,37.56909431,0
이디아커피,I56220,서울특별시,은평구,구산동,서울특별시 은평구 서오릉로 195,3410,126.911802,37.61347127,0
이디아커피,I56220,서울특별시,노원구,월계1동,서울특별시 노원구 광운로22길 39,1885,127.0587975,37.62984568,0
이디아커피,I56220,서울특별시,마포구,성산1동,서울특별시 마포구 월드컵북로 137,3966,126.91165,37.56481408,0
이디아커피,I56220,서울특별시,구로구,구로2동,서울특별시 구로구 구로동로 157,8309,126.8833541,37.49256575,0
이디아커피,I56220,서울특별시,노원구,하계1동,서울특별시 노원구 공릉로 326,1806,127.0711619,37.6358815,0
이디아커피,I56220,서울특별시,강서구,가양1동,서울특별시 강서구 양천로 344,7791,126.8403421,37.56825286,0
이디아커피,I56220,서울특별시,중랑구,면목2동,서울특별시 중랑구 동일로 683,2129,127.0798447,37.59143809,0
이디아커피,I56220,서울특별시,영등포구,신길6동,서울특별시 영등포구 신풍로 52-1,7430,126.9117668,37.49993115,0
이디아커피,I56220,서울특별시,관악구,조원동,서울특별시 관악구 남부순환로 1369,8768,126.9028847,37.48011606,0
이디아커피,I56220,서울특별시,종로구,종로5.6가동,서울특별시 종로구 대학로 33,3128,127.0018323,37.57403576,0
이디아커피,I56220,서울특별시,강서구,가양1동,서울특별시 강서구 마곡중앙5로 6,7788,126.8270032,37.56708489,0
이디아커피,I56220,서울특별시,강북구,수유1동,서울특별시 강북구 삼양로 293,1103,127.0177076,37.62974501,0
이디아커피,I56220,서울특별시,강서구,화곡1동,서울특별시 강서구 강서로17길 6,7764,126.8451813,37.53341229,0
이디아커피,I56220,서울특별시,강동구,암사1동,서울특별시 강동구 암사길 50,5260,127.1347065,37.55135979,0
이디아커피,I56220,서울특별시,은평구,진관동,서울특별시 은평구 진관1로 21-9,3311,126.9196854,37.63147417,0
이디아커피,I56220,서울특별시,영등포구,여의동,서울특별시 영등포구 의사당대로 110,7322,126.924414,37.52020338,0
이디아커피,I56220,서울특별시,강서구,방화2동,서울특별시 강서구 방화동로 95,7607,126.812529,37.56900354,0
이디아커피,I56220,서울특별시,마포구,대흥동,서울특별시 마포구 백범로 100,4149,126.9423663,37.54749593,0
이디아커피,I56220,서울특별시,성북구,성북동,서울특별시 성북구 동소문로13길 13,2832,127.0125483,37.59239901,0
이디아커피,I56220,서울특별시,노원구,중계본동,서울특별시 노원구 중계로14바길 14,1722,127.0831817,37.64983347,0
이디아커피,I56220,서울특별시,금천구,시흥5동,서울특별시 금천구 시흥대로 150,8649,126.9036534,37.44761328,0
이디아커피,I56220,서울특별시,은평구,갈현1동,서울특별시 은평구 갈현로 268,3330,126.9166368,37.62061586,0
이디아커피,I56220,서울특별시,관악구,미성동,서울특별시 관악구 난우길 43-1,8849,126.9170477,37.47648034,0
이디아커피,I56220,서울특별시,마포구,성산1동,서울특별시 마포구 성미산로 78,3986,126.9166392,37.56030072,0
이디아커피,I56220,서울특별시,성북구,석관동,서울특별시 성북구 한천로78길 71,2781,127.0649494,37.61354974,0
이디아커피,I56220,서울특별시,마포구,성산2동,서울특별시 마포구 월드컵로 240,3932,126.8972574,37.56827565,0
이디아커피,I56220,서울특별시,중구,소공동,서울특별시 중구 남대문로1길 57,4526,126.9774543,37.5636003,0
이디아커피,I56220,서울특별시,마포구,성산2동,서울특별시 마포구 월드컵로 240,3932,126.8990103,37.56993189,0
이디아커피,I56220,서울특별시,송파구,잠실본동,서울특별시 송파구 삼전로 95,5566,127.0899078,37.50702449,0
이디아커피,I56220,서울특별시,도봉구,방학1동,서울특별시 도봉구 도봉로 677,1340,127.0422936,37.66492527,0
이디아커피,I56220,서울특별시,관악구,신사동,서울특별시 관악구 남부순환로 1541,8763,126.9217311,37.48337116,0
이디아커피,I56220,서울특별시,양천구,목3동,서울특별시 양천구 목동중앙북로 38,7949,126.8667649,37.54791183,0
이디아커피,I56220,서울특별시,용산구,한남동,서울특별시 용산구 이태원로 281,4347,127.0015199,37.5397664,0
이디아커피,I56220,서울특별시,영등포구,여의동,서울특별시 영등포구 의사당대로 108,7322,126.9239727,37.52100129,0
이디아커피,I56220,서울특별시,관악구,미성동,서울특별시 관악구 남부순환로 1444,8771,126.9112399,37.48091419,0
이디아커피,I56220,서울특별시,서대문구,남가좌1동,서울특별시 서대문구 가재울미래로 2,3711,126.9177798,37.57456558,0
이디아커피,I56220,서울특별시,강동구,천호3동,서울특별시 강동구 구천면로 236-1,5334,127.1316728,37.54165119,0
이디아커피,I56220,서울특별시,관악구,신림동,서울특별시 관악구 봉천로6길 24,8706,126.9254099,37.48861274,0
이디아커피,I56220,서울특별시,광진구,구의1동,서울특별시 광진구 광나루로 506,5031,127.0856475,37.54470975,0
이디아커피,I56220,서울특별시,강남구,논현2동,서울특별시 강남구 도산대로30길 7,6047,127.0294167,37.51938295,0
이디아커피,I56220,서울특별시,도봉구,방학2동,서울특별시 도봉구 도당로13길 22,1355,127.035278,37.66576012,0
이디아커피,I56220,서울특별시,동대문구,청량리동,서울특별시 동대문구 약령시로 147,2489,127.0458022,37.58378825,0
이디아커피,I56220,서울특별시,강남구,역삼1동,서울특별시 강남구 강남대로 390,6232,127.0285648,37.49783175,0
이디아커피,I56220,서울특별시,은평구,불광1동,서울특별시 은평구 불광로 104-2,3363,126.9332823,37.61629841,0
이디아커피,I56220,서울특별시,중구,소공동,서울특별시 중구 남대문로1길 55,4526,126.9774212,37.56353694,0
이디아커피,I56220,서울특별시,송파구,잠실6동,서울특별시 송파구 올림픽로35길 112,5504,127.1020144,37.51800193,0
이디아커피,I56220,서울특별시,금천구,시흥1동,서울특별시 금천구 시흥대로63길 8,8614,126.899183,37.45498738,0
이디아커피,I56220,서울특별시,성북구,월곡2동,서울특별시 성북구 화랑로 99,2751,127.0426742,37.60347772,0
이디아커피,I56220,서울특별시,금천구,시흥3동,서울특별시 금천구 시흥대로 88,8652,126.9038954,37.44187581,0
이디아커피,I56220,서울특별시,영등포구,도림동,서울특별시 영등포구 도신로15길 40,7374,126.8965524,37.50860223,0
이디아커피,I56220,서울특별시,송파구,문정1동,서울특별시 송파구 문정로 31-1,5803,127.1263192,37.48643984,0
이디아커피,I56220,서울특별시,강남구,역삼1동,서울특별시 강남구 강남대로 432,6129,127.0266094,37.50123065,0
이디아커피,I56220,서울특별시,노원구,하계1동,서울특별시 노원구 공릉로 351,1784,127.0680177,37.63815435,0
이디아커피,I56220,서울특별시,서초구,잠원동,서울특별시 서초구 신반포로47길 42,6530,127.0187151,37.51246455,0
이디아커피,I56220,서울특별시,영등포구,신길3동,서울특별시 영등포구 도림로 326,7382,126.9018076,37.5065788,0
이디아커피,I56220,서울특별시,종로구,종로1.2.3.4가동,서울특별시 종로구 율곡로 6,3142,126.9797604,37.57544191,0
이디아커피,I56220,서울특별시,중구,약수동,서울특별시 중구 동호로10길 11,4590,127.0116106,37.55454736,0
이디아커피,I56220,서울특별시,영등포구,영등포동,서울특별시 영등포구 국회대로54길 10,7247,126.9070317,37.52373808,0
이디아커피,I56220,서울특별시,마포구,상암동,서울특별시 마포구 성암로 184,3928,126.8989995,37.57681569,0
이디아커피,I56220,서울특별시,중랑구,면목3.8동,서울특별시 중랑구 용마산로 394,2192,127.095529,37.58664862,0
이디아커피,I56220,서울특별시,양천구,신정3동,서울특별시 양천구 신정로11길 50-15,8053,126.8384044,37.51222551,0
이디아커피,I56220,서울특별시,노원구,월계1동,서울특별시 노원구 화랑로 347-1,1914,127.0660975,37.61503654,0
이디아커피,I56220,서울특별시,종로구,혜화동,서울특별시 종로구 성균관로 8,3074,126.9983187,37.58364714,0
이디아커피,I56220,서울특별시,은평구,불광1동,서울특별시 은평구 불광로 59,3358,126.9317193,37.61232874,0
이디아커피,I56220,서울특별시,광진구,자양3동,서울특별시 광진구 능동로 90,5065,127.070902,37.53835036,0
이디아커피,I56220,서울특별시,강서구,가양1동,서울특별시 강서구 공항대로 247,7803,126.8351177,37.55919112,0
이디아커피,I56220,서울특별시,마포구,서교동,서울특별시 마포구 양화로11길 54,4035,126.9138126,37.55229155,0
이디아커피,I56220,서울특별시,금천구,가산동,서울특별시 금천구 가산디지털1로 171,8503,126.8803985,37.48148195,0
이디아커피,I56220,서울특별시,강동구,고덕1동,서울특별시 강동구 아리수로50길 50,5229,127.1485197,37.55779463,0
이디아커피,I56220,서울특별시,구로구,고척1동,서울특별시 구로구 경인로 397,8227,126.8638602,37.49768702,0
이디아커피,I56220,서울특별시,강남구,세곡동,서울특별시 강남구 자곡로 180,6373,127.1033474,37.47370691,0
이디아커피,I56220,서울특별시,서초구,양재1동,서울특별시 서초구 바우뫼로 20,6763,127.0252738,37.46998,0
이디아커피,I56220,서울특별시,송파구,문정2동,서울특별시 송파구 충민로 66,5838,127.124941,37.47760822,0
이디아커피,I56220,서울특별시,서대문구,남가좌1동,서울특별시 서대문구 수색로 32,3712,126.9151025,37.56948619,0
이디아커피,I56220,서울특별시,강남구,역삼1동,서울특별시 강남구 강남대로 396,6232,127.0282892,37.49815386,0
이디아커피,I56220,서울특별시,구로구,개봉1동,서울특별시 구로구 경인로40길 12,8277,126.8590989,37.49620848,0
이디아커피,I56220,서울특별시,광진구,자양3동,서울특별시 광진구 아차산로 262,5065,127.0729442,37.53699681,0
이디아커피,I56220,서울특별시,동대문구,회기동,서울특별시 동대문구 경희대로 4,2453,127.0525041,37.59189756,0
이디아커피,I56220,서울특별시,강북구,수유3동,서울특별시 강북구 한천로 1083,1070,127.0226156,37.64253541,0
이디아커피,I56220,서울특별시,영등포구,영등포동,서울특별시 영등포구 영신로 136,7301,126.9015706,37.51966876,0
이디아커피,I56220,서울특별시,종로구,종로1.2.3.4가동,서울특별시 종로구 삼일대로 436-1,3133,126.9880044,37.57359365,0
이디아커피,I56220,서울특별시,성동구,금호1가동,서울특별시 성동구 난계로 35,4727,127.0244663,37.55551928,0
이디아커피,I56220,서울특별시,도봉구,도봉2동,서울특별시 도봉구 도봉로 964-33,1318,127.0461313,37.68920308,0
이디아커피,I56220,서울특별시,성북구,돈암2동,서울특별시 성북구 아리랑로 85-16,2826,127.0124946,37.5998862,0
이디아커피,I56220,서울특별시,성북구,성북동,서울특별시 성북구 동소문로13길 5,2832,127.0128136,37.5920318,0
이디아커피,I56220,서울특별시,강서구,염창동,서울특별시 강서구 공항대로61길 20,7562,126.8657779,37.55180383,0
이디아커피,I56220,서울특별시,은평구,증산동,서울특별시 은평구 수색로 175,3504,126.9019154,37.57714921,0
이디아커피,I56220,서울특별시,강서구,발산1동,서울특별시 강서구 수명로 68-27,7635,126.8266634,37.55266502,0
이디아커피,I56220,서울특별시,강서구,가양1동,서울특별시 강서구 마곡서로 101,7798,126.8235753,37.56264475,0
이디아커피,I56220,서울특별시,강서구,가양1동,서울특별시 강서구 공항대로 195,7801,126.8292573,37.55975486,0
이디아커피,I56220,서울특별시,마포구,공덕동,서울특별시 마포구 백범로 202,4196,126.9524467,37.5428373,0
이디아커피,I56220,서울특별시,성북구,정릉2동,서울특별시 성북구 북악산로1길 26-13,2821,127.0048431,37.59958766,0
이디아커피,I56220,서울특별시,송파구,문정2동,서울특별시 송파구 충민로 5,5841,127.1196202,37.4801187,0
이디아커피,I56220,서울특별시,관악구,은천동,서울특별시 관악구 남부순환로 1725,8757,126.9418786,37.4826793,0
이디아커피,I56220,서울특별시,관악구,낙성대동,서울특별시 관악구 남부순환로 1874,8789,126.9577367,37.4789998,0
이디아커피,I56220,서울특별시,동작구,사당1동,서울특별시 동작구 동작대로7길 100,7024,126.9775142,37.47714524,0
이디아커피,I56220,서울특별시,강남구,삼성1동,서울특별시 강남구 봉은사로86길 30,6165,127.0568477,37.51144163,0
이디아커피,I56220,서울특별시,강남구,역삼1동,서울특별시 강남구 봉은사로 326,6143,127.0426523,37.50964246,0
이디아커피,I56220,서울특별시,금천구,시흥4동,서울특별시 금천구 독산로 124,8569,126.9055425,37.45835331,0
이디아커피,I56220,서울특별시,강북구,수유3동,서울특별시 강북구 도봉로 355,1074,127.0266913,37.63933439,0
이디아커피,I56220,서울특별시,성동구,금호2.3가동,서울특별시 성동구 무수막길 89-30,4726,127.0196788,37.55378566,0
이디아커피,I56220,서울특별시,성동구,금호2.3가동,서울특별시 성동구 금호산길 64,4726,127.0195983,37.55388411,0
이디아커피,I56220,서울특별시,영등포구,신길6동,서울특별시 영등포구 신길로 42,7436,126.9086055,37.49645999,0
이디아커피,I56220,서울특별시,중구,황학동,서울특별시 중구 퇴계로 455,4575,127.022309,37.56557513,0
이디아커피,I56220,서울특별시,구로구,구로5동,서울특별시 구로구 새말로 97,8288,126.8902076,37.50703804,0
이디아커피,I56220,서울특별시,관악구,신사동,서울특별시 관악구 남부순환로 1541-1,8763,126.9218665,37.48339041,0
이디아커피,I56220,서울특별시,관악구,서원동,서울특별시 관악구 신림로 262-1,8781,126.9326883,37.47855091,0
이디아커피,I56220,서울특별시,관악구,미성동,서울특별시 관악구 난곡로 250,8849,126.9159729,37.47653356,0
이디아커피,I56220,서울특별시,관악구,신림동,서울특별시 관악구 관천로 52,8759,126.9266133,37.48432567,0
이디아커피,I56220,서울특별시,마포구,공덕동,서울특별시 마포구 마포대로 208,4206,126.956827,37.55250823,0
이디아커피,I56220,서울특별시,중구,다산동,서울특별시 중구 다산로 131,4607,127.0108145,37.55569403,0
이디아커피,I56220,서울특별시,서초구,양재2동,서울특별시 서초구 동산로 3,6779,127.0402645,37.4690755,0
이디아커피,I56220,서울특별시,강서구,가양3동,서울특별시 강서구 양천로 551-17,7532,126.8609249,37.55910054,0
이디아커피,I56220,서울특별시,영등포구,영등포본동,서울특별시 영등포구 영신로9나길 16-5,7366,126.9062166,37.51370192,0
이디아커피,I56220,서울특별시,구로구,오류1동,서울특별시 구로구 경인로20길 6,8271,126.8434035,37.49539808,0
이디아커피,I56220,서울특별시,동대문구,용신동,서울특별시 동대문구 고산자로 413-1,2566,127.0379119,37.57665101,0
이디아커피,I56220,서울특별시,강서구,우장산동,서울특별시 강서구 우현로 17,7695,126.8434627,37.54725338,0
이디아커피,I56220,서울특별시,금천구,시흥5동,서울특별시 금천구 금하로 690,8642,126.9066214,37.45179463,0
이디아커피,I56220,서울특별시,중구,명동,서울특별시 중구 남대문로 112,4540,126.9829974,37.56717125,0
이디아커피,I56220,서울특별시,서대문구,신촌동,서울특별시 서대문구 신촌로 177,3766,126.9455815,37.55703969,0
이디아커피,I56220,서울특별시,강남구,일원1동,서울특별시 강남구 양재대로27길 20,6343,127.0816058,37.49039878,0
이디아커피,I56220,서울특별시,광진구,자양2동,서울특별시 광진구 자양로 46,5112,127.0859363,37.53217834,0
이디아커피,I56220,서울특별시,광진구,자양2동,서울특별시 광진구 자양로 92,5051,127.0840793,37.53599343,0
이디아커피,I56220,서울특별시,동대문구,전농1동,서울특별시 동대문구 답십리로 77,2552,127.0496042,37.57506077,0
이디아커피,I56220,서울특별시,노원구,중계2.3동,서울특별시 노원구 동일로208길 20,1782,127.0657188,37.64348832,0
이디아커피,I56220,서울특별시,성동구,금호2.3가동,서울특별시 성동구 금호산길 64,4726,127.0195983,37.55388411,0
이디아커피,I56220,서울특별시,성북구,정릉1동,서울특별시 성북구 북악산로 851,2818,127.0185842,37.60012621,0
이디아커피,I56220,서울특별시,광진구,중곡3동,서울특별시 광진구 용마산로 111,4935,127.0866281,37.56358534,0
이디아커피,I56220,서울특별시,종로구,숭인1동,서울특별시 종로구 지봉로 64,3109,127.0158139,37.57572097,0
이디아커피,I56220,서울특별시,강동구,천호2동,서울특별시 강동구 올림픽로 665,5248,127.1238621,37.5409177,0
이디아커피,I56220,서울특별시,종로구,종로1.2.3.4가동,서울특별시 종로구 청계천로 55,3189,126.9838213,37.56901647,0
이디아커피,I56220,서울특별시,성동구,왕십리도선동,서울특별시 성동구 무학로 33,4702,127.0264842,37.56917777,0
이디아커피,I56220,서울특별시,마포구,망원2동,서울특별시 마포구 망원로 21,3958,126.8994026,37.55634792,0
이디아커피,I56220,서울특별시,영등포구,여의동,서울특별시 영등포구 은행로 17,7237,126.9207225,37.52830613,0
이디아커피,I56220,서울특별시,성북구,성북동,서울특별시 성북구 동소문로 19,2833,127.0080797,37.58952326,0
이디아커피,I56220,서울특별시,강서구,화곡8동,서울특별시 강서구 곰달래로 135,7760,126.8479038,37.53075379,0
카페베네,I56220,서울특별시,서초구,서초4동,서울특별시 서초구 강남대로 415,6614,127.0263258,37.49955235,0
카페베네,I56220,서울특별시,영등포구,영등포동,서울특별시 영등포구 영중로 16-1,7304,126.9061444,37.51787308,0
카페베네,I56220,서울특별시,강서구,화곡6동,서울특별시 강서구 화곡로 311,7686,126.8495218,37.55209707,0
카페베네,I56220,서울특별시,강서구,등촌1동,서울특별시 강서구 양천로 564,7551,126.8615549,37.55712434,0
카페베네,I56220,서울특별시,중랑구,면목5동,서울특별시 중랑구 동일로 540,2236,127.0814056,37.5796015,0
카페베네,I56220,서울특별시,마포구,대흥동,서울특별시 마포구 서강로 136,4100,126.9357776,37.55403235,0
카페베네,I56220,서울특별시,동대문구,전농2동,서울특별시 동대문구 서울시립대로 163,2504,127.0599704,37.58256838,0
카페베네,I56220,서울특별시,성북구,안암동,서울특별시 성북구 개운사길 18,2842,127.0294436,37.58712389,0
카페베네,I56220,서울특별시,강남구,도곡2동,서울특별시 강남구 언주로30길 13,6292,127.0506614,37.4881358,0
카페베네,I56220,서울특별시,서초구,양재2동,서울특별시 서초구 매헌로 16,6771,127.0369353,37.46246166,0
카페베네,I56220,서울특별시,은평구,갈현1동,서울특별시 은평구 통일로 855-4,3330,126.9203379,37.6192622,0
카페베네,I56220,서울특별시,동작구,상도2동,서울특별시 동작구 상도로30길 39,6964,126.9422792,37.50478563,0
카페베네,I56220,서울특별시,마포구,서강동,서울특별시 마포구 와우산로 94,4066,126.9249219,37.55260046,0
카페베네,I56220,서울특별시,광진구,구의1동,서울특별시 광진구 자양로22길 70-14,5042,127.0871629,37.53922506,0
카페베네,I56220,서울특별시,용산구,원효로2동,서울특별시 용산구 원효로 138,4366,126.9587744,37.53373866,0
카페베네,I56220,서울특별시,강남구,역삼1동,서울특별시 강남구 테헤란로 309,6151,127.0444153,37.50354758,0
카페베네,I56220,서울특별시,송파구,잠실6동,서울특별시 송파구 오금로 58,5510,127.1053896,37.516712,0
카페베네,I56220,서울특별시,서대문구,신촌동,서울특별시 서대문구 이화여대길 50-8,3764,126.9461534,37.55902708,0
카페베네,I56220,서울특별시,서대문구,충현동,서울특별시 서대문구 충정로 8,3742,126.9631901,37.55966449,0
카페베네,I56220,서울특별시,서대문구,신촌동,서울특별시 서대문구 이화여대길 50-6,3764,126.9460404,37.55901706,0
카페베네,I56220,서울특별시,금천구,독산4동,서울특별시 금천구 시흥대로126길 9,8576,126.8994605,37.46998345,0
카페베네,I56220,서울특별시,마포구,용강동,서울특별시 마포구 토정로 295,4166,126.9422063,37.54119622,0
카페베네,I56220,서울특별시,종로구,사직동,서울특별시 종로구 사직로 125,3044,126.9728334,37.57615673,0
카페베네,I56220,서울특별시,중구,명동,서울특별시 중구 퇴계로 125,4536,126.985694,37.56113945,0
카페베네,I56220,서울특별시,광진구,군자동,서울특별시 광진구 능동로 295,4997,127.078479,37.55616946,0
카페베네,I56220,서울특별시,강남구,청담동,서울특별시 강남구 삼성로146길 4-5,6070,127.0488995,37.52274018,0
카페베네,I56220,서울특별시,종로구,혜화동,서울특별시 종로구 대명길 9,3078,127.0009379,37.58336298,0
카페베네,I56220,서울특별시,노원구,상계6.7동,서울특별시 노원구 노해로 467,1689,127.0597337,37.65444241,0
카페베네,I56220,서울특별시,광진구,구의2동,서울특별시 광진구 광나루로 505,4976,127.0857084,37.5452869,0
카페베네,I56220,서울특별시,광진구,화양동,서울특별시 광진구 아차산로 207,5019,127.0667212,37.54150712,0
카페베네,I56220,서울특별시,광진구,중곡3동,서울특별시 광진구 면목로 163,4906,127.0821727,37.56783978,0
카페베네,I56220,서울특별시,동작구,사당2동,서울특별시 동작구 동작대로27길 32,7008,126.9802324,37.48761194,0
카페베네,I56220,서울특별시,송파구,잠실3동,서울특별시 송파구 잠실로 62,5555,127.0902691,37.50800943,0
카페베네,I56220,서울특별시,은평구,불광2동,서울특별시 은평구 통일로78길 7,3350,126.9232432,37.61809939,0
카페베네,I56220,서울특별시,양천구,신정4동,서울특별시 양천구 목동로 213,7938,126.8637939,37.52742974,0
카페베네,I56220,서울특별시,광진구,자양3동,서울특별시 광진구 아차산로 272,5065,127.0729816,37.53854692,0
카페베네,I56220,서울특별시,노원구,중계2.3동,서울특별시 노원구 동일로 1308-1,1760,127.0642282,37.64488212,0
카페베네,I56220,서울특별시,강서구,등촌3동,서울특별시 강서구 강서로 402,7583,126.8394648,37.56132432,0
카페베네,I56220,서울특별시,광진구,구의1동,서울특별시 광진구 자양로 102-1,5044,127.083887,37.53692002,0
카페베네,I56220,서울특별시,광진구,중곡4동,서울특별시 광진구 천호대로 639,4953,127.0888538,37.5537,0
카페베네,I56220,서울특별시,강남구,청담동,서울특별시 강남구 도산대로 539,6013,127.0525344,37.52514818,0
카페베네,I56220,서울특별시,강북구,삼양동,서울특별시 강북구 솔샘로 223,1188,127.0175604,37.62027391,0
카페베네,I56220,서울특별시,강남구,대치1동,서울특별시 강남구 도곡로 422,6279,127.0567438,37.49722213,0
카페베네,I56220,서울특별시,종로구,부암동,서울특별시 종로구 홍지문2길 20,3016,126.9551444,37.6040958,0
카페베네,I56220,서울특별시,동작구,노량진1동,서울특별시 동작구 노량진로 178,6913,126.9456755,37.51340298,0
카페베네,I56220,서울특별시,강남구,신사동,서울특별시 강남구 도산대로 127,6035,127.0223129,37.51761236,0
카페베네,I56220,서울특별시,강남구,역삼1동,서울특별시 강남구 논현로 565,6125,127.0337915,37.50646167,0
카페베네,I56220,서울특별시,동작구,대방동,서울특별시 동작구 알마타길 6,6941,126.9249592,37.50980127,0
카페베네,I56220,서울특별시,용산구,이태원1동,서울특별시 용산구 이태원로 197,4349,126.9959057,37.53482611,0
카페베네,I56220,서울특별시,서초구,양재2동,서울특별시 서초구 강남대로16길 4,6779,127.0392827,37.47070745,0
카페베네,I56220,서울특별시,중구,회현동,서울특별시 중구 퇴계로 18,4637,126.9751399,37.5565521,0
카페베네,I56220,서울특별시,강남구,신사동,서울특별시 강남구 압구정로28길 24,6030,127.0274436,37.52497126,0
카페베네,I56220,서울특별시,강서구,가양1동,서울특별시 강서구 강서로 490,7530,126.8418704,37.56897968,0
카페베네,I56220,서울특별시,용산구,한남동,서울특별시 용산구 이태원로 227,4349,126.9988369,37.53562589,0
카페베네,I56220,서울특별시,광진구,구의3동,서울특별시 광진구 광나루로56길 32,5118,127.0953132,37.53709822,0
카페베네,I56220,서울특별시,동대문구,답십리1동,서울특별시 동대문구 천호대로 281,2604,127.0521898,37.56756683,0
카페베네,I56220,서울특별시,강남구,역삼1동,서울특별시 강남구 테헤란로26길 12,6236,127.0358385,37.49944116,0
카페베네,I56220,서울특별시,광진구,군자동,서울특별시 광진구 군자로 114,5006,127.072859,37.55301684,0
카페베네,I56220,서울특별시,마포구,용강동,서울특별시 마포구 마포대로 73,4157,126.9489463,37.54230161,0
카페베네,I56220,서울특별시,강남구,논현1동,서울특별시 강남구 봉은사로 105,6120,127.0250114,37.50496586,0
카페베네,I56220,서울특별시,영등포구,여의동,서울특별시 영등포구 여의대방로 359,7334,126.9294016,37.51870791,0
카페베네,I56220,서울특별시,강남구,청담동,서울특별시 강남구 압구정로72길 8,6015,127.0450101,37.52610577,0
카페베네,I56220,서울특별시,강남구,역삼1동,서울특별시 강남구 테헤란로1길 19,6134,127.0275014,37.49959808,0
카페베네,I56220,서울특별시,종로구,교남동,서울특별시 종로구 통일로 146,3180,126.9654937,37.56742463,0
카페베네,I56220,서울특별시,강남구,신사동,서울특별시 강남구 논현로 815,6032,127.0277846,37.52136085,0
카페베네,I56220,서울특별시,관악구,보라매동,서울특별시 관악구 봉천로 219,8708,126.9261346,37.49012408,0
카페베네,I56220,서울특별시,광진구,중곡3동,서울특별시 광진구 동일로 427,4900,127.0785194,37.56851414,0
카페베네,I56220,서울특별시,강남구,논현2동,서울특별시 강남구 선릉로 627,6100,127.0427974,37.51245492,0
카페베네,I56220,서울특별시,구로구,구로5동,서울특별시 구로구 새말로 97,8288,126.8902076,37.50703804,0
카페베네,I56220,서울특별시,은평구,진관동,서울특별시 은평구 진관길 21-2,3308,126.9412374,37.64160789,0
카페베네,I56220,서울특별시,중랑구,면목5동,서울특별시 중랑구 면목천로 33,2236,127.0811954,37.5792034,0
카페베네,I56220,서울특별시,노원구,하계1동,서울특별시 노원구 공릉로59길 28,1829,127.0696529,37.63422972,0
카페베네,I56220,서울특별시,성동구,사근동,서울특별시 성동구 왕십리로 220,4763,127.0474999,37.55717606,0
카페베네,I56220,서울특별시,은평구,진관동,서울특별시 은평구 연서로48길 54,3308,126.9401899,37.63957117,0
카페베네,I56220,서울특별시,용산구,남영동,서울특별시 용산구 후암로57길 35-15,4324,126.9743969,37.55213054,0
카페베네,I56220,서울특별시,종로구,평창동,서울특별시 종로구 평창문화로 87,3009,126.9707752,37.60724261,0
카페베네,I56220,서울특별시,마포구,상암동,서울특별시 마포구 상암산로 48-6,3909,126.890087,37.57700254,0
카페베네,I56220,서울특별시,강남구,역삼1동,서울특별시 강남구 테헤란로19길 19,6131,127.0331223,37.50134721,0
카페베네,I56220,서울특별시,성북구,월곡2동,서울특별시 성북구 화랑로18마길 3,2791,127.0500897,37.60545685,0
카페베네,I56220,서울특별시,강서구,화곡6동,서울특별시 강서구 화곡로 305,7686,126.849122,37.55160661,0
카페베네,I56220,서울특별시,관악구,신원동,서울특별시 관악구 신원로5길 19,8774,126.9276299,37.48202822,0
카페베네,I56220,서울특별시,도봉구,쌍문1동,서울특별시 도봉구 우이천로38길 23-34,1377,127.0219038,37.65188223,0
카페베네,I56220,서울특별시,용산구,한강로동,서울특별시 용산구 서빙고로 31,4385,126.9698536,37.52617693,0
카페베네,I56220,서울특별시,광진구,구의1동,서울특별시 광진구 자양로 102,5044,127.0839332,37.53683929,0
카페베네,I56220,서울특별시,송파구,거여2동,서울특별시 송파구 오금로62길 10,5773,127.1460893,37.4920178,0
카페베네,I56220,서울특별시,성동구,성수1가2동,서울특별시 성동구 상원1길 25,4779,127.0479609,37.54584458,0
카페베네,I56220,서울특별시,종로구,이화동,서울특별시 종로구 대학로 95,3082,127.0017557,37.57977475,0
카페베네,I56220,서울특별시,마포구,상암동,서울특별시 마포구 성암로 301,3923,126.8879228,37.58246045,0
카페베네,I56220,서울특별시,마포구,상암동,서울특별시 마포구 월드컵북로62길 21,3919,126.8850658,37.58423556,0
카페베네,I56220,서울특별시,은평구,진관동,서울특별시 은평구 연서로50길 10,3308,126.9385441,37.64056552,0
카페베네,I56220,서울특별시,강동구,암사3동,서울특별시 강동구 고덕로 89,5237,127.1352651,37.55492305,0
카페베네,I56220,서울특별시,강서구,가양2동,서울특별시 강서구 양천로57길 9-13,7527,126.8511902,37.56358346,0
카페베네,I56220,서울특별시,서초구,서초4동,서울특별시 서초구 서초대로77길 3,6615,127.0264923,37.49804896,0
카페베네,I56220,서울특별시,강동구,성내1동,서울특별시 강동구 성내로 22,5398,127.122818,37.52958368,0
카페베네,I56220,서울특별시,송파구,거여2동,서울특별시 송파구 오금로 513,5768,127.1458608,37.49321456,0
카페베네,I56220,서울특별시,광진구,자양4동,서울특별시 광진구 아차산로 244,5073,127.0701834,37.53972332,0
카페베네,I56220,서울특별시,성북구,안암동,서울특별시 성북구 안암로 145,2841,127.0317018,37.58848499,0
카페베네,I56220,서울특별시,성동구,금호4가동,서울특별시 성동구 독서당로 290-1,4737,127.0213866,37.54781688,0
카페베네,I56220,서울특별시,관악구,낙성대동,서울특별시 관악구 봉천로 569,8792,126.9609674,37.47757756,0
카페베네,I56220,서울특별시,관악구,은천동,서울특별시 관악구 양녕로 117,8715,126.9424474,37.49205532,0
카페베네,I56220,서울특별시,금천구,가산동,서울특별시 금천구 가산디지털1로 1,8594,126.8871592,37.46627305,0
카페베네,I56220,서울특별시,강서구,등촌2동,서울특별시 강서구 등촌로 223,7665,126.8633893,37.54960937,0
카페베네,I56220,서울특별시,서초구,서초4동,서울특별시 서초구 강남대로 415,6614,127.0263258,37.49955235,0
카페베네,I56220,서울특별시,마포구,도화동,서울특별시 마포구 도화길 27,4168,126.9489439,37.54085992,0
카페베네,I56220,서울특별시,마포구,용강동,서울특별시 마포구 토정로 295,4166,126.9422063,37.54119622,0
카페베네,I56220,서울특별시,종로구,종로1.2.3.4가동,서울특별시 종로구 무교로 40,3188,126.9794676,37.56951954,0
카페베네,I56220,서울특별시,강북구,송천동,서울특별시 강북구 도봉로 67,1205,127.0294659,37.6150473,0
카페베네,I56220,서울특별시,송파구,송파1동,서울특별시 송파구 백제고분로 433,5620,127.1113573,37.50951254,0
카페베네,I56220,서울특별시,관악구,남현동,서울특별시 관악구 남부순환로 2082-29,8806,126.9806597,37.4761362,0
카페베네,I56220,서울특별시,양천구,신정3동,서울특별시 양천구 신정이펜1로 20,8049,126.8331141,37.51201118,0
카페베네,I56220,서울특별시,관악구,낙성대동,서울특별시 관악구 남부순환로 1840,8788,126.9542807,37.48035688,0
카페베네,I56220,서울특별시,송파구,송파1동,서울특별시 송파구 석촌호수로 298,5618,127.108189,37.51151604,0
카페베네,I56220,서울특별시,중구,필동,서울특별시 중구 소파로2길 10,4628,126.987459,37.55784777,0
카페베네,I56220,서울특별시,강동구,암사3동,서울특별시 강동구 고덕로 89,5237,127.1352651,37.55492305,0
카페베네,I56220,서울특별시,양천구,신정6동,서울특별시 양천구 목동동로 75,8094,126.8634014,37.51600979,0
카페베네,I56220,서울특별시,강북구,송천동,서울특별시 강북구 도봉로 67,1205,127.0294659,37.6150473,0
카페베네,I56220,서울특별시,서대문구,신촌동,서울특별시 서대문구 연세로 50,3722,126.9429168,37.56380069,0
카페베네,I56220,서울특별시,영등포구,당산1동,서울특별시 영등포구 당산로 138,7257,126.8971765,37.52691724,0
카페베네,I56220,서울특별시,중랑구,상봉1동,서울특별시 중랑구 망우로 353,2087,127.0916054,37.59832307,0
카페베네,I56220,서울특별시,중랑구,상봉1동,서울특별시 중랑구 망우로 353,2087,127.0916054,37.59832307,0
카페베네,I56220,서울특별시,동작구,사당1동,서울특별시 동작구 동작대로 79,7013,126.9815985,37.48360503,0
카페베네,I56220,서울특별시,동대문구,장안2동,서울특별시 동대문구 장한로 102,2639,127.070311,37.56954005,0
카페베네,I56220,서울특별시,광진구,중곡1동,서울특별시 광진구 능동로 373,4909,127.0822468,37.5627224,0
카페베네,I56220,서울특별시,금천구,가산동,서울특별시 금천구 가산디지털1로 16,8591,126.8878245,37.46791022,0
카페베네,I56220,서울특별시,강동구,성내2동,서울특별시 강동구 천호대로 1034,5379,127.1267457,37.53719968,0
카페베네,I56220,서울특별시,강남구,청담동,서울특별시 강남구 삼성로 772,6070,127.0480061,37.523598,0
카페베네,I56220,서울특별시,강남구,삼성1동,서울특별시 강남구 영동대로 647,6085,127.0566303,37.51972058,0
커피빈,I56220,서울특별시,서초구,서초1동,서울특별시 서초구 서초중앙로 118,6634,127.014217,37.49238766,0
커피빈,I56220,서울특별시,종로구,혜화동,서울특별시 종로구 대명길 25,3078,127.0001708,37.58314925,0
커피빈,I56220,서울특별시,강남구,역삼1동,서울특별시 강남구 테헤란로 335,6150,127.0482229,37.50474969,0
커피빈,I56220,서울특별시,영등포구,여의동,서울특별시 영등포구 국제금융로 20,7327,126.927277,37.52487881,0
커피빈,I56220,서울특별시,서대문구,신촌동,서울특별시 서대문구 신촌로 83,3789,126.9358278,37.55606915,0
커피빈,I56220,서울특별시,강남구,청담동,서울특별시 강남구 압구정로 461,6011,127.0472158,37.52524956,0
커피빈,I56220,서울특별시,강남구,역삼1동,서울특별시 강남구 테헤란로4길 28,6241,127.0300745,37.4965196,0
커피빈,I56220,서울특별시,강남구,청담동,서울특별시 강남구 삼성로 716,6074,127.0500215,37.51990189,0
커피빈,I56220,서울특별시,강남구,역삼1동,서울특별시 강남구 테헤란로 143,6132,127.0348844,37.50064078,0
커피빈,I56220,서울특별시,광진구,광장동,서울특별시 광진구 아차산로 563,4983,127.102912,37.54413034,0
커피빈,I56220,서울특별시,강남구,대치4동,서울특별시 강남구 선릉로64길 23,6205,127.0541518,37.49829169,0
커피빈,I56220,서울특별시,강남구,대치2동,서울특별시 강남구 영동대로 211,6283,127.0688065,37.49756112,0
커피빈,I56220,서울특별시,중구,명동,서울특별시 중구 명동7길 13,4534,126.9839527,37.5643412,0
커피빈,I56220,서울특별시,서초구,서초2동,서울특별시 서초구 서초대로74길 4,6620,127.0256838,37.49673577,0
커피빈,I56220,서울특별시,강남구,삼성1동,서울특별시 강남구 테헤란로87길 22,6164,127.0594268,37.50962404,0
커피빈,I56220,서울특별시,강남구,역삼2동,서울특별시 강남구 테헤란로 312,6211,127.0450339,37.50293085,0
커피빈,I56220,서울특별시,서대문구,신촌동,서울특별시 서대문구 신촌로 113,3779,126.9385569,37.55596758,0
커피빈,I56220,서울특별시,서초구,서초2동,서울특별시 서초구 강남대로51길 1,6628,127.0302441,37.49127685,0
커피빈,I56220,서울특별시,양천구,목1동,서울특별시 양천구 목동동로 293,7997,126.8757526,37.5281659,0
커피빈,I56220,서울특별시,강남구,대치4동,서울특별시 강남구 테헤란로70길 12,6193,127.0531431,37.50473517,0
커피빈,I56220,서울특별시,서초구,서초4동,서울특별시 서초구 강남대로 423,6614,127.0257958,37.50030487,0
커피빈,I56220,서울특별시,성북구,안암동,서울특별시 성북구 개운사길 8,2842,127.0295587,37.58698067,0
커피빈,I56220,서울특별시,서대문구,신촌동,서울특별시 서대문구 연세로 8-1,3779,126.9372841,37.55633456,0
커피빈,I56220,서울특별시,중구,소공동,서울특별시 중구 세종대로 84,4526,126.9771593,37.5636518,0
커피빈,I56220,서울특별시,강남구,논현2동,서울특별시 강남구 봉은사로 207,6109,127.0346447,37.50783825,0
커피빈,I56220,서울특별시,구로구,구로3동,서울특별시 구로구 디지털로 300,8379,126.8965278,37.48491351,0
커피빈,I56220,서울특별시,강남구,논현1동,서울특별시 강남구 논현로 717,6041,127.0295177,37.51595077,0
커피빈,I56220,서울특별시,영등포구,양평1동,서울특별시 영등포구 영등포로9길 46,7273,126.8874896,37.52479904,0
커피빈,I56220,서울특별시,강동구,성내2동,서울특별시 강동구 천호대로 1096,5381,127.1332187,37.53519296,0
커피빈,I56220,서울특별시,강남구,역삼1동,서울특별시 강남구 테헤란로20길 10,6235,127.0341242,37.49907574,0
커피빈,I56220,서울특별시,종로구,사직동,서울특별시 종로구 사직로 130,3170,126.9733086,37.57535894,0
커피빈,I56220,서울특별시,금천구,시흥1동,서울특별시 금천구 시흥대로 201,8632,126.9007767,37.45189359,0
커피빈,I56220,서울특별시,금천구,가산동,서울특별시 금천구 디지털로9길 23,8511,126.886466,37.47871,0
커피빈,I56220,서울특별시,중구,명동,서울특별시 중구 남대문로10길 6,4539,126.9832279,37.56686688,0
커피빈,I56220,서울특별시,영등포구,여의동,서울특별시 영등포구 의사당대로 97,7327,126.9245733,37.5225025,0
커피빈,I56220,서울특별시,용산구,한남동,서울특별시 용산구 이태원로 220,4404,126.9984632,37.53480277,0
커피빈,I56220,서울특별시,종로구,사직동,서울특별시 종로구 새문안로9길 25,3183,126.9754693,37.57134105,0
커피빈,I56220,서울특별시,영등포구,여의동,서울특별시 영등포구 국회대로68길 17,7237,126.9200935,37.52877793,0
커피빈,I56220,서울특별시,강남구,압구정동,서울특별시 강남구 압구정로29길 65,6005,127.0269816,37.53179742,0
커피빈,I56220,서울특별시,서대문구,신촌동,서울특별시 서대문구 신촌역로 20,3766,126.9431181,37.55836922,0
커피빈,I56220,서울특별시,서초구,서초2동,서울특별시 서초구 강남대로 369,6621,127.0281972,37.49564817,0
커피빈,I56220,서울특별시,강동구,천호2동,서울특별시 강동구 구천면로 202,5329,127.1270741,37.5400945,0
커피빈,I56220,서울특별시,강서구,등촌1동,서울특별시 강서구 화곡로 398,7567,126.8548002,37.55845562,0
커피빈,I56220,서울특별시,중랑구,상봉1동,서울특별시 중랑구 망우로 353,2087,127.0916054,37.59832307,0
커피빈,I56220,서울특별시,종로구,이화동,서울특별시 종로구 대학로12길 62,3086,127.0036928,37.58139497,0
커피빈,I56220,서울특별시,강남구,삼성1동,서울특별시 강남구 영동대로 607,6087,127.0594668,37.51455313,0
커피빈,I56220,서울특별시,영등포구,영등포동,서울특별시 영등포구 영중로 15,7305,126.9039142,37.51721267,0
커피빈,I56220,서울특별시,중구,회현동,서울특별시 중구 후암로 110,4637,126.9740278,37.55428983,0
커피빈,I56220,서울특별시,중구,명동,서울특별시 중구 명동8나길 20,4536,126.9838895,37.56149336,0
커피빈,I56220,서울특별시,강남구,도곡2동,서울특별시 강남구 논현로 136,6302,127.0432328,37.48187659,0
커피빈,I56220,서울특별시,서대문구,신촌동,서울특별시 서대문구 이화여대길 6,3767,126.9459981,37.55719658,0
커피빈,I56220,서울특별시,서초구,서초4동,서울특별시 서초구 서초대로73길 12,6615,127.025717,37.49853815,0
커피빈,I56220,서울특별시,중구,명동,서울특별시 중구 명동8가길 20,4537,126.9859824,37.56157443,0
커피빈,I56220,서울특별시,중구,소공동,서울특별시 중구 남대문로7길 16,4533,126.9811481,37.56415484,0
커피빈,I56220,서울특별시,강남구,신사동,서울특별시 강남구 논현로167길 9,6031,127.0274056,37.52441229,0
커피빈,I56220,서울특별시,서초구,서초3동,서울특별시 서초구 서초대로 280,6645,127.0123549,37.49295779,0
커피빈,I56220,서울특별시,영등포구,여의동,서울특별시 영등포구 의사당대로 110,7322,126.9239727,37.52100129,0
커피빈,I56220,서울특별시,양천구,목1동,서울특별시 양천구 오목로 299,8001,126.8703422,37.52607793,0
커피빈,I56220,서울특별시,강남구,청담동,서울특별시 강남구 도산대로67길 7,6016,127.0444085,37.52448802,0
커피빈,I56220,서울특별시,서초구,반포본동,서울특별시 서초구 신반포로 23,6502,126.9872107,37.50173741,0
커피빈,I56220,서울특별시,강남구,신사동,서울특별시 강남구 압구정로12길 6,6028,127.0223259,37.52355039,0
커피빈,I56220,서울특별시,강남구,역삼1동,서울특별시 강남구 테헤란로 327,6150,127.0472097,37.5043811,0
커피빈,I56220,서울특별시,강남구,논현2동,서울특별시 강남구 선릉로 749,6056,127.039458,37.52147439,0
커피빈,I56220,서울특별시,송파구,잠실본동,서울특별시 송파구 올림픽로 100,5557,127.0816764,37.51141201,0
커피빈,I56220,서울특별시,강남구,압구정동,서울특별시 강남구 언주로 819,6024,127.0327819,37.52334815,0
커피빈,I56220,서울특별시,강남구,압구정동,서울특별시 강남구 도산대로49길 13,6020,127.0369742,37.52372481,0
커피빈,I56220,서울특별시,종로구,종로1.2.3.4가동,서울특별시 종로구 종로 69,3164,126.9852945,37.57056992,0
커피빈,I56220,서울특별시,강남구,논현2동,서울특별시 강남구 학동로 211,6052,127.0320341,37.5146739,0
커피빈,I56220,서울특별시,영등포구,여의동,서울특별시 영등포구 국제금융로8길 6,7330,126.9296855,37.52180107,0
커피빈,I56220,서울특별시,서초구,방배4동,서울특별시 서초구 방배로 178,6586,126.992826,37.4895311,0
커피빈,I56220,서울특별시,서초구,반포1동,서울특별시 서초구 강남대로 503,6536,127.0228039,37.50684884,0
커피빈,I56220,서울특별시,강남구,역삼1동,서울특별시 강남구 강남대로 442,6123,127.0260445,37.50205497,0
커피빈,I56220,서울특별시,용산구,한강로동,서울특별시 용산구 한강대로21나길 7,4377,126.9632226,37.52790298,0
커피빈,I56220,서울특별시,강남구,청담동,서울특별시 강남구 선릉로158길 10,6014,127.0408215,37.52542307,0
커피빈,I56220,서울특별시,강남구,대치4동,서울특별시 강남구 선릉로86길 11,6192,127.0505138,37.50336248,0
커피빈,I56220,서울특별시,종로구,종로1.2.3.4가동,서울특별시 종로구 청계천로 83,3190,126.9867153,37.56847369,0
커피빈,I56220,서울특별시,마포구,서교동,서울특별시 마포구 홍익로6길 26,4050,126.923251,37.55545955,0
커피빈,I56220,서울특별시,강남구,역삼1동,서울특별시 강남구 강남대로 358,6241,127.0297769,37.49504844,0
커피빈,I56220,서울특별시,광진구,자양3동,서울특별시 광진구 아차산로 262,5065,127.0729442,37.53699681,0
커피빈,I56220,서울특별시,강남구,역삼1동,서울특별시 강남구 강남대로 406,6134,127.0276118,37.49893221,0
커피빈,I56220,서울특별시,중구,명동,서울특별시 중구 명동10길 15,4537,126.9853949,37.56316422,0
커피빈,I56220,서울특별시,강남구,삼성1동,서울특별시 강남구 봉은사로103길 6,6083,127.0617574,37.51500386,0
커피빈,I56220,서울특별시,강남구,수서동,서울특별시 강남구 광평로 280,6367,127.1030943,37.48731104,0
커피빈,I56220,서울특별시,영등포구,여의동,서울특별시 영등포구 국제금융로 52,7330,126.9294913,37.52271837,0
커피빈,I56220,서울특별시,노원구,중계1동,서울특별시 노원구 한글비석로 263,1714,127.076456,37.65120464,0
커피빈,I56220,서울특별시,강남구,도곡2동,서울특별시 강남구 논현로38길 42,6296,127.0450402,37.48556754,0
커피빈,I56220,서울특별시,강남구,대치4동,서울특별시 강남구 삼성로85길 11,6195,127.0561648,37.50458815,0
커피빈,I56220,서울특별시,중구,회현동,서울특별시 중구 한강대로 416,4637,126.9737396,37.55549473,0
커피빈,I56220,서울특별시,강남구,논현2동,서울특별시 강남구 언주로 609,6108,127.036665,37.50993618,0
커피빈,I56220,서울특별시,양천구,목1동,서울특별시 양천구 목동서로 170,7992,126.8732777,37.53023273,0
커피빈,I56220,서울특별시,종로구,이화동,서울특별시 종로구 대학로10길 5,3086,127.0025658,37.58185399,0
커피빈,I56220,서울특별시,종로구,삼청동,서울특별시 종로구 율곡로 47,3060,126.984571,37.57633037,0
커피빈,I56220,서울특별시,종로구,종로1.2.3.4가동,서울특별시 종로구 인사동10길 5,3146,126.9852916,37.57412,0
커피빈,I56220,서울특별시,마포구,대흥동,서울특별시 마포구 백범로 35,4107,126.9430454,37.55149363,0
커피빈,I56220,서울특별시,동대문구,장안2동,서울특별시 동대문구 답십리로 288,2637,127.0723644,37.57191695,0
커피빈,I56220,서울특별시,서대문구,신촌동,서울특별시 서대문구 이화여대길 68,3765,126.9446329,37.55930183,0
커피빈,I56220,서울특별시,용산구,이촌1동,서울특별시 용산구 이촌로 303,4424,126.9811415,37.51890428,0
커피빈,I56220,서울특별시,강남구,대치1동,서울특별시 강남구 남부순환로 2911,6280,127.057935,37.49241999,0
커피빈,I56220,서울특별시,송파구,잠실본동,서울특별시 송파구 석촌호수로 118,5566,127.0900046,37.50743072,0
커피빈,I56220,서울특별시,서초구,서초4동,서울특별시 서초구 서초중앙로24길 27,6601,127.0163934,37.49544236,0
커피빈,I56220,서울특별시,중구,명동,서울특별시 중구 명동8길 9,4536,126.9847023,37.56332046,0
커피빈,I56220,서울특별시,강남구,역삼1동,서울특별시 강남구 논현로 566,6135,127.0349403,37.50684049,0
커피빈,I56220,서울특별시,강동구,천호2동,서울특별시 강동구 천호대로 1015-14,5328,127.1251976,37.5389633,0
커피빈,I56220,서울특별시,종로구,종로1.2.3.4가동,서울특별시 종로구 종로 14,3187,126.9788411,37.56980246,0
커피빈,I56220,서울특별시,강동구,성내1동,서울특별시 강동구 강동대로 195,5402,127.1282528,37.52437976,0
커피빈,I56220,서울특별시,서초구,서초4동,서울특별시 서초구 강남대로65길 7,6614,127.0253102,37.5002468,0
커피빈,I56220,서울특별시,서초구,서초2동,서울특별시 서초구 서초대로74길 11,6620,127.0268953,37.49662862,0
커피빈,I56220,서울특별시,서초구,서초4동,서울특별시 서초구 강남대로 449-3,6611,127.0248644,37.50235159,0
커피빈,I56220,서울특별시,서초구,서초2동,서울특별시 서초구 강남대로 267,6730,127.0323214,37.48715803,0
커피빈,I56220,서울특별시,영등포구,여의동,서울특별시 영등포구 의사당대로 110,7322,126.924414,37.52020338,0
커피빈,I56220,서울특별시,강서구,화곡6동,서울특별시 강서구 화곡로 341,7649,126.8509256,37.55428223,0
커피빈,I56220,서울특별시,마포구,상암동,서울특별시 마포구 매봉산로 75,3926,126.8928847,37.57844343,0
커피빈,I56220,서울특별시,강남구,신사동,서울특별시 강남구 논현로175길 6,6030,127.0279007,37.52636264,0
커피빈,I56220,서울특별시,강남구,대치4동,서울특별시 강남구 삼성로85길 39,6196,127.0542693,37.50422158,0
커피빈,I56220,서울특별시,마포구,상암동,서울특별시 마포구 성암로 301,3923,126.8882286,37.58245432,0
커피빈,I56220,서울특별시,송파구,문정2동,서울특별시 송파구 송파대로 111,5837,127.1248723,37.47961708,0
커피빈,I56220,서울특별시,서초구,잠원동,서울특별시 서초구 신반포로47길 5,6531,127.0194363,37.51094776,0
커피빈,I56220,서울특별시,강서구,화곡6동,서울특별시 강서구 화곡로 347,7649,126.8512794,37.55482629,0
커피빈,I56220,서울특별시,서대문구,신촌동,서울특별시 서대문구 성산로 515,3721,126.9433127,37.56302033,0
커피빈,I56220,서울특별시,마포구,서교동,서울특별시 마포구 양화로18안길 7,4051,126.9250763,37.55681873,0
커피빈,I56220,서울특별시,서초구,서초2동,서울특별시 서초구 강남대로 365,6621,127.0283372,37.49531593,0
커피빈,I56220,서울특별시,마포구,합정동,서울특별시 마포구 독막로 13,4046,126.9150515,37.54880691,0
커피빈,I56220,서울특별시,종로구,종로1.2.3.4가동,서울특별시 종로구 종로 70,3189,126.9851564,37.56990197,0
커피빈,I56220,서울특별시,서초구,서초4동,서울특별시 서초구 서초대로 397,6616,127.0244987,37.49742881,0
커피빈,I56220,서울특별시,송파구,문정2동,서울특별시 송파구 법원로 114,5854,127.1209979,37.48604895,0
커피빈,I56220,서울특별시,성북구,삼선동,서울특별시 성북구 삼선교로 12,2865,127.0071205,37.58756895,0
커피빈,I56220,서울특별시,서초구,반포1동,서울특별시 서초구 강남대로 475,6541,127.0238386,37.50469487,0
커피빈,I56220,서울특별시,종로구,이화동,서울특별시 종로구 대학로 128,3086,127.0021356,37.58269733,0
커피빈,I56220,서울특별시,강남구,역삼1동,서울특별시 강남구 테헤란로 111,6134,127.0292638,37.49887371,0
커피빈,I56220,서울특별시,영등포구,여의동,서울특별시 영등포구 국제금융로8길 31,7332,126.9280062,37.51977651,0
커피빈,I56220,서울특별시,마포구,서교동,서울특별시 마포구 양화로 196,4056,126.9265027,37.55837249,0
커피빈,I56220,서울특별시,강북구,수유3동,서울특별시 강북구 한천로139길 25,1074,127.0257085,37.63910102,0
커피빈,I56220,서울특별시,송파구,문정2동,서울특별시 송파구 충민로 66,5838,127.124941,37.47760822,0
커피빈,I56220,서울특별시,송파구,방이2동,서울특별시 송파구 위례성대로 2,5544,127.1127514,37.51692071,0
커피빈,I56220,서울특별시,은평구,응암1동,서울특별시 은평구 은평로 121,3461,126.9210743,37.60043739,0
커피빈,I56220,서울특별시,강서구,가양1동,서울특별시 강서구 마곡동로 55,7802,126.8331469,37.56000961,0
커피빈,I56220,서울특별시,송파구,방이1동,서울특별시 송파구 양재대로71길 1-20,5639,127.1257809,37.50934084,0
커피빈,I56220,서울특별시,동대문구,제기동,서울특별시 동대문구 왕산로 175-1,2572,127.0426404,37.57959982,0
커피빈,I56220,서울특별시,용산구,한강로동,서울특별시 용산구 한강대로 95,4378,126.9664013,37.5287598,0
커피빈,I56220,서울특별시,송파구,잠실본동,서울특별시 송파구 도곡로64길 8,5573,127.0788577,37.50514574,0
커피빈,I56220,서울특별시,종로구,종로1.2.3.4가동,서울특별시 종로구 종로3길 34,3156,126.9794696,37.57186226,0
커피빈,I56220,서울특별시,서대문구,신촌동,서울특별시 서대문구 연세로 50,3722,126.9429168,37.56380069,0
커피빈,I56220,서울특별시,마포구,서강동,서울특별시 마포구 와우산로10길 3,4068,126.9231754,37.54813341,0
커피빈,I56220,서울특별시,송파구,문정2동,서울특별시 송파구 중대로 24,5834,127.1188873,37.49052953,0
커피빈,I56220,서울특별시,강남구,대치4동,서울특별시 강남구 역삼로77길 7,6196,127.0562645,37.50295804,0
커피빈,I56220,서울특별시,광진구,자양3동,서울특별시 광진구 능동로 90,5065,127.070902,37.53835036,0
커피빈,I56220,서울특별시,서초구,서초3동,서울특별시 서초구 서초중앙로 43,6654,127.0155622,37.48553283,0
커피빈,I56220,서울특별시,강남구,대치2동,서울특별시 강남구 영동대로 225,6283,127.0676206,37.49925476,0
커피빈,I56220,서울특별시,영등포구,문래동,서울특별시 영등포구 선유로 63,7281,126.8890368,37.51964163,0
커피빈,I56220,서울특별시,강남구,삼성2동,서울특별시 강남구 삼성로 551,6155,127.054131,37.51069906,0
커피빈,I56220,서울특별시,강남구,대치2동,서울특별시 강남구 영동대로85길 9,6182,127.0628745,37.50708344,0
커피빈,I56220,서울특별시,중구,소공동,서울특별시 중구 통일로 78,4517,126.9697602,37.56256929,0
커피빈,I56220,서울특별시,서초구,서초3동,서울특별시 서초구 반포대로 4,6719,127.0131653,37.4812148,0
커피빈,I56220,서울특별시,동대문구,장안1동,서울특별시 동대문구 장한로 115,2624,127.0705201,37.57092931,0
커피빈,I56220,서울특별시,은평구,응암1동,서울특별시 은평구 응암로 302-1,3464,126.9210482,37.59831973,0
커피빈,I56220,서울특별시,중구,회현동,서울특별시 중구 한강대로 416,4637,126.9737396,37.55549473,0
커피빈,I56220,서울특별시,송파구,잠실6동,서울특별시 송파구 올림픽로35가길 16,5510,127.1029857,37.51624324,0
커피빈,I56220,서울특별시,영등포구,여의동,서울특별시 영등포구 국제금융로 52,7330,126.9294913,37.52271837,0
커피빈,I56220,서울특별시,강남구,청담동,서울특별시 강남구 학동로 423,6068,127.0466127,37.51841471,0
커피빈,I56220,서울특별시,서초구,서초4동,서울특별시 서초구 강남대로65길 7,6614,127.0253102,37.5002468,0
커피빈,I56220,서울특별시,강남구,역삼1동,서울특별시 강남구 테헤란로4길 28,6241,127.0300745,37.4965196,0
커피빈,I56220,서울특별시,강남구,역삼1동,서울특별시 강남구 테헤란로1길 29,6129,127.02728,37.50010085,0
커피빈,I56220,서울특별시,강남구,역삼1동,서울특별시 강남구 테헤란로1길 29,6129,127.02728,37.50010085,0
커피빈,I56220,서울특별시,강동구,명일2동,서울특별시 강동구 동남로 885,5269,127.1559574,37.55264895,0
커피빈,I56220,서울특별시,광진구,구의3동,서울특별시 광진구 광나루로56길 85,5116,127.0956807,37.53571341,0
커피빈,I56220,서울특별시,광진구,자양3동,서울특별시 광진구 아차산로 262,5065,127.0730005,37.53702429,0
커피빈,I56220,서울특별시,성북구,안암동,서울특별시 성북구 개운사길 8,2842,127.0295587,37.58698067,0
커피빈,I56220,서울특별시,성북구,안암동,서울특별시 성북구 인촌로24길 25,2856,127.0295271,37.58505218,0
커피빈,I56220,서울특별시,구로구,구로3동,서울특별시 구로구 디지털로 273,8381,126.8940884,37.4839446,0
커피빈,I56220,서울특별시,광진구,구의3동,서울특별시 광진구 구의강변로 106,5117,127.0949401,37.53987961,0
커피빈,I56220,서울특별시,강남구,역삼1동,서울특별시 강남구 테헤란로8길 42,6240,127.032149,37.49614015,0
커피빈,I56220,서울특별시,관악구,행운동,서울특별시 관악구 남부순환로 1909,8742,126.9615932,37.47810567,0
커피빈,I56220,서울특별시,노원구,상계6.7동,서울특별시 노원구 노해로 490,1751,127.0623975,37.65440054,0
커피빈,I56220,서울특별시,강남구,논현1동,서울특별시 강남구 강남대로112길 20,6120,127.0260336,37.50550591,0
커피빈,I56220,서울특별시,강남구,논현2동,서울특별시 강남구 언주로 609,6108,127.036665,37.50993618,0
커피빈,I56220,서울특별시,서초구,서초4동,서울특별시 서초구 강남대로 449-3,6611,127.0248644,37.50235159,0
커피빈,I56220,서울특별시,강남구,대치2동,서울특별시 강남구 삼성로 352,6186,127.0589896,37.50300681,0
커피빈,I56220,서울특별시,강남구,대치4동,서울특별시 강남구 삼성로85길 11,6195,127.0561648,37.50458815,0
커피빈,I56220,서울특별시,강남구,도곡1동,서울특별시 강남구 도곡로 206,6272,127.0416529,37.492262,0
커피빈,I56220,서울특별시,중구,광희동,서울특별시 중구 장충단로 275,4563,127.0087611,37.56887711,0
커피빈,I56220,서울특별시,서초구,양재2동,서울특별시 서초구 동산로 1,6779,127.0401185,37.46900223,0
커피빈,I56220,서울특별시,중구,명동,서울특별시 중구 명동길 73,4538,126.9862157,37.5644057,0
커피빈,I56220,서울특별시,서초구,방배1동,서울특별시 서초구 효령로 117,6686,126.9969256,37.48145648,0
커피빈,I56220,서울특별시,서초구,방배본동,서울특별시 서초구 방배중앙로 187,6554,126.9855167,37.49570384,0
커피빈,I56220,서울특별시,동작구,신대방2동,서울특별시 동작구 보라매로5길 35,7071,126.9235167,37.49210058,0
커피빈,I56220,서울특별시,강남구,삼성1동,서울특별시 강남구 삼성로 518,6168,127.056219,37.50836401,0
커피빈,I56220,서울특별시,종로구,삼청동,서울특별시 종로구 삼청로 109,3049,126.981768,37.58513641,0
커피빈,I56220,서울특별시,중랑구,상봉1동,서울특별시 중랑구 망우로 291,2098,127.0847771,37.5964412,0
커피빈,I56220,서울특별시,마포구,상암동,서울특별시 마포구 상암산로 82,3926,126.8927528,37.57970364,0
커피빈,I56220,서울특별시,관악구,청룡동,서울특별시 관악구 관악로 161,8787,126.9521656,37.47959928,0
커피빈,I56220,서울특별시,서초구,서초3동,서울특별시 서초구 서초대로 250,6647,127.0092578,37.49199476,0
커피빈,I56220,서울특별시,서초구,서초2동,서울특별시 서초구 사임당로 171,6626,127.0283369,37.49272089,0
커피빈,I56220,서울특별시,서초구,서초2동,서울특별시 서초구 사임당로 171,6626,127.0283369,37.49272089,0
커피빈,I56220,서울특별시,강남구,대치4동,서울특별시 강남구 선릉로86길 11,6192,127.0505138,37.50336248,0
커피빈,I56220,서울특별시,강남구,역삼1동,서울특별시 강남구 선릉로93길 6,6149,127.0478832,37.50567504,0
커피빈,I56220,서울특별시,종로구,사직동,서울특별시 종로구 새문안로9길 25,3183,126.9754693,37.57134105,0
커피빈,I56220,서울특별시,강북구,번1동,서울특별시 강북구 도봉로 352,1063,127.0270285,37.63867041,0
커피빈,I56220,서울특별시,관악구,서원동,서울특별시 관악구 신림로 318,8777,126.9303693,37.48260269,0
커피빈,I56220,서울특별시,강남구,논현1동,서울특별시 강남구 도산대로 126,6039,127.0223894,37.51695522,0
커피빈,I56220,서울특별시,강남구,압구정동,서울특별시 강남구 선릉로157길 12,6018,127.0389913,37.52611101,0
커피빈,I56220,서울특별시,강남구,압구정동,서울특별시 강남구 선릉로157길 12,6018,127.0389913,37.52611101,0
커피빈,I56220,서울특별시,강남구,압구정동,서울특별시 강남구 압구정로46길 3,6018,127.0368931,37.52827446,0
커피빈,I56220,서울특별시,강서구,가양1동,서울특별시 강서구 강서로 455,7792,126.8403304,37.56609027,0
커피빈,I56220,서울특별시,영등포구,여의동,서울특별시 영등포구 의사당대로 97,7327,126.9245733,37.5225025,0
커피빈,I56220,서울특별시,영등포구,여의동,서울특별시 영등포구 여의서로 43,7239,126.9247365,37.53083863,0
커피빈,I56220,서울특별시,강남구,역삼2동,서울특별시 강남구 테헤란로34길 6,6220,127.0398667,37.50105081,0
커피빈,I56220,서울특별시,강남구,역삼1동,서울특별시 강남구 테헤란로 143,6132,127.0348844,37.50064078,0
커피빈,I56220,서울특별시,강남구,역삼1동,서울특별시 강남구 논현로 512,6140,127.0365025,37.50233896,0
커피빈,I56220,서울특별시,양천구,목1동,서울특별시 양천구 오목로 350,8007,126.8762541,37.52414303,0
커피빈,I56220,서울특별시,송파구,오륜동,서울특별시 송파구 올림픽로 424,5540,127.1157765,37.52034939,0
커피빈,I56220,서울특별시,강동구,성내1동,서울특별시 강동구 강동대로 195,5402,127.1282528,37.52437976,0
커피빈,I56220,서울특별시,동대문구,이문1동,서울특별시 동대문구 이문로 106,2440,127.0601971,37.59605881,0
커피빈,I56220,서울특별시,송파구,위례동,서울특별시 송파구 위례광장로 230,5849,127.1437439,37.47854792,0
커피빈,I56220,서울특별시,용산구,이태원1동,서울특별시 용산구 이태원로 189,4350,126.9948985,37.53484457,0
커피빈,I56220,서울특별시,강동구,천호2동,서울특별시 강동구 올림픽로 659,5248,127.1234391,37.54031987,0
커피빈,I56220,서울특별시,강동구,천호2동,서울특별시 강동구 천호대로 1015-14,5328,127.1251976,37.5389633,0
커피빈,I56220,서울특별시,강남구,역삼2동,서울특별시 강남구 테헤란로 312,6211,127.0450339,37.50293085,0
커피빈,I56220,서울특별시,강남구,대치4동,서울특별시 강남구 테헤란로70길 12,6193,127.0531431,37.50473517,0
커피빈,I56220,서울특별시,강남구,삼성1동,서울특별시 강남구 영동대로 511,6164,127.0610126,37.51034849,0
커피빈,I56220,서울특별시,강남구,대치2동,서울특별시 강남구 삼성로86길 11,6178,127.0582863,37.50587557,0
커피빈,I56220,서울특별시,강남구,대치1동,서울특별시 강남구 도곡로 408,6278,127.0552134,37.4966152,0
커피빈,I56220,서울특별시,마포구,합정동,서울특별시 마포구 월드컵로3길 14,4024,126.9116358,37.55100104,0
커피빈,I56220,서울특별시,강남구,역삼1동,서울특별시 강남구 강남대로 350,6242,127.0299591,37.4940768,0
커피빈,I56220,서울특별시,마포구,서교동,서울특별시 마포구 홍익로 7,4040,126.9234867,37.55323614,0
커피빈,I56220,서울특별시,마포구,서교동,서울특별시 마포구 어울마당로 94,4040,126.9220821,37.55332244,0
투썸플레이스,I56220,서울특별시,종로구,혜화동,서울특별시 종로구 대명길 28,3077,126.9998271,37.58345269,0
투썸플레이스,I56220,서울특별시,강서구,공항동,서울특별시 강서구 공항대로 30,7623,126.8102735,37.56064631,0
투썸플레이스,I56220,서울특별시,금천구,가산동,서울특별시 금천구 가산디지털1로 19,8594,126.8864952,37.46760035,0
투썸플레이스,I56220,서울특별시,서초구,서초3동,서울특별시 서초구 효령로 275,6654,127.0141902,37.48496274,0
투썸플레이스,I56220,서울특별시,강남구,압구정동,서울특별시 강남구 도산대로 323,6021,127.0369963,37.52288701,0
투썸플레이스,I56220,서울특별시,강남구,압구정동,서울특별시 강남구 도산대로49길 3,6021,127.0369492,37.5230308,0
투썸플레이스,I56220,서울특별시,송파구,문정1동,서울특별시 송파구 동남로 132,5796,127.1257127,37.49094066,0
투썸플레이스,I56220,서울특별시,영등포구,여의동,서울특별시 영등포구 국제금융로 10,7326,126.9248631,37.52517222,0
투썸플레이스,I56220,서울특별시,성북구,안암동,서울특별시 성북구 안암로 145,2841,127.0317018,37.58848499,0
투썸플레이스,I56220,서울특별시,성북구,안암동,서울특별시 성북구 인촌로 105,2842,127.0309577,37.58648758,0
투썸플레이스,I56220,서울특별시,종로구,사직동,서울특별시 종로구 새문안로 96,3186,126.9754206,37.56993501,0
투썸플레이스,I56220,서울특별시,종로구,혜화동,서울특별시 종로구 대명길 28,3077,126.9998271,37.58345269,0
투썸플레이스,I56220,서울특별시,영등포구,여의동,서울특별시 영등포구 국제금융로 10,7326,126.9248631,37.52517222,0
투썸플레이스,I56220,서울특별시,중구,명동,서울특별시 중구 청계천로 30,4521,126.9807834,37.56849471,0
투썸플레이스,I56220,서울특별시,광진구,구의3동,서울특별시 광진구 광나루로 604,5034,127.094897,37.54157326,0
투썸플레이스,I56220,서울특별시,강남구,역삼1동,서울특별시 강남구 강남대로 362,6241,127.0294005,37.49529764,0
투썸플레이스,I56220,서울특별시,강남구,삼성1동,서울특별시 강남구 영동대로 513,6164,127.0581883,37.51097477,0
투썸플레이스,I56220,서울특별시,구로구,구로3동,서울특별시 구로구 디지털로 288,8390,126.8954848,37.4835612,0
투썸플레이스,I56220,서울특별시,중구,다산동,서울특별시 중구 다산로 111,4598,127.009796,37.55397351,0
투썸플레이스,I56220,서울특별시,성북구,동선동,서울특별시 성북구 아리랑로 8,2829,127.016564,37.59357685,0
투썸플레이스,I56220,서울특별시,강서구,등촌1동,서울특별시 강서구 양천로 504,7548,126.8559706,37.56037716,0
투썸플레이스,I56220,서울특별시,광진구,화양동,서울특별시 광진구 능동로13길 5,5017,127.0712931,37.54239916,0
투썸플레이스,I56220,서울특별시,서초구,서초4동,서울특별시 서초구 서초대로 353,6607,127.0199046,37.49589503,0
투썸플레이스,I56220,서울특별시,성북구,안암동,서울특별시 성북구 안암로 145,2841,127.0317018,37.58848499,0
투썸플레이스,I56220,서울특별시,중구,명동,서울특별시 중구 무교로 6,4523,126.9794525,37.56647389,0
투썸플레이스,I56220,서울특별시,강동구,길동,서울특별시 강동구 성안로 150,5355,127.1353463,37.53613665,0
투썸플레이스,I56220,서울특별시,용산구,한강로동,서울특별시 용산구 한강대로21나길 7,4377,126.9632226,37.52790298,0
투썸플레이스,I56220,서울특별시,서초구,방배2동,서울특별시 서초구 과천대로 870-13,6761,126.987969,37.46900861,0
투썸플레이스,I56220,서울특별시,동작구,사당1동,서울특별시 동작구 동작대로 89,7013,126.9816527,37.48460567,0
투썸플레이스,I56220,서울특별시,용산구,청파동,서울특별시 용산구 청파로 312,4301,126.9704328,37.54741061,0
투썸플레이스,I56220,서울특별시,강북구,미아동,서울특별시 강북구 도봉로 241,1118,127.0243434,37.62998929,0
투썸플레이스,I56220,서울특별시,송파구,잠실6동,서울특별시 송파구 오금로 58,5510,127.1053896,37.516712,0
투썸플레이스,I56220,서울특별시,강남구,역삼2동,서울특별시 강남구 선릉로89길 16,6212,127.0477987,37.50342172,0
투썸플레이스,I56220,서울특별시,중구,소공동,서울특별시 중구 세종대로7길 37,4511,126.9724678,37.56074575,0
투썸플레이스,I56220,서울특별시,서초구,방배1동,서울특별시 서초구 방배로 97,6686,126.996274,37.48283857,0
투썸플레이스,I56220,서울특별시,강남구,일원2동,서울특별시 강남구 개포로110길 43,6337,127.0796692,37.49155509,0
투썸플레이스,I56220,서울특별시,마포구,성산2동,서울특별시 마포구 월드컵로 240,3932,126.8972574,37.56827565,0
투썸플레이스,I56220,서울특별시,용산구,용산2가동,서울특별시 용산구 남산공원길 105,4340,126.9878557,37.55111136,0
투썸플레이스,I56220,서울특별시,강서구,등촌3동,서울특별시 강서구 강서로 460,7582,126.8410853,37.56631394,0
투썸플레이스,I56220,서울특별시,강남구,대치4동,서울특별시 강남구 테헤란로70길 16,6193,127.0532831,37.50439389,0
투썸플레이스,I56220,서울특별시,강서구,화곡1동,서울특별시 강서구 강서로 43,7774,126.8465342,37.53152432,0
투썸플레이스,I56220,서울특별시,서초구,반포4동,서울특별시 서초구 반포대로 235,6578,127.0032397,37.50065733,0
투썸플레이스,I56220,서울특별시,동대문구,답십리1동,서울특별시 동대문구 고미술로 81,2622,127.0557012,37.56559465,0
투썸플레이스,I56220,서울특별시,강남구,대치2동,서울특별시 강남구 삼성로 334,6186,127.0598565,37.50151796,0
투썸플레이스,I56220,서울특별시,동대문구,전농1동,서울특별시 동대문구 왕산로 192-2,2559,127.0445875,37.5796156,0
투썸플레이스,I56220,서울특별시,중구,장충동,서울특별시 중구 장충단로 205,4615,127.0066192,37.56309243,0
투썸플레이스,I56220,서울특별시,마포구,서교동,서울특별시 마포구 월드컵북로2길 57,3995,126.9233463,37.55748776,0
투썸플레이스,I56220,서울특별시,서대문구,신촌동,서울특별시 서대문구 신촌역로 31,3777,126.9418993,37.55891695,0
투썸플레이스,I56220,서울특별시,중구,회현동,서울특별시 중구 한강대로 416,4637,126.9737396,37.55549473,0
투썸플레이스,I56220,서울특별시,노원구,공릉1동,서울특별시 노원구 동일로192길 52,1842,127.0758538,37.62662864,0
투썸플레이스,I56220,서울특별시,성동구,성수1가2동,서울특별시 성동구 아차산로 15-8,4789,127.0461802,37.54793867,0
투썸플레이스,I56220,서울특별시,영등포구,여의동,서울특별시 영등포구 국제금융로2길 7,7327,126.9268166,37.52464035,0
투썸플레이스,I56220,서울특별시,강남구,압구정동,서울특별시 강남구 도산대로37길 19,6024,127.0311892,37.52228087,0
투썸플레이스,I56220,서울특별시,영등포구,대림1동,서울특별시 영등포구 시흥대로 675,7442,126.9084554,37.49200743,0
투썸플레이스,I56220,서울특별시,관악구,인헌동,서울특별시 관악구 남부순환로 1926,8793,126.9631261,37.4768126,0
투썸플레이스,I56220,서울특별시,영등포구,당산1동,서울특별시 영등포구 당산로 118,7259,126.8971017,37.52507842,0
투썸플레이스,I56220,서울특별시,강남구,논현2동,서울특별시 강남구 논현로 662,6105,127.0314875,37.51320971,0
투썸플레이스,I56220,서울특별시,종로구,혜화동,서울특별시 종로구 대명길 28,3077,126.9998271,37.58345269,0
투썸플레이스,I56220,서울특별시,광진구,구의3동,서울특별시 광진구 광나루로56길 85,5116,127.0956807,37.53571341,0
투썸플레이스,I56220,서울특별시,동대문구,장안1동,서울특별시 동대문구 장한로 73,2628,127.0683545,37.56756936,0
투썸플레이스,I56220,서울특별시,종로구,사직동,서울특별시 종로구 새문안로 76,3185,126.9731586,37.56978921,0
투썸플레이스,I56220,서울특별시,성북구,안암동,서울특별시 성북구 인촌로 105,2842,127.0309577,37.58648758,0
투썸플레이스,I56220,서울특별시,강남구,역삼1동,서울특별시 강남구 강남대로 412,6134,127.027254,37.49948792,0
투썸플레이스,I56220,서울특별시,영등포구,여의동,서울특별시 영등포구 의사당대로 110,7322,126.924414,37.52020338,0
투썸플레이스,I56220,서울특별시,강남구,논현1동,서울특별시 강남구 강남대로 578,6043,127.0208299,37.51336513,0
투썸플레이스,I56220,서울특별시,강남구,압구정동,서울특별시 강남구 압구정로30길 45,6022,127.0293864,37.52433848,0
투썸플레이스,I56220,서울특별시,강남구,세곡동,서울특별시 강남구 자곡로 201,6372,127.1046737,37.47530284,0
투썸플레이스,I56220,서울특별시,중구,명동,서울특별시 중구 청계천로 54,4540,126.9833431,37.56839064,0
투썸플레이스,I56220,서울특별시,양천구,목1동,서울특별시 양천구 목동동로 309,7997,126.875987,37.52913225,0
투썸플레이스,I56220,서울특별시,강남구,논현1동,서울특별시 강남구 강남대로 476,6120,127.0247747,37.50490083,0
투썸플레이스,I56220,서울특별시,서초구,서초4동,서울특별시 서초구 강남대로 419,6614,127.0261983,37.49979459,0
투썸플레이스,I56220,서울특별시,중구,회현동,서울특별시 중구 퇴계로 77,4530,126.9807585,37.56034908,0
투썸플레이스,I56220,서울특별시,중랑구,신내2동,서울특별시 중랑구 신내로 201,2024,127.0937148,37.6158015,0
투썸플레이스,I56220,서울특별시,서초구,양재2동,서울특별시 서초구 강남대로16길 3,6779,127.0391999,37.47099511,0
투썸플레이스,I56220,서울특별시,서초구,서초3동,서울특별시 서초구 효령로 275,6654,127.0141902,37.48496274,0
투썸플레이스,I56220,서울특별시,구로구,구로2동,서울특별시 구로구 가마산로 250,8306,126.8886583,37.49481432,0
투썸플레이스,I56220,서울특별시,강북구,번3동,서울특별시 강북구 월계로 183,1231,127.0448905,37.62057037,0
투썸플레이스,I56220,서울특별시,도봉구,방학1동,서울특별시 도봉구 도봉로 696,1333,127.0433749,37.66633966,0
투썸플레이스,I56220,서울특별시,광진구,자양3동,서울특별시 광진구 능동로 90,5065,127.070902,37.53835036,0
투썸플레이스,I56220,서울특별시,동대문구,답십리1동,서울특별시 동대문구 답십리로 150,2599,127.056608,37.57267511,0
투썸플레이스,I56220,서울특별시,은평구,진관동,서울특별시 은평구 진관3로 20,3306,126.9182978,37.63887691,0
투썸플레이스,I56220,서울특별시,마포구,상암동,서울특별시 마포구 월드컵북로56길 19,3923,126.8883436,37.58232926,0
투썸플레이스,I56220,서울특별시,강남구,압구정동,서울특별시 강남구 언주로172길 25,6017,127.0360202,37.52752848,0
투썸플레이스,I56220,서울특별시,강서구,방화1동,서울특별시 강서구 방화대로 294,7599,126.8170323,37.5669854,0
투썸플레이스,I56220,서울특별시,중구,회현동,서울특별시 중구 소공로 63,4530,126.9809659,37.56090951,0
투썸플레이스,I56220,서울특별시,중랑구,상봉2동,서울특별시 중랑구 망우로 202,2120,127.07546,37.59347623,0
투썸플레이스,I56220,서울특별시,구로구,구로3동,서울특별시 구로구 디지털로33길 48,8377,126.8944921,37.48724621,0
투썸플레이스,I56220,서울특별시,광진구,능동,서울특별시 광진구 천호대로 642,4987,127.0881456,37.55330708,0
투썸플레이스,I56220,서울특별시,성북구,삼선동,서울특별시 성북구 동소문로 6,2860,127.0070164,37.58858625,0
투썸플레이스,I56220,서울특별시,영등포구,신길7동,서울특별시 영등포구 영등포로 422,7354,126.9247977,37.51238581,0
투썸플레이스,I56220,서울특별시,중구,명동,서울특별시 중구 퇴계로 97,4535,126.9826287,37.56098693,0
투썸플레이스,I56220,서울특별시,양천구,신정6동,서울특별시 양천구 목동서로 349,8095,126.8652921,37.51739755,0
투썸플레이스,I56220,서울특별시,서초구,서초3동,서울특별시 서초구 반포대로 34,6716,127.0119792,37.48370982,0
투썸플레이스,I56220,서울특별시,금천구,독산4동,서울특별시 금천구 시흥대로 422,8576,126.8985962,37.47110171,0
투썸플레이스,I56220,서울특별시,금천구,가산동,서울특별시 금천구 벚꽃로 254,8511,126.885474,37.47775455,0
투썸플레이스,I56220,서울특별시,노원구,상계6.7동,서울특별시 노원구 동일로 1374,1756,127.0616775,37.65127723,0
투썸플레이스,I56220,서울특별시,마포구,합정동,서울특별시 마포구 독막로 5,4046,126.9142904,37.54900715,0
투썸플레이스,I56220,서울특별시,서대문구,남가좌1동,서울특별시 서대문구 모래내로 151,3712,126.9180517,37.56985565,0
투썸플레이스,I56220,서울특별시,중구,명동,서울특별시 중구 세종대로 135-9,4519,126.9762963,37.5688163,0
투썸플레이스,I56220,서울특별시,강남구,신사동,서울특별시 강남구 도산대로 127,6035,127.0223129,37.51761236,0
투썸플레이스,I56220,서울특별시,양천구,신정2동,서울특별시 양천구 목동동로 180,8010,126.8718629,37.52125388,0
투썸플레이스,I56220,서울특별시,광진구,광장동,서울특별시 광진구 아차산로 503-23,4984,127.0962579,37.54225948,0
투썸플레이스,I56220,서울특별시,은평구,진관동,서울특별시 은평구 진관길 7,3308,126.9392559,37.6423019,0
투썸플레이스,I56220,서울특별시,영등포구,여의동,서울특별시 영등포구 국제금융로7길 27,7338,126.9330783,37.52425558,0
투썸플레이스,I56220,서울특별시,서초구,서초3동,서울특별시 서초구 서초중앙로 15,6718,127.0162349,37.48338491,0
투썸플레이스,I56220,서울특별시,서초구,서초3동,서울특별시 서초구 반포대로14길 71,6651,127.0145276,37.48682173,0
투썸플레이스,I56220,서울특별시,강서구,등촌3동,서울특별시 강서구 강서로56가길 47,7583,126.8400817,37.5616908,0
투썸플레이스,I56220,서울특별시,구로구,오류1동,서울특별시 구로구 고척로16가길 7-1,8267,126.8446859,37.49877152,0
투썸플레이스,I56220,서울특별시,은평구,응암1동,서울특별시 은평구 은평로 194,3471,126.9292288,37.60117843,0
투썸플레이스,I56220,서울특별시,중구,중림동,서울특별시 중구 만리재로 175,4500,126.9639578,37.55490471,0
투썸플레이스,I56220,서울특별시,용산구,이태원1동,서울특별시 용산구 이태원로 180,4406,126.9941714,37.53421666,0
투썸플레이스,I56220,서울특별시,강남구,수서동,서울특별시 강남구 광평로56길 8-13,6367,127.1031575,37.48675286,0
투썸플레이스,I56220,서울특별시,관악구,대학동,서울특별시 관악구 신림로 127,8813,126.9352291,37.47079776,0
투썸플레이스,I56220,서울특별시,송파구,방이2동,서울특별시 송파구 오금로 81,5542,127.1072074,37.51510385,0
투썸플레이스,I56220,서울특별시,광진구,자양4동,서울특별시 광진구 아차산로30길 36,5072,127.0667023,37.53939851,0
투썸플레이스,I56220,서울특별시,금천구,독산1동,서울특별시 금천구 시흥대로79길 53,8611,126.8949218,37.45806525,0
투썸플레이스,I56220,서울특별시,마포구,아현동,서울특별시 마포구 마포대로 156,4211,126.9542892,37.54784541,0
투썸플레이스,I56220,서울특별시,강서구,화곡6동,서울특별시 강서구 화곡로 347,7649,126.8512794,37.55482629,0
투썸플레이스,I56220,서울특별시,송파구,오금동,서울특별시 송파구 위례성대로 198,5654,127.1328169,37.5093026,0
투썸플레이스,I56220,서울특별시,송파구,가락본동,서울특별시 송파구 중대로 113,5718,127.1208258,37.49398603,0
투썸플레이스,I56220,서울특별시,강북구,수유3동,서울특별시 강북구 도봉로 399,1055,127.02979,37.6423964,0
투썸플레이스,I56220,서울특별시,영등포구,영등포동,서울특별시 영등포구 영등포로 193,7251,126.9030628,37.52051159,0
투썸플레이스,I56220,서울특별시,종로구,사직동,서울특별시 종로구 새문안로 58,3184,126.9715584,37.56926168,0
투썸플레이스,I56220,서울특별시,마포구,도화동,서울특별시 마포구 마포대로 44,4174,126.9470781,37.53996028,0
투썸플레이스,I56220,서울특별시,중구,광희동,서울특별시 중구 장충단로13길 20,4563,127.0076538,37.56872364,0
투썸플레이스,I56220,서울특별시,강서구,가양1동,서울특별시 강서구 마곡중앙6로 40,7802,126.8315706,37.56020126,0
투썸플레이스,I56220,서울특별시,금천구,독산1동,서울특별시 금천구 벚꽃로 40,8608,126.8929835,37.45996635,0
투썸플레이스,I56220,서울특별시,강남구,대치2동,서울특별시 강남구 테헤란로 620,6174,127.0655629,37.50918617,0
투썸플레이스,I56220,서울특별시,송파구,가락본동,서울특별시 송파구 중대로 135,5717,127.1224074,37.49508808,0
투썸플레이스,I56220,서울특별시,강남구,도곡1동,서울특별시 강남구 언주로 211,6273,127.0462939,37.49279514,0
투썸플레이스,I56220,서울특별시,서초구,방배본동,서울특별시 서초구 방배중앙로 204,6552,126.9856769,37.49723701,0
투썸플레이스,I56220,서울특별시,강남구,역삼1동,서울특별시 강남구 테헤란로 138,6236,127.0342866,37.49963572,0
투썸플레이스,I56220,서울특별시,종로구,이화동,서울특별시 종로구 대학로 89,3082,127.001797,37.57922546,0
투썸플레이스,I56220,서울특별시,강남구,역삼1동,서울특별시 강남구 테헤란로7길 8,6133,127.0311068,37.49978088,0
투썸플레이스,I56220,서울특별시,중구,필동,서울특별시 중구 퇴계로 190,4627,126.992867,37.56053408,0
투썸플레이스,I56220,서울특별시,서대문구,신촌동,서울특별시 서대문구 이화여대길 7,3766,126.9456242,37.55722928,0
투썸플레이스,I56220,서울특별시,강동구,성내1동,서울특별시 강동구 성내로 48,5399,127.1253431,37.52844004,0
투썸플레이스,I56220,서울특별시,송파구,가락본동,서울특별시 송파구 송파대로 260,5719,127.1188454,37.49313329,0
투썸플레이스,I56220,서울특별시,종로구,종로1.2.3.4가동,서울특별시 종로구 율곡로 6,3142,126.9797604,37.57544191,0
투썸플레이스,I56220,서울특별시,송파구,문정2동,서울특별시 송파구 법원로 114,5854,127.1209979,37.48604895,0
투썸플레이스,I56220,서울특별시,서초구,반포2동,서울특별시 서초구 반포대로 287,6547,127.0010418,37.50434209,0
투썸플레이스,I56220,서울특별시,중랑구,상봉2동,서울특별시 중랑구 상봉로 131,2150,127.0921602,37.59739926,0
투썸플레이스,I56220,서울특별시,광진구,광장동,서울특별시 광진구 아차산로 552,4971,127.1052358,37.54285046,0
투썸플레이스,I56220,서울특별시,금천구,가산동,서울특별시 금천구 가산디지털1로 19,8594,126.8864952,37.46760035,0
투썸플레이스,I56220,서울특별시,금천구,가산동,서울특별시 금천구 서부샛길 606,8504,126.8769955,37.4799449,0
투썸플레이스,I56220,서울특별시,금천구,가산동,서울특별시 금천구 가산디지털1로 186,8502,126.881568,37.4819075,0
투썸플레이스,I56220,서울특별시,서대문구,북가좌1동,서울특별시 서대문구 수색로 100,3709,126.9078045,37.57468094,0
투썸플레이스,I56220,서울특별시,강남구,역삼1동,서울특별시 강남구 강남대로 362,6241,127.0294005,37.49529764,0
투썸플레이스,I56220,서울특별시,강남구,일원본동,서울특별시 강남구 광평로34길 30,6362,127.0941213,37.48218762,0
투썸플레이스,I56220,서울특별시,강남구,신사동,서울특별시 강남구 강남대로152길 22,6035,127.0212523,37.51740534,0
투썸플레이스,I56220,서울특별시,강남구,역삼1동,서울특별시 강남구 테헤란로1길 16,6129,127.0279221,37.49942133,0
투썸플레이스,I56220,서울특별시,구로구,개봉2동,서울특별시 구로구 남부순환로97길 20-1,8328,126.8588931,37.49412508,0
투썸플레이스,I56220,서울특별시,강서구,방화2동,서울특별시 강서구 양천로 28,7601,126.8068967,37.57224451,0
투썸플레이스,I56220,서울특별시,강서구,염창동,서울특별시 강서구 공항대로 663,7557,126.8781044,37.54789397,0
투썸플레이스,I56220,서울특별시,마포구,도화동,서울특별시 마포구 마포대로 92,4168,126.9513151,37.54283627,0
투썸플레이스,I56220,서울특별시,광진구,광장동,서울특별시 광진구 아차산로 537-17,4983,127.0996444,37.54295213,0
투썸플레이스,I56220,서울특별시,종로구,사직동,서울특별시 종로구 새문안로 85,3182,126.9741012,37.57039209,0
투썸플레이스,I56220,서울특별시,종로구,사직동,서울특별시 종로구 새문안로 85,3182,126.9741012,37.57039209,0
투썸플레이스,I56220,서울특별시,구로구,구로3동,서울특별시 구로구 디지털로 288,8390,126.8954848,37.4835612,0
투썸플레이스,I56220,서울특별시,관악구,조원동,서울특별시 관악구 시흥대로 554,8768,126.9015513,37.48238332,0
투썸플레이스,I56220,서울특별시,용산구,서빙고동,서울특별시 용산구 서빙고로 137,4383,126.9777254,37.52469553,0
투썸플레이스,I56220,서울특별시,강동구,천호1동,서울특별시 강동구 양재대로 1539,5315,127.1417495,37.54314852,0
투썸플레이스,I56220,서울특별시,성동구,금호2.3가동,서울특별시 성동구 금호로 105,4728,127.0247464,37.55225981,0
투썸플레이스,I56220,서울특별시,성동구,금호2.3가동,서울특별시 성동구 금호로 107,4728,127.0242942,37.55222003,0
투썸플레이스,I56220,서울특별시,중구,회현동,서울특별시 중구 소월로2길 30,4637,126.9757773,37.55380945,0
투썸플레이스,I56220,서울특별시,강남구,논현1동,서울특별시 강남구 강남대로 548,6110,127.0218672,37.51102198,0
투썸플레이스,I56220,서울특별시,동대문구,답십리1동,서울특별시 동대문구 답십리로 150,2599,127.056608,37.57267511,0
투썸플레이스,I56220,서울특별시,종로구,혜화동,서울특별시 종로구 대명길 28,3077,126.9998271,37.58345269,0
투썸플레이스,I56220,서울특별시,중구,소공동,서울특별시 중구 세종대로9길 53,4513,126.9728257,37.56188418,0
투썸플레이스,I56220,서울특별시,광진구,구의3동,서울특별시 광진구 강변역로 50,5116,127.0941674,37.53453044,0
투썸플레이스,I56220,서울특별시,강서구,등촌2동,서울특별시 강서구 등촌로 177,7668,126.8622143,37.54575964,0
투썸플레이스,I56220,서울특별시,중구,명동,서울특별시 중구 퇴계로18길 13,4629,126.9856276,37.56019278,0
투썸플레이스,I56220,서울특별시,중랑구,묵1동,서울특별시 중랑구 동일로 932,2033,127.0775414,37.61382905,0
투썸플레이스,I56220,서울특별시,강서구,가양1동,서울특별시 강서구 마곡중앙6로 93,7803,126.8376838,37.56012645,0
투썸플레이스,I56220,서울특별시,서초구,서초2동,서울특별시 서초구 강남대로 263,6730,127.0323811,37.48691524,0
투썸플레이스,I56220,서울특별시,중랑구,면목7동,서울특별시 중랑구 면목로 301,2239,127.0868313,37.5793913,0
투썸플레이스,I56220,서울특별시,중랑구,면목7동,서울특별시 중랑구 면목로 301,2239,127.0868313,37.5793913,0
투썸플레이스,I56220,서울특별시,관악구,남현동,서울특별시 관악구 남부순환로 2082-33,8806,126.9803655,37.47615168,0
투썸플레이스,I56220,서울특별시,강남구,삼성1동,서울특별시 강남구 삼성로 512,6168,127.0565844,37.50809661,0
투썸플레이스,I56220,서울특별시,강남구,삼성2동,서울특별시 강남구 봉은사로 469,6096,127.0507703,37.51258234,0
투썸플레이스,I56220,서울특별시,노원구,상계5동,서울특별시 노원구 한글비석로 412,1668,127.0710483,37.66137991,0
투썸플레이스,I56220,서울특별시,동작구,상도2동,서울특별시 동작구 상도로 207,6921,126.9419637,37.50550364,0
투썸플레이스,I56220,서울특별시,마포구,상암동,서울특별시 마포구 상암산로 66,3926,126.8914724,37.57824997,0
투썸플레이스,I56220,서울특별시,마포구,성산2동,서울특별시 마포구 월드컵로 240,3932,126.8972574,37.56827565,0
투썸플레이스,I56220,서울특별시,성동구,왕십리도선동,서울특별시 성동구 왕십리로 410,4701,127.0240621,37.56654474,0
투썸플레이스,I56220,서울특별시,서대문구,충현동,서울특별시 서대문구 충정로 60,3740,126.9661435,37.56381715,0
투썸플레이스,I56220,서울특별시,관악구,중앙동,서울특별시 관악구 봉천로 472,8758,126.9521903,37.48187916,0
투썸플레이스,I56220,서울특별시,관악구,청룡동,서울특별시 관악구 관악로 157,8787,126.9520773,37.47944532,0
투썸플레이스,I56220,서울특별시,중구,회현동,서울특별시 중구 한강대로 416,4637,126.9737396,37.55549473,0
투썸플레이스,I56220,서울특별시,송파구,석촌동,서울특별시 송파구 석촌호수로 220,5610,127.1013321,37.5069768,0
투썸플레이스,I56220,서울특별시,강남구,역삼2동,서울특별시 강남구 테헤란로 318,6211,127.0460602,37.50316441,0
투썸플레이스,I56220,서울특별시,영등포구,양평2동,서울특별시 영등포구 양평로22길 10,7206,126.8946304,37.53845378,0
투썸플레이스,I56220,서울특별시,강남구,삼성2동,서울특별시 강남구 봉은사로 410,6153,127.0452676,37.51033941,0
투썸플레이스,I56220,서울특별시,강남구,논현2동,서울특별시 강남구 언주로 703,6053,127.0348672,37.51603064,0
투썸플레이스,I56220,서울특별시,송파구,문정2동,서울특별시 송파구 충민로 66,5838,127.124941,37.47760822,0
투썸플레이스,I56220,서울특별시,송파구,거여1동,서울특별시 송파구 오금로 495,5744,127.1439465,37.49348904,0
투썸플레이스,I56220,서울특별시,송파구,위례동,서울특별시 송파구 위례광장로 170,5849,127.1423159,37.4798351,0
투썸플레이스,I56220,서울특별시,동작구,상도1동,서울특별시 동작구 사당로 36-1,7027,126.9584888,37.49486494,0
투썸플레이스,I56220,서울특별시,강남구,논현1동,서울특별시 강남구 강남대로 476,6120,127.0247747,37.50490083,0
투썸플레이스,I56220,서울특별시,강남구,신사동,서울특별시 강남구 압구정로 112,6028,127.021097,37.52322485,0
투썸플레이스,I56220,서울특별시,서대문구,신촌동,서울특별시 서대문구 연세로 1,3789,126.9366468,37.55577919,0
투썸플레이스,I56220,서울특별시,서대문구,신촌동,서울특별시 서대문구 연세로5길 32,3789,126.9353484,37.55635317,0
투썸플레이스,I56220,서울특별시,도봉구,쌍문3동,서울특별시 도봉구 도봉로 461,1447,127.0333444,37.64704788,0
투썸플레이스,I56220,서울특별시,도봉구,쌍문3동,서울특별시 도봉구 도봉로 461,1447,127.0333444,37.64704788,0
투썸플레이스,I56220,서울특별시,도봉구,창1동,서울특별시 도봉구 도봉로 482,1454,127.0349919,37.64845797,0
투썸플레이스,I56220,서울특별시,서초구,서초4동,서울특별시 서초구 서초중앙로 188,6600,127.0137201,37.4975015,0
투썸플레이스,I56220,서울특별시,강남구,압구정동,서울특별시 강남구 압구정로30길 45,6022,127.0293864,37.52433848,0
투썸플레이스,I56220,서울특별시,강남구,압구정동,서울특별시 강남구 선릉로 845,6018,127.0403644,37.52754583,0
투썸플레이스,I56220,서울특별시,강남구,논현1동,서울특별시 강남구 강남대로 578,6043,127.0208299,37.51336513,0
투썸플레이스,I56220,서울특별시,서초구,양재1동,서울특별시 서초구 강남대로 213,6749,127.0349336,37.48275521,0
투썸플레이스,I56220,서울특별시,영등포구,여의동,서울특별시 영등포구 의사당대로 143,7332,126.9275534,37.51900651,0
투썸플레이스,I56220,서울특별시,강남구,역삼2동,서울특별시 강남구 언주로 419,6222,127.0434506,37.50026894,0
투썸플레이스,I56220,서울특별시,강남구,역삼1동,서울특별시 강남구 테헤란로27길 16,6141,127.0380168,37.5024324,0
투썸플레이스,I56220,서울특별시,은평구,갈현2동,서울특별시 은평구 연서로 223,3331,126.9198391,37.61850077,0
투썸플레이스,I56220,서울특별시,성동구,옥수동,서울특별시 성동구 매봉길 13,4733,127.0151752,37.54426016,0
투썸플레이스,I56220,서울특별시,성동구,옥수동,서울특별시 성동구 매봉길 15,4733,127.0136927,37.54598681,0
투썸플레이스,I56220,서울특별시,성동구,옥수동,서울특별시 성동구 독서당로40길 37,4739,127.0178663,37.54184074,0
투썸플레이스,I56220,서울특별시,중구,명동,서울특별시 중구 명동길 53,4538,126.9851561,37.56408123,0
투썸플레이스,I56220,서울특별시,성동구,행당1동,서울특별시 성동구 왕십리광장로 17,4750,127.0383792,37.56143616,0
투썸플레이스,I56220,서울특별시,용산구,남영동,서울특별시 용산구 한강대로 366,4323,126.9728948,37.55108128,0
투썸플레이스,I56220,서울특별시,강서구,발산1동,서울특별시 강서구 강서로 259,7639,126.8359801,37.54886478,0
투썸플레이스,I56220,서울특별시,송파구,잠실6동,서울특별시 송파구 올림픽로35다길 32,5510,127.1020277,37.51501052,0
투썸플레이스,I56220,서울특별시,종로구,종로1.2.3.4가동,서울특별시 종로구 종로 72,3189,126.9853709,37.56993985,0
투썸플레이스,I56220,서울특별시,종로구,종로1.2.3.4가동,서울특별시 종로구 종로5길 58,3151,126.9803158,37.57289676,0
투썸플레이스,I56220,서울특별시,노원구,중계본동,서울특별시 노원구 한글비석로 242,1734,127.0769564,37.64922628,0
투썸플레이스,I56220,서울특별시,강남구,논현2동,서울특별시 강남구 논현로 604,6109,127.0340251,37.50764396,0
투썸플레이스,I56220,서울특별시,도봉구,창5동,서울특별시 도봉구 노해로65길 14-3,1405,127.0467539,37.65205862,0
투썸플레이스,I56220,서울특별시,서대문구,충현동,서울특별시 서대문구 충정로 13,3737,126.9626005,37.56056035,0
투썸플레이스,I56220,서울특별시,서대문구,충현동,서울특별시 서대문구 서소문로 27,3741,126.9648455,37.5602737,0
투썸플레이스,I56220,서울특별시,강남구,삼성2동,서울특별시 강남구 봉은사로 410,6153,127.0452676,37.51033941,0
투썸플레이스,I56220,서울특별시,동대문구,장안1동,서울특별시 동대문구 장한로 73,2628,127.0683545,37.56756936,0
투썸플레이스,I56220,서울특별시,동대문구,회기동,서울특별시 동대문구 경희대로 7-1,2454,127.0522045,37.59230964,0
투썸플레이스,I56220,서울특별시,강남구,삼성1동,서울특별시 강남구 영동대로 513,6164,127.0571003,37.5129394,0
투썸플레이스,I56220,서울특별시,서초구,반포2동,서울특별시 서초구 반포대로 287,6547,127.0010418,37.50434209,0
투썸플레이스,I56220,서울특별시,서초구,반포2동,서울특별시 서초구 반포대로 287,6547,127.0010418,37.50434209,0
투썸플레이스,I56220,서울특별시,중구,명동,서울특별시 중구 을지로 100,4551,126.9881233,37.56563848,0
투썸플레이스,I56220,서울특별시,강남구,일원본동,서울특별시 강남구 일원로 81,6351,127.0895788,37.49033434,0
투썸플레이스,I56220,서울특별시,강남구,대치2동,서울특별시 강남구 테헤란로 508,6178,127.0579578,37.50681005,0
투썸플레이스,I56220,서울특별시,성동구,사근동,서울특별시 성동구 왕십리로 220,4763,127.0474999,37.55717606,0
투썸플레이스,I56220,서울특별시,금천구,독산1동,서울특별시 금천구 두산로 70,8584,126.8956093,37.46895637,0
투썸플레이스,I56220,서울특별시,마포구,서교동,서울특별시 마포구 와우산로21길 26,4040,126.922547,37.5524797,0
투썸플레이스,I56220,서울특별시,마포구,서교동,서울특별시 마포구 와우산로 102,4059,126.9248493,37.55292418,0
투썸플레이스,I56220,서울특별시,노원구,공릉2동,서울특별시 노원구 노원로 3,1827,127.0866391,37.62198215,0
투썸플레이스,I56220,서울특별시,중구,황학동,서울특별시 중구 퇴계로 447,4575,127.0217382,37.56593983,0
투썸플레이스,I56220,서울특별시,관악구,신림동,서울특별시 관악구 신림로 350,8754,126.9299661,37.48550042,0
할리스,I56220,서울특별시,종로구,종로1.2.3.4가동,서울특별시 종로구 종로 113,3139,126.9901168,37.57057523,0
할리스,I56220,서울특별시,노원구,상계2동,서울특별시 노원구 상계로 63-7,1693,127.0618724,37.65650478,0
할리스,I56220,서울특별시,종로구,종로1.2.3.4가동,서울특별시 종로구 종로5길 68,3151,126.9804448,37.57340246,0
할리스,I56220,서울특별시,광진구,화양동,서울특별시 광진구 광나루로 410,5021,127.0749986,37.54656407,0
할리스,I56220,서울특별시,구로구,구로3동,서울특별시 구로구 디지털로32나길 38,8391,126.9011806,37.48453338,0
할리스,I56220,서울특별시,노원구,상계2동,서울특별시 노원구 노해로81길 22-26,1695,127.0639654,37.65589069,0
할리스,I56220,서울특별시,광진구,화양동,서울특별시 광진구 아차산로 235,5018,127.0695162,37.54060109,0
할리스,I56220,서울특별시,종로구,혜화동,서울특별시 종로구 대명길 4,3077,127.0011699,37.58379745,0
할리스,I56220,서울특별시,강남구,대치2동,서울특별시 강남구 역삼로 527,6184,127.0606513,37.50397515,0
할리스,I56220,서울특별시,관악구,신림동,서울특별시 관악구 신림로 353-1,8760,126.9292248,37.48594423,0
할리스,I56220,서울특별시,은평구,응암1동,서울특별시 은평구 은평로 200-1,3472,126.9299789,37.600987,0
할리스,I56220,서울특별시,중구,명동,서울특별시 중구 명동8길 21,4536,126.9848453,37.56279908,0
할리스,I56220,서울특별시,강남구,대치4동,서울특별시 강남구 도곡로 413,6207,127.0557666,37.49758376,0
할리스,I56220,서울특별시,서대문구,충현동,서울특별시 서대문구 충정로 29,3737,126.9633172,37.56192722,0
할리스,I56220,서울특별시,서초구,서초2동,서울특별시 서초구 강남대로37길 24,6735,127.0322934,37.48495021,0
할리스,I56220,서울특별시,중구,명동,서울특별시 중구 퇴계로20길 2,4631,126.9854192,37.55970443,0
할리스,I56220,서울특별시,금천구,가산동,서울특별시 금천구 가산디지털1로 186,8502,126.881568,37.4819075,0
할리스,I56220,서울특별시,강동구,성내1동,서울특별시 강동구 성내로 48,5399,127.1253431,37.52844004,0
할리스,I56220,서울특별시,강남구,역삼1동,서울특별시 강남구 강남대로94길 28,6134,127.0295819,37.49963321,0
할리스,I56220,서울특별시,서대문구,남가좌2동,서울특별시 서대문구 모래내로15길 56,3710,126.9193148,37.57410209,0
할리스,I56220,서울특별시,중구,필동,서울특별시 중구 퇴계로36길 2,4626,126.9935447,37.56063898,0
할리스,I56220,서울특별시,강남구,삼성1동,서울특별시 강남구 테헤란로87길 22,6164,127.0594268,37.50962404,0
할리스,I56220,서울특별시,양천구,목2동,서울특별시 양천구 목동중앙북로18길 26-12,7971,126.8745252,37.54509373,0
할리스,I56220,서울특별시,용산구,남영동,서울특별시 용산구 한강대로 306,4320,126.9718553,37.54518842,0
할리스,I56220,서울특별시,양천구,목1동,서울특별시 양천구 목동서로 225,7995,126.8707346,37.52706381,0
할리스,I56220,서울특별시,송파구,잠실본동,서울특별시 송파구 백제고분로 89,5562,127.079333,37.50880773,0
할리스,I56220,서울특별시,구로구,고척1동,서울특별시 구로구 경인로 430,8275,126.8670754,37.49820447,0
할리스,I56220,서울특별시,영등포구,영등포동,서울특별시 영등포구 경인로 847,7304,126.9068735,37.51674452,0
할리스,I56220,서울특별시,강남구,삼성1동,서울특별시 강남구 영동대로 511,6164,127.0610126,37.51034849,0
할리스,I56220,서울특별시,종로구,종로1.2.3.4가동,서울특별시 종로구 율곡로 88,3131,126.9889006,37.57680003,0
할리스,I56220,서울특별시,서초구,방배3동,서울특별시 서초구 방배로9길 23,6695,126.9968837,37.48036585,0
할리스,I56220,서울특별시,용산구,이촌1동,서울특별시 용산구 이촌로 303,4424,126.9812546,37.51890526,0
할리스,I56220,서울특별시,영등포구,대림2동,서울특별시 영등포구 도림로 140,7417,126.8976736,37.49312373,0
할리스,I56220,서울특별시,강남구,삼성1동,서울특별시 강남구 테헤란로87길 22,6164,127.0594268,37.50962404,0
할리스,I56220,서울특별시,송파구,잠실6동,서울특별시 송파구 올림픽로35가길 16,5510,127.1029857,37.51624324,0
할리스,I56220,서울특별시,관악구,서원동,서울특별시 관악구 신림로 313,8776,126.9296736,37.48222696,0
할리스,I56220,서울특별시,강남구,대치2동,서울특별시 강남구 영동대로76길 12,6176,127.0660186,37.50619827,0
할리스,I56220,서울특별시,강남구,대치2동,서울특별시 강남구 테헤란로 620,6174,127.0655629,37.50918617,0
할리스,I56220,서울특별시,종로구,종로1.2.3.4가동,서울특별시 종로구 청계천로 65,3189,126.9847524,37.56880823,0
할리스,I56220,서울특별시,용산구,원효로1동,서울특별시 용산구 원효로90길 11,4315,126.9697034,37.54038512,0
할리스,I56220,서울특별시,서대문구,신촌동,서울특별시 서대문구 이화여대5길 20-5,3766,126.9444969,37.5585077,0
할리스,I56220,서울특별시,금천구,가산동,서울특별시 금천구 가산디지털2로 45,8588,126.8815382,37.47252732,0
할리스,I56220,서울특별시,용산구,한남동,서울특별시 용산구 이태원로 294,4399,127.0024671,37.54086467,0
할리스,I56220,서울특별시,마포구,합정동,서울특별시 마포구 양화로 36,4071,126.9133244,37.54850269,0
할리스,I56220,서울특별시,강남구,논현1동,서울특별시 강남구 강남대로 478,6120,127.0246477,37.50509802,0
할리스,I56220,서울특별시,강남구,역삼1동,서울특별시 강남구 강남대로 402,6134,127.0278175,37.49877171,0
할리스,I56220,서울특별시,영등포구,양평2동,서울특별시 영등포구 양평로 76,7222,126.8986291,37.53584209,0
할리스,I56220,서울특별시,영등포구,양평2동,서울특별시 영등포구 선유동2로 57,7212,126.8968599,37.53381625,0
할리스,I56220,서울특별시,강남구,역삼1동,서울특별시 강남구 강남대로94길 28,6134,127.0295819,37.49963321,0
할리스,I56220,서울특별시,종로구,이화동,서울특별시 종로구 대학로8가길 80,3086,127.0032482,37.58247246,0
할리스,I56220,서울특별시,강남구,삼성2동,서울특별시 강남구 테헤란로 431,6159,127.0542522,37.50647408,0
할리스,I56220,서울특별시,강남구,역삼2동,서울특별시 강남구 테헤란로 238,6221,127.0421952,37.50204286,0
할리스,I56220,서울특별시,용산구,이촌1동,서울특별시 용산구 이촌로 248,4426,126.9750038,37.51937378,0
할리스,I56220,서울특별시,서대문구,신촌동,서울특별시 서대문구 연세로 34,3776,126.9371387,37.55860387,0
할리스,I56220,서울특별시,강남구,논현1동,서울특별시 강남구 강남대로 478,6120,127.0246477,37.50509802,0
할리스,I56220,서울특별시,종로구,종로1.2.3.4가동,서울특별시 종로구 청계천로 71,3189,126.9854663,37.5687513,0
할리스,I56220,서울특별시,강남구,대치4동,서울특별시 강남구 선릉로86길 11,6192,127.0505138,37.50336248,0
할리스,I56220,서울특별시,강남구,역삼1동,서울특별시 강남구 강남대로94길 28,6134,127.0295819,37.49963321,0
할리스,I56220,서울특별시,강동구,길동,서울특별시 강동구 양재대로 1484,5351,127.1403703,37.53810159,0
할리스,I56220,서울특별시,강서구,우장산동,서울특별시 강서구 공항대로 284,7646,126.8390947,37.5581851,0
할리스,I56220,서울특별시,송파구,잠실2동,서울특별시 송파구 올림픽로 25,5500,127.0759279,37.51618783,0
할리스,I56220,서울특별시,강남구,신사동,서울특별시 강남구 압구정로 164,6030,127.0276271,37.52652258,0
할리스,I56220,서울특별시,서초구,반포1동,서울특별시 서초구 신반포로 332,6535,127.0200541,37.51041225,0
할리스,I56220,서울특별시,성북구,안암동,서울특별시 성북구 인촌로24길 56,2855,127.0292961,37.58365366,0
할리스,I56220,서울특별시,은평구,불광1동,서울특별시 은평구 통일로 736,3358,126.9295938,37.61126428,0
할리스,I56220,서울특별시,서초구,서초4동,서울특별시 서초구 서초대로77길 29,6614,127.0254563,37.50032009,0
할리스,I56220,서울특별시,광진구,구의3동,서울특별시 광진구 광나루로 620,5117,127.096029,37.54059979,0
할리스,I56220,서울특별시,중구,약수동,서울특별시 중구 다산로 114,4597,127.0104075,37.5539516,0
할리스,I56220,서울특별시,강남구,논현1동,서울특별시 강남구 강남대로 478,6120,127.0246477,37.50509802,0
할리스,I56220,서울특별시,성북구,삼선동,서울특별시 성북구 동소문로 8,2860,127.0071401,37.58865036,0
할리스,I56220,서울특별시,강남구,도곡2동,서울특별시 강남구 논현로28길 54,6300,127.0461842,37.48452254,0
할리스,I56220,서울특별시,송파구,석촌동,서울특별시 송파구 백제고분로 275,5613,127.097334,37.50273837,0
할리스,I56220,서울특별시,강남구,개포2동,서울특별시 강남구 선릉로 38,6325,127.0603019,37.48312189,0
할리스,I56220,서울특별시,서초구,서초3동,서울특별시 서초구 반포대로30길 81,6644,127.0129668,37.49286379,0
할리스,I56220,서울특별시,서대문구,충현동,서울특별시 서대문구 서소문로 27,3741,126.9648455,37.5602737,0
할리스,I56220,서울특별시,송파구,잠실6동,서울특별시 송파구 오금로 58,5510,127.1053896,37.516712,0
할리스,I56220,서울특별시,관악구,청룡동,서울특별시 관악구 남부순환로 1820,8787,126.9520677,37.48094098,0
할리스,I56220,서울특별시,은평구,대조동,서울특별시 은평구 불광로 20,3397,126.928925,37.60972646,0
할리스,I56220,서울특별시,서초구,반포3동,서울특별시 서초구 신반포로33길 15,6521,127.0098096,37.50844362,0
할리스,I56220,서울특별시,영등포구,영등포동,서울특별시 영등포구 영등포로 216,7302,126.9053279,37.51955948,0
할리스,I56220,서울특별시,중구,소공동,서울특별시 중구 정동길 3,4518,126.9699548,37.56816645,0
할리스,I56220,서울특별시,관악구,신림동,서울특별시 관악구 남부순환로 1599-3,8759,126.9282507,37.4844757,0
할리스,I56220,서울특별시,서초구,반포4동,서울특별시 서초구 신반포로 194,6545,127.0068163,37.50642716,0
할리스,I56220,서울특별시,종로구,종로1.2.3.4가동,서울특별시 종로구 종로 113,3139,126.9901168,37.57057523,0
할리스,I56220,서울특별시,강서구,방화2동,서울특별시 강서구 양천로 28,7601,126.8068967,37.57224451,0
할리스,I56220,서울특별시,강남구,논현2동,서울특별시 강남구 학동로 219,6053,127.0331047,37.51498903,0
할리스,I56220,서울특별시,서초구,반포본동,서울특별시 서초구 신반포로 15,6501,126.986167,37.50113376,0
할리스,I56220,서울특별시,광진구,자양3동,서울특별시 광진구 아차산로36길 5,5066,127.074625,37.53833454,0
할리스,I56220,서울특별시,중구,소공동,서울특별시 중구 세종대로 64,4526,126.9766844,37.56196274,0
할리스,I56220,서울특별시,동대문구,답십리1동,서울특별시 동대문구 천호대로 241,2603,127.0494447,37.56979738,0
할리스,I56220,서울특별시,마포구,서교동,서울특별시 마포구 홍익로 4,4055,126.9241329,37.55316093,0
할리스,I56220,서울특별시,동작구,사당2동,서울특별시 동작구 동작대로 123,7008,126.9818588,37.48775212,0
할리스,I56220,서울특별시,중구,명동,서울특별시 중구 명동8길 21,4536,126.9848453,37.56279908,0
할리스,I56220,서울특별시,서대문구,신촌동,서울특별시 서대문구 연세로 34,3776,126.9371387,37.55860387,0
할리스,I56220,서울특별시,관악구,서원동,서울특별시 관악구 신림로 313,8776,126.9296736,37.48222696,0
할리스,I56220,서울특별시,관악구,신림동,서울특별시 관악구 신림로 353-1,8760,126.9292248,37.48594423,0
할리스,I56220,서울특별시,서대문구,충현동,서울특별시 서대문구 통일로9안길 28,3735,126.9653198,37.56608056,0
할리스,I56220,서울특별시,강서구,염창동,서울특별시 강서구 양천로 583,7547,126.8643281,37.557106,0
할리스,I56220,서울특별시,강남구,역삼2동,서울특별시 강남구 테헤란로 238,6221,127.0421952,37.50204286,0
할리스,I56220,서울특별시,은평구,역촌동,서울특별시 은평구 연서로 130,3398,126.9171721,37.61025894,0
할리스,I56220,서울특별시,마포구,서교동,서울특별시 마포구 신촌로 74,4057,126.9339862,37.5558453,0
할리스,I56220,서울특별시,영등포구,양평2동,서울특별시 영등포구 양평로 76,7222,126.8986291,37.53584209,0
할리스,I56220,서울특별시,동대문구,휘경1동,서울특별시 동대문구 회기로 196,2446,127.058012,37.58973409,0
할리스,I56220,서울특별시,강남구,대치1동,서울특별시 강남구 도곡로 414,6278,127.0559124,37.49678298,0
할리스,I56220,서울특별시,강남구,역삼2동,서울특별시 강남구 도곡로 213,6231,127.0420836,37.49306743,0
할리스,I56220,서울특별시,강남구,대치2동,서울특별시 강남구 역삼로 527,6184,127.0606513,37.50397515,0
할리스,I56220,서울특별시,서초구,서초2동,서울특별시 서초구 남부순환로347길 13,6734,127.0316714,37.48495413,0
할리스,I56220,서울특별시,은평구,응암1동,서울특별시 은평구 은평로 200-1,3472,126.9299789,37.600987,0
할리스,I56220,서울특별시,강남구,대치4동,서울특별시 강남구 테헤란로 406,6192,127.0499464,37.50441215,0
할리스,I56220,서울특별시,종로구,이화동,서울특별시 종로구 대학로10길 11,3086,127.0027923,37.5818469,0
할리스,I56220,서울특별시,강남구,역삼1동,서울특별시 강남구 테헤란로 101,6134,127.0280225,37.49865626,0
할리스,I56220,서울특별시,강남구,논현2동,서울특별시 강남구 언주로 711,6050,127.0334059,37.51707293,0
할리스,I56220,서울특별시,중구,명동,서울특별시 중구 명동길 81,4538,126.9865657,37.56447178,0
할리스,I56220,서울특별시,광진구,화양동,서울특별시 광진구 아차산로 235,5018,127.0695162,37.54060109,0
할리스,I56220,서울특별시,용산구,한강로동,서울특별시 용산구 한강대로21나길 7,4377,126.9632226,37.52790298,0
할리스,I56220,서울특별시,서초구,양재2동,서울특별시 서초구 양재대로12길 73-71,6803,127.0427135,37.45965224,0
할리스,I56220,서울특별시,금천구,가산동,서울특별시 금천구 가산디지털2로 165,8504,126.8774447,37.48241804,0
할리스,I56220,서울특별시,종로구,사직동,서울특별시 종로구 새문안로 58,3184,126.9715584,37.56926168,0
할리스,I56220,서울특별시,서초구,잠원동,서울특별시 서초구 강남대로 621,6524,127.0187669,37.51715045,0
할리스,I56220,서울특별시,송파구,잠실본동,서울특별시 송파구 백제고분로 109,5570,127.0797621,37.50702698,0
할리스,I56220,서울특별시,서초구,서초4동,서울특별시 서초구 서초중앙로26길 10,6604,127.0143795,37.49551567,0
할리스,I56220,서울특별시,영등포구,영등포동,서울특별시 영등포구 경인로 847,7304,126.9068735,37.51674452,0
할리스,I56220,서울특별시,용산구,한남동,서울특별시 용산구 대사관로 62,4402,127.0049566,37.53319973,0
할리스,I56220,서울특별시,강남구,압구정동,서울특별시 강남구 논현로 854,6022,127.0287793,37.52491918,0
할리스,I56220,서울특별시,강동구,성내3동,서울특별시 강동구 강동대로 205,5407,127.1291044,37.52411573,0
할리스,I56220,서울특별시,강동구,천호3동,서울특별시 강동구 천호대로157길 18,5335,127.1274663,37.53848451,0
할리스,I56220,서울특별시,강남구,역삼1동,서울특별시 강남구 강남대로 426,6129,127.0267423,37.50057398,0
할리스,I56220,서울특별시,서초구,반포본동,서울특별시 서초구 신반포로 17,6501,126.9868646,37.50140105,0
할리스,I56220,서울특별시,은평구,대조동,서울특별시 은평구 연서로 212,3386,126.9196429,37.61719248,0
할리스,I56220,서울특별시,강남구,논현1동,서울특별시 강남구 학동로 161,6045,127.0283162,37.51351706,0
할리스,I56220,서울특별시,중구,중림동,서울특별시 중구 중림로 21,4506,126.9660632,37.55897786,0
할리스,I56220,서울특별시,서대문구,연희동,서울특별시 서대문구 연희로32길 51,3718,126.9378432,37.5767391,0
할리스,I56220,서울특별시,종로구,종로1.2.3.4가동,서울특별시 종로구 종로5길 68,3151,126.9804448,37.57340246,0
할리스,I56220,서울특별시,노원구,상계2동,서울특별시 노원구 상계로 63-7,1693,127.0618724,37.65650478,0
할리스,I56220,서울특별시,송파구,잠실6동,서울특별시 송파구 올림픽로35길 137,5510,127.0995843,37.51594704,0
할리스,I56220,서울특별시,구로구,고척1동,서울특별시 구로구 경인로 430,8275,126.8673479,37.49738713,0
할리스,I56220,서울특별시,강남구,수서동,서울특별시 강남구 밤고개로1길 10,6349,127.1018421,37.48801336,0
할리스,I56220,서울특별시,서대문구,남가좌2동,서울특별시 서대문구 모래내로15길 56,3710,126.9193148,37.57410209,0
할리스,I56220,서울특별시,영등포구,당산2동,서울특별시 영등포구 당산로 219,7213,126.9012211,37.53346947,0
할리스,I56220,서울특별시,중구,명동,서울특별시 중구 무교로 28,4521,126.9795613,37.56845712,0
할리스,I56220,서울특별시,강남구,신사동,서울특별시 강남구 강남대로152길 41,6035,127.0226667,37.51823701,0
할리스,I56220,서울특별시,양천구,목1동,서울특별시 양천구 목동서로 159-1,7997,126.8749711,37.52822154,0
할리스,I56220,서울특별시,용산구,남영동,서울특별시 용산구 한강대로 405,4320,126.9717115,37.55482833,0
할리스,I56220,서울특별시,용산구,한남동,서울특별시 용산구 이태원로 294,4399,127.0024671,37.54086467,0
할리스,I56220,서울특별시,은평구,구산동,서울특별시 은평구 연서로 135,3412,126.9168232,37.61088646,0
할리스,I56220,서울특별시,서대문구,남가좌2동,서울특별시 서대문구 거북골로 41,3665,126.923376,37.57902282,0
할리스,I56220,서울특별시,강서구,공항동,서울특별시 강서구 하늘길 112,7505,126.8033425,37.55877421,0
할리스,I56220,서울특별시,영등포구,여의동,서울특별시 영등포구 의사당대로 82,7321,126.9218332,37.52266673,0
할리스,I56220,서울특별시,노원구,상계3.4동,서울특별시 노원구 덕릉로126길 11,1643,127.0817028,37.67053675,0
할리스,I56220,서울특별시,양천구,목1동,서울특별시 양천구 목동서로 225,7995,126.8707346,37.52706381,0
할리스,I56220,서울특별시,영등포구,대림2동,서울특별시 영등포구 시흥대로 595,7445,126.9033374,37.48627442,0
할리스,I56220,서울특별시,마포구,서교동,서울특별시 마포구 양화로 151,3995,126.9223455,37.55625322,0
할리스,I56220,서울특별시,은평구,진관동,서울특별시 은평구 진관3로 11,3300,126.9182442,37.63945307,0
할리스,I56220,서울특별시,관악구,신사동,서울특별시 관악구 남부순환로 1489,8761,126.9161592,37.48241912,0
할리스,I56220,서울특별시,용산구,원효로1동,서울특별시 용산구 백범로 341,4315,126.9679607,37.53792807,0
할리스,I56220,서울특별시,양천구,신월5동,서울특별시 양천구 가로공원로 113,7905,126.8285738,37.53617707,0
할리스,I56220,서울특별시,종로구,종로5.6가동,서울특별시 종로구 동호로 401,3195,127.001646,37.57018674,0
할리스,I56220,서울특별시,영등포구,여의동,서울특별시 영등포구 의사당대로 38,7236,126.9186738,37.52601676,0
할리스,I56220,서울특별시,금천구,가산동,서울특별시 금천구 가산디지털1로 186,8502,126.881568,37.4819075,0
할리스,I56220,서울특별시,강남구,역삼1동,서울특별시 강남구 강남대로 402,6134,127.0278175,37.49877171,0
할리스,I56220,서울특별시,강동구,고덕2동,서울특별시 강동구 상일로 151,5222,127.1704814,37.56050095,0
할리스,I56220,서울특별시,광진구,광장동,서울특별시 광진구 천호대로 808,4983,127.1032542,37.54484478,0
할리스,I56220,서울특별시,송파구,잠실6동,서울특별시 송파구 올림픽로 319,5510,127.105458,37.51572135,0
할리스,I56220,서울특별시,구로구,구로3동,서울특별시 구로구 디지털로31길 12,8380,126.8953491,37.48510072,0
할리스,I56220,서울특별시,강동구,천호1동,서울특별시 강동구 양재대로 1591,5307,127.1429991,37.54767189,0
할리스,I56220,서울특별시,금천구,독산1동,서울특별시 금천구 시흥대로 399,8584,126.8968463,37.46940043,0
할리스,I56220,서울특별시,관악구,인헌동,서울특별시 관악구 남부순환로 1922,8793,126.9627275,37.47702536,0
할리스,I56220,서울특별시,서초구,서초1동,서울특별시 서초구 서초중앙로 52,6640,127.0157388,37.4867237,0
할리스,I56220,서울특별시,동작구,노량진1동,서울특별시 동작구 노량진로 200,6913,126.9478997,37.51289119,0
할리스,I56220,서울특별시,동작구,노량진1동,서울특별시 동작구 노량진로 157,6902,126.9433373,37.51396776,0
할리스,I56220,서울특별시,노원구,상계2동,서울특별시 노원구 노해로81길 22-26,1695,127.0639654,37.65589069,0
할리스,I56220,서울특별시,성동구,용답동,서울특별시 성동구 천호대로 302,4804,127.0536974,37.56561465,0
할리스,I56220,서울특별시,강서구,가양1동,서울특별시 강서구 공항대로 247,7803,126.8351177,37.55919112,0
할리스,I56220,서울특별시,마포구,용강동,서울특별시 마포구 마포대로 33,4167,126.9459068,37.53957139,0
할리스,I56220,서울특별시,마포구,용강동,서울특별시 마포구 마포대로 33,4167,126.9454926,37.54005426,0
할리스,I56220,서울특별시,중구,명동,서울특별시 중구 명동8나길 14,4536,126.9841719,37.56154084,0
할리스,I56220,서울특별시,서대문구,남가좌2동,서울특별시 서대문구 거북골로 31-1,3665,126.9241611,37.57953456,0
할리스,I56220,서울특별시,송파구,문정2동,서울특별시 송파구 송파대로 167,5855,127.1207441,37.4845513,0
할리스,I56220,서울특별시,강서구,발산1동,서울특별시 강서구 발산로 24,7644,126.8187281,37.55278412,0
할리스,I56220,서울특별시,서초구,방배3동,서울특별시 서초구 남부순환로 2335,6714,127.0065958,37.47782583,0
할리스,I56220,서울특별시,강동구,천호2동,서울특별시 강동구 올림픽로 664,5328,127.1252708,37.54044157,0
할리스,I56220,서울특별시,서대문구,북가좌2동,서울특별시 서대문구 응암로 89,3678,126.9119115,37.58107117,0
할리스,I56220,서울특별시,은평구,불광1동,서울특별시 은평구 통일로 736,3358,126.9295938,37.61126428,0
할리스,I56220,서울특별시,마포구,서강동,서울특별시 마포구 와우산로 48,4068,126.9234183,37.54855011,0
할리스,I56220,서울특별시,종로구,사직동,서울특별시 종로구 세종대로 161,3183,126.9762482,37.57067203,0
할리스,I56220,서울특별시,관악구,삼성동,서울특별시 관악구 호암로 605,8846,126.9336044,37.47136879,0
할리스,I56220,서울특별시,양천구,신정3동,서울특별시 양천구 중앙로 252,8082,126.8536718,37.51906039,0
할리스,I56220,서울특별시,영등포구,영등포동,서울특별시 영등포구 영중로 8-1,7304,126.9064366,37.51722704,0
할리스,I56220,서울특별시,영등포구,여의동,서울특별시 영등포구 국제금융로2길 37,7327,126.924273,37.52293226,0
할리스,I56220,서울특별시,송파구,오륜동,서울특별시 송파구 양재대로 1222,5648,127.1310458,37.51572315,0
할리스,I56220,서울특별시,용산구,원효로1동,서울특별시 용산구 원효로90길 11,4315,126.9697034,37.54038512,0
할리스,I56220,서울특별시,동작구,사당1동,서울특별시 동작구 동작대로 83,7013,126.9815363,37.48401898,0
할리스,I56220,서울특별시,동작구,상도2동,서울특별시 동작구 장승배기로11가길 11,6937,126.9380827,37.50561298,0
할리스,I56220,서울특별시,종로구,종로1.2.3.4가동,서울특별시 종로구 종로 84,3190,126.9867974,37.56993408,0
할리스,I56220,서울특별시,강동구,천호2동,서울특별시 강동구 올림픽로70길 61,5329,127.1269691,37.5393909,0
할리스,I56220,서울특별시,종로구,종로1.2.3.4가동,서울특별시 종로구 청계천로 65,3189,126.9847524,37.56880823,0
할리스,I56220,서울특별시,광진구,구의3동,서울특별시 광진구 광나루로56길 85,5116,127.0956807,37.53571341,0
할리스,I56220,서울특별시,성동구,사근동,서울특별시 성동구 마조로1가길 9,4760,127.0399082,37.56048448,0
할리스,I56220,서울특별시,마포구,합정동,서울특별시 마포구 양화로 36,4071,126.9133244,37.54850269,0
할리스,I56220,서울특별시,마포구,서교동,서울특별시 마포구 어울마당로 111,4050,126.9227394,37.55483317,0
할리스,I56220,서울특별시,광진구,화양동,서울특별시 광진구 능동로 159,5010,127.0726768,37.54488793,0
할리스,I56220,서울특별시,중구,회현동,서울특별시 중구 퇴계로 72,4632,126.9805829,37.55911313,0
